{"type":"FeatureCollection","features":[{"id":"way/5609833","type":"Feature","properties":{"@id":"way/5609833","electrified":"no","gauge":"1435","maxspeed":"30 mph","name":"Hudson Subdivision","old_railway_operator":"NYC","operator":"CSX Transportation","operator:wikidata":"Q856783","owner":"CSX","railway":"rail","railway:track_ref":"1","usage":"main"},"geometry":{"coordinates":[[-73.7407838,42.6449802],[-73.7407012,42.6453229],[-73.7405467,42.6459605],[-73.7404406,42.6463924],[-73.7403783,42.6465963],[-73.7403343,42.6467177],[-73.7402948,42.6468251],[-73.7402366,42.6469622],[-73.7402286,42.6469811],[-73.7397212,42.6480671]],"type":"LineString"}},{"id":"way/5627890","type":"Feature","properties":{"@id":"way/5627890","electrified":"no","gauge":"1435","maxspeed":"30 mph","name":"Hudson Subdivision","old_railway_operator":"NYC","operator":"CSX Transportation","operator:wikidata":"Q856783","owner":"CSX","railway":"rail","railway:track_ref":"1","usage":"main"},"geometry":{"coordinates":[[-73.7385916,42.6504685],[-73.7384601,42.6507566],[-73.7383773,42.6509569],[-73.7383431,42.6510581],[-73.7383139,42.651156],[-73.7382941,42.65125],[-73.7382775,42.6513492],[-73.7382646,42.6514835],[-73.7382669,42.6516277],[-73.7382777,42.6517565],[-73.7382985,42.6518935],[-73.738327,42.6520102],[-73.7383555,42.6521089],[-73.7383917,42.6522038],[-73.7384373,42.6523042],[-73.7384859,42.6523996],[-73.7385449,42.6524972],[-73.7385966,42.6525724],[-73.7386499,42.6526417],[-73.7387102,42.652714],[-73.7387618,42.6527749],[-73.7388671,42.6528822],[-73.7389131,42.652927],[-73.7389732,42.6529836],[-73.7390238,42.653028],[-73.7390746,42.6530726],[-73.7391678,42.6531441],[-73.7392137,42.6531773]],"type":"LineString"}},{"id":"way/91354436","type":"Feature","properties":{"@id":"way/91354436","bridge":"yes","bridge:name":"Livingston Avenue Bridge","electrified":"no","gauge":"1435","layer":"1","maxspeed":"30 mph","name":"Hudson Subdivision","old_railway_operator":"NYC","operator":"CSX Transportation","operator:wikidata":"Q856783","owner":"CSX","railway":"rail","railway:track_ref":"1","usage":"main","wikidata":"Q6659629","wikipedia":"en:Livingston Avenue Bridge"},"geometry":{"coordinates":[[-73.7392649,42.6532115],[-73.7393566,42.6532728],[-73.7394513,42.6533311],[-73.73954,42.6533832],[-73.739632,42.6534335],[-73.7396765,42.6534565],[-73.7397234,42.6534799],[-73.7398169,42.6535248],[-73.7399965,42.6536042],[-73.741885,42.6543993]],"type":"LineString"}},{"id":"way/94810608","type":"Feature","properties":{"@id":"way/94810608","electrified":"no","gauge":"1435","level":"0","maxspeed":"30 mph","name":"Hudson Subdivision","old_railway_operator":"NYC","operator":"CSX Transportation","operator:wikidata":"Q856783","owner":"CSX","railway":"rail","railway:track_ref":"1","usage":"main"},"geometry":{"coordinates":[[-73.7415998,42.641573],[-73.7415731,42.6416743],[-73.7415409,42.6418124],[-73.741439,42.6422543],[-73.7413418,42.6426415]],"type":"LineString"}},{"id":"way/315015011","type":"Feature","properties":{"@id":"way/315015011","electrified":"no","gauge":"1435","maxspeed":"30 mph","name":"Hudson Subdivision","old_railway_operator":"NYC","operator":"CSX Transportation","operator:wikidata":"Q856783","owner":"CSX","railway":"rail","railway:track_ref":"1","usage":"main"},"geometry":{"coordinates":[[-73.7413418,42.6426415],[-73.7410737,42.6437773]],"type":"LineString"}},{"id":"way/657730334","type":"Feature","properties":{"@id":"way/657730334","electrified":"no","gauge":"1435","maxspeed":"30 mph","name":"Hudson Subdivision","old_railway_operator":"NYC","operator":"CSX Transportation","operator:wikidata":"Q856783","owner":"CSX","railway":"rail","railway:track_ref":"1","usage":"main"},"geometry":{"coordinates":[[-73.7419215,42.640271],[-73.7418652,42.64049],[-73.7418145,42.6406956]],"type":"LineString"}},{"id":"way/657730335","type":"Feature","properties":{"@id":"way/657730335","electrified":"no","gauge":"1435","railway":"rail","service":"crossover"},"geometry":{"coordinates":[[-73.742073,42.6391601],[-73.742018,42.6396721],[-73.7419636,42.6400924]],"type":"LineString"}},{"id":"way/657730337","type":"Feature","properties":{"@id":"way/657730337","bridge":"yes","electrified":"no","gauge":"1435","layer":"1","maxspeed":"15 mph","name":"Hudson Subdivision","old_railway_operator":"NYC","operator":"CSX Transportation","operator:wikidata":"Q856783","owner":"CSX","railway":"rail","railway:track_ref":"3","usage":"main"},"geometry":{"coordinates":[[-73.7429287,42.6361372],[-73.7428938,42.636261]],"type":"LineString"}},{"id":"way/657730338","type":"Feature","properties":{"@id":"way/657730338","electrified":"no","gauge":"1435","maxspeed":"30 mph","name":"Hudson Subdivision","old_railway_operator":"NYC","operator":"Amtrak","operator:wikidata":"Q23239","owner":"CSX","railway":"rail","railway:track_ref":"3","usage":"main"},"geometry":{"coordinates":[[-73.7428938,42.636261],[-73.7424574,42.6376348],[-73.7422527,42.6384143],[-73.7421602,42.6388049],[-73.742073,42.6391601]],"type":"LineString"}},{"id":"way/657730339","type":"Feature","properties":{"@id":"way/657730339","electrified":"no","gauge":"1435","maxspeed":"15 mph","name":"Hudson Subdivision","old_railway_operator":"NYC","operator":"CSX Transportation","operator:wikidata":"Q856783","owner":"CSX","railway":"rail","railway:track_ref":"3","usage":"main"},"geometry":{"coordinates":[[-73.7431204,42.63549],[-73.7429287,42.6361372]],"type":"LineString"}},{"id":"way/786385035","type":"Feature","properties":{"@id":"way/786385035","electrified":"no","gauge":"1435","maxspeed":"15 mph","name":"Hudson Subdivision","old_railway_operator":"NYC","operator":"CSX Transportation","operator:wikidata":"Q856783","owner":"CSX","railway":"rail","railway:track_ref":"1","usage":"main"},"geometry":{"coordinates":[[-73.7432217,42.6350487],[-73.7431204,42.63549]],"type":"LineString"}},{"id":"way/786385037","type":"Feature","properties":{"@id":"way/786385037","electrified":"no","gauge":"1435","level":"0","maxspeed":"30 mph","name":"Hudson Subdivision","old_railway_operator":"NYC","operator":"CSX Transportation","operator:wikidata":"Q856783","owner":"CSX","railway":"rail","railway:track_ref":"1","usage":"main"},"geometry":{"coordinates":[[-73.7418145,42.6406956],[-73.7416534,42.641335]],"type":"LineString"}},{"id":"way/786385039","type":"Feature","properties":{"@id":"way/786385039","electrified":"no","gauge":"1435","maxspeed":"30 mph","name":"Hudson Subdivision","old_railway_operator":"NYC","operator":"CSX Transportation","operator:wikidata":"Q856783","owner":"CSX","railway":"rail","railway:track_ref":"1","usage":"main"},"geometry":{"coordinates":[[-73.7419636,42.6400924],[-73.7419215,42.640271]],"type":"LineString"}},{"id":"way/884516994","type":"Feature","properties":{"@id":"way/884516994","electrified":"no","gauge":"1435","maxspeed":"30 mph","name":"Hudson Subdivision","old_railway_operator":"NYC","operator":"Amtrak","operator:wikidata":"Q23239","owner":"CSX","railway":"rail","railway:track_ref":"1","usage":"main"},"geometry":{"coordinates":[[-73.7437927,42.6326618],[-73.7432217,42.6350487]],"type":"LineString"}},{"id":"way/884516999","type":"Feature","properties":{"@id":"way/884516999","electrified":"no","gauge":"1435","maxspeed":"30 mph","name":"Hudson Subdivision","old_railway_operator":"NYC","operator":"CSX Transportation","operator:wikidata":"Q856783","owner":"CSX","railway":"rail","railway:track_ref":"1","usage":"main"},"geometry":{"coordinates":[[-73.7410737,42.6437773],[-73.740984,42.6441558]],"type":"LineString"}},{"id":"way/884517001","type":"Feature","properties":{"@id":"way/884517001","electrified":"no","gauge":"1435","maxspeed":"15 mph","name":"Hudson Subdivision","old_railway_operator":"NYC","operator":"CSX Transportation","operator:wikidata":"Q856783","owner":"CSX","railway":"rail","railway:track_ref":"1","usage":"main"},"geometry":{"coordinates":[[-73.7394042,42.6487478],[-73.7392855,42.6490043]],"type":"LineString"}},{"id":"way/884517002","type":"Feature","properties":{"@id":"way/884517002","electrified":"no","gauge":"1435","maxspeed":"30 mph","name":"Hudson Subdivision","old_railway_operator":"NYC","operator":"CSX Transportation","operator:wikidata":"Q856783","owner":"CSX","railway":"rail","railway:track_ref":"1","usage":"main"},"geometry":{"coordinates":[[-73.7392855,42.6490043],[-73.739025,42.6495516]],"type":"LineString"}},{"id":"way/884517004","type":"Feature","properties":{"@id":"way/884517004","electrified":"no","gauge":"1435","maxspeed":"15 mph","name":"Hudson Subdivision","old_railway_operator":"NYC","operator":"CSX Transportation","operator:wikidata":"Q856783","owner":"CSX","railway":"rail","railway:track_ref":"1","usage":"main"},"geometry":{"coordinates":[[-73.7397212,42.6480671],[-73.7395732,42.6483862],[-73.7394042,42.6487478]],"type":"LineString"}},{"id":"way/884517005","type":"Feature","properties":{"@id":"way/884517005","electrified":"no","gauge":"1435","maxspeed":"20 mph","name":"Hudson Subdivision","old_railway_operator":"NYC","operator":"CSX Transportation","operator:wikidata":"Q856783","owner":"CSX","railway":"rail","railway:track_ref":"1","usage":"main"},"geometry":{"coordinates":[[-73.7392137,42.6531773],[-73.7392649,42.6532115]],"type":"LineString"}},{"id":"way/884552569","type":"Feature","properties":{"@id":"way/884552569","electrified":"no","gauge":"1435","maxspeed":"15 mph","name":"Hudson Subdivision","old_railway_operator":"NYC","operator":"CSX Transportation","operator:wikidata":"Q856783","owner":"CSX","railway":"rail","railway:track_ref":"1","usage":"main"},"geometry":{"coordinates":[[-73.740984,42.6441558],[-73.7407838,42.6449802]],"type":"LineString"}},{"id":"way/915242120","type":"Feature","properties":{"@id":"way/915242120","electrified":"no","gauge":"1435","level":"0","maxspeed":"30 mph","name":"Hudson Subdivision","old_railway_operator":"NYC","operator":"CSX Transportation","operator:wikidata":"Q856783","owner":"CSX","railway":"rail","railway:track_ref":"1","usage":"main"},"geometry":{"coordinates":[[-73.7416534,42.641335],[-73.7416207,42.6414842]],"type":"LineString"}},{"id":"way/915242121","type":"Feature","properties":{"@id":"way/915242121","covered":"yes","electrified":"no","gauge":"1435","level":"0","maxspeed":"15 mph","name":"Hudson Subdivision","old_railway_operator":"NYC","operator":"CSX Transportation","operator:wikidata":"Q856783","owner":"CSX","railway":"rail","railway:track_ref":"1","usage":"main"},"geometry":{"coordinates":[[-73.7416207,42.6414842],[-73.7415998,42.641573]],"type":"LineString"}},{"id":"way/1030387899","type":"Feature","properties":{"@id":"way/1030387899","electrified":"no","gauge":"1435","maxspeed":"30 mph","name":"Hudson Subdivision","old_railway_operator":"NYC","operator":"CSX Transportation","operator:wikidata":"Q856783","owner":"CSX","railway":"rail","railway:track_ref":"1","usage":"main"},"geometry":{"coordinates":[[-73.739025,42.6495516],[-73.7388587,42.6499053],[-73.7385916,42.6504685]],"type":"LineString"}}]}