{"type":"FeatureCollection","features":[{"id":"way/23657924","type":"Feature","properties":{"@id":"way/23657924","bridge":"yes","bridge:structure":"truss","electrified":"no","gauge":"1435","layer":"1","maxspeed":"70 mph","maxspeed:freight":"50 mph","maxspeed:tilting":"79 mph","name":"Seattle Subdivision","operator":"BNSF Railway","operator:wikidata":"Q267122","railway":"rail","railway:track_class":"4","railway:track_ref":"1","ref":"51","usage":"main"},"geometry":{"coordinates":[[-122.2506811,47.1962161],[-122.2499167,47.1968796]],"type":"LineString"}},{"id":"way/23657981","type":"Feature","properties":{"@id":"way/23657981","bridge":"yes","electrified":"no","gauge":"1435","layer":"1","maxspeed":"70 mph","maxspeed:freight":"50 mph","maxspeed:tilting":"79 mph","name":"Seattle Subdivision","operator":"BNSF Railway","operator:wikidata":"Q267122","railway":"rail","railway:track_class":"4","railway:track_ref":"1","ref":"51","usage":"main"},"geometry":{"coordinates":[[-122.2486669,47.1979696],[-122.2490725,47.1976237]],"type":"LineString"}},{"id":"way/23657982","type":"Feature","properties":{"@id":"way/23657982","electrified":"no","gauge":"1435","maxspeed":"70 mph","maxspeed:freight":"50 mph","maxspeed:tilting":"79 mph","name":"Seattle Subdivision","operator":"BNSF Railway","operator:wikidata":"Q267122","railway":"rail","railway:track_class":"4","railway:track_ref":"1","ref":"51","usage":"main"},"geometry":{"coordinates":[[-122.2499167,47.1968796],[-122.249763,47.1970162],[-122.2490725,47.1976237]],"type":"LineString"}},{"id":"way/23812920","type":"Feature","properties":{"@id":"way/23812920","bridge":"yes","electrified":"no","gauge":"1435","layer":"1","maxspeed":"79 mph","name":"Seattle Subdivision","operator":"BNSF Railway","operator:wikidata":"Q267122","railway":"rail","railway:track_class":"C4","railway:track_ref":"1","ref":"51","source":"bing","usage":"main"},"geometry":{"coordinates":[[-122.2328226,47.3614987],[-122.2328253,47.3610054]],"type":"LineString"}},{"id":"way/30737445","type":"Feature","properties":{"@id":"way/30737445","bridge":"yes","electrified":"no","gauge":"1435","layer":"1","maxspeed":"79 mph","name":"Seattle Subdivision","operator":"BNSF Railway","operator:wikidata":"Q267122","railway":"rail","railway:track_class":"C4","railway:track_ref":"1","ref":"51","source":"bing","usage":"main"},"geometry":{"coordinates":[[-122.2404379,47.4612931],[-122.2404446,47.4610947]],"type":"LineString"}},{"id":"way/30737446","type":"Feature","properties":{"@id":"way/30737446","electrified":"no","gauge":"1435","maxspeed":"79 mph","name":"Seattle Subdivision","operator":"BNSF Railway","operator:wikidata":"Q267122","railway":"rail","railway:track_class":"C4","railway:track_ref":"1","ref":"51","source":"bing","usage":"main"},"geometry":{"coordinates":[[-122.2404446,47.4610947],[-122.2404528,47.4608023],[-122.2405011,47.4592096],[-122.2405103,47.4586373],[-122.240538,47.4577927],[-122.2405621,47.4571019]],"type":"LineString"}},{"id":"way/50051134","type":"Feature","properties":{"@id":"way/50051134","alt_name":"Point Defiance Bypass","electrified":"no","gauge":"1435","name":"Lakewood Subdivision","operator":"Sound Transit","railway":"rail","railway:traffic_mode":"mixed","tiger:cfcc":"B11","tiger:county":"Pierce, WA","tiger:name_base":"Tacoma Rail","usage":"main"},"geometry":{"coordinates":[[-122.4185458,47.2404995],[-122.4182243,47.2405552],[-122.4178899,47.2406013]],"type":"LineString"}},{"id":"way/50220419","type":"Feature","properties":{"@id":"way/50220419","electrified":"no","gauge":"1435","maxspeed":"73 mph","name":"Seattle Subdivision","operator":"BNSF Railway","operator:wikidata":"Q267122","passenger_lines":"2","railway":"rail","railway:track_ref":"1","railway:traffic_mode":"mixed","ref":"51","source":"bing","usage":"main"},"geometry":{"coordinates":[[-122.3509404,47.2035199],[-122.3531058,47.2051451],[-122.3546653,47.2062933],[-122.3585301,47.2091704],[-122.359764,47.210085],[-122.3612437,47.2111973],[-122.3616095,47.211466],[-122.3649374,47.2139561],[-122.3659252,47.2146738],[-122.366913,47.2154069],[-122.3682043,47.2163768],[-122.3688316,47.2168145],[-122.3693265,47.2171293],[-122.369959,47.2174666],[-122.3714218,47.2181555],[-122.3724223,47.2186105],[-122.3730267,47.2188848],[-122.3730439,47.2188927],[-122.3756241,47.2200829],[-122.3786369,47.2214682]],"type":"LineString"}},{"id":"way/52496099","type":"Feature","properties":{"@id":"way/52496099","bridge":"yes","electrified":"no","gauge":"1435","layer":"1","maxspeed":"79 mph","name":"Seattle Subdivision","operator":"BNSF Railway","operator:wikidata":"Q267122","railway":"rail","railway:track_class":"C4","railway:track_ref":"1","ref":"51","source":"bing","usage":"main"},"geometry":{"coordinates":[[-122.2409978,47.4413047],[-122.2410046,47.4411046]],"type":"LineString"}},{"id":"way/52496100","type":"Feature","properties":{"@id":"way/52496100","electrified":"no","gauge":"1435","maxspeed":"79 mph","name":"Seattle Subdivision","operator":"BNSF Railway","operator:wikidata":"Q267122","railway":"rail","railway:track_class":"C4","railway:track_ref":"1","ref":"51","source":"bing","usage":"main"},"geometry":{"coordinates":[[-122.2410046,47.4411046],[-122.2410406,47.4398639],[-122.2410465,47.4394886],[-122.2410493,47.4389827]],"type":"LineString"}},{"id":"way/58800787","type":"Feature","properties":{"@id":"way/58800787","description":"KING 5","electrified":"no","gauge":"1435","maxspeed":"10 mph","railway":"rail","railway:track_ref":"5","source":"yahoo_wms;survey","usage":"main"},"geometry":{"coordinates":[[-122.3295445,47.5987819],[-122.329569,47.5975188]],"type":"LineString"}},{"id":"way/58800788","type":"Feature","properties":{"@id":"way/58800788","description":"KING 5","electrified":"no","gauge":"1435","maxspeed":"10 mph","railway":"rail","railway:track_ref":"5","source":"yahoo_wms;survey;yahoo_wms","usage":"main"},"geometry":{"coordinates":[[-122.329611,47.5961656],[-122.329651,47.5958479],[-122.329682,47.595568],[-122.3297099,47.5953485]],"type":"LineString"}},{"id":"way/59257331","type":"Feature","properties":{"@id":"way/59257331","electrified":"no","gauge":"1435","maxspeed":"30 mph","maxspeed:freight":"25 mph","name":"Seattle Subdivision","operator":"BNSF Railway","operator:wikidata":"Q267122","railway":"rail","railway:track_ref":"Lander Main","ref":"51","source":"yahoo_wms","tunnel":"covered","usage":"main"},"geometry":{"coordinates":[[-122.3303933,47.5924625],[-122.3303926,47.5922962],[-122.3303893,47.5915399],[-122.3303863,47.590839],[-122.3303844,47.590401],[-122.3303835,47.5901828]],"type":"LineString"}},{"id":"way/59257373","type":"Feature","properties":{"@id":"way/59257373","electrified":"no","gauge":"1435","railway":"rail","source":"yahoo_wms;survey;yahoo_wms","usage":"main"},"geometry":{"coordinates":[[-122.329928,47.5942693],[-122.3300647,47.5938149],[-122.3302046,47.5933153],[-122.3302503,47.5931519],[-122.3303596,47.5927611],[-122.3303828,47.5926342]],"type":"LineString"}},{"id":"way/69002692","type":"Feature","properties":{"@id":"way/69002692","electrified":"no","gauge":"1435","maxspeed":"70 mph","maxspeed:freight":"50 mph","maxspeed:tilting":"79 mph","name":"Seattle Subdivision","operator":"BNSF Railway","operator:wikidata":"Q267122","railway":"rail","railway:track_class":"4","railway:track_ref":"1","ref":"51","usage":"main"},"geometry":{"coordinates":[[-122.2476453,47.1988613],[-122.2478309,47.1986858],[-122.24786,47.1986583],[-122.2481462,47.1983946],[-122.2486669,47.1979696]],"type":"LineString"}},{"id":"way/69002693","type":"Feature","properties":{"@id":"way/69002693","bridge":"yes","electrified":"no","gauge":"1435","layer":"1","maxspeed":"70 mph","maxspeed:freight":"50 mph","maxspeed:tilting":"79 mph","name":"Seattle Subdivision","operator":"BNSF Railway","operator:wikidata":"Q267122","railway":"rail","railway:track_class":"C4","railway:track_ref":"1","ref":"51","usage":"main"},"geometry":{"coordinates":[[-122.2473649,47.1991109],[-122.2476453,47.1988613]],"type":"LineString"}},{"id":"way/87466492","type":"Feature","properties":{"@id":"way/87466492","electrified":"no","gauge":"1435","maxspeed":"63 mph","name":"Seattle Subdivision","operator":"BNSF Railway","operator:wikidata":"Q267122","railway":"rail","railway:track_class":"C4","railway:track_ref":"1","ref":"51","source":"bing","usage":"main"},"geometry":{"coordinates":[[-122.2422639,47.466384],[-122.2421345,47.4662545],[-122.2420684,47.4661884],[-122.2418156,47.4659359],[-122.2415127,47.4656142],[-122.2412126,47.4652544],[-122.2410157,47.4649481],[-122.2409543,47.4648525],[-122.2407843,47.4645299],[-122.2406294,47.4641639],[-122.2405481,47.4639048],[-122.2404775,47.4636275],[-122.2404385,47.4633378],[-122.2404149,47.4630558],[-122.2404087,47.4628801],[-122.2404038,47.462579],[-122.2404125,47.4622179]],"type":"LineString"}},{"id":"way/87466511","type":"Feature","properties":{"@id":"way/87466511","bridge":"yes","electrified":"no","gauge":"1435","layer":"1","maxspeed":"73 mph","name":"Seattle Subdivision","operator":"BNSF Railway","operator:wikidata":"Q267122","railway":"rail","railway:track_class":"C4","railway:track_ref":"1","ref":"51","source":"bing","usage":"main"},"geometry":{"coordinates":[[-122.2505398,47.474411],[-122.2501185,47.4739946]],"type":"LineString"}},{"id":"way/89236216","type":"Feature","properties":{"@id":"way/89236216","bridge":"yes","electrified":"no","gauge":"1435","layer":"1","maxspeed":"79 mph","name":"Seattle Subdivision","operator":"BNSF Railway","operator:wikidata":"Q267122","passenger_lines":"2","railway":"rail","railway:track_class":"C4","railway:track_ref":"1","ref":"51","usage":"main"},"geometry":{"coordinates":[[-122.230373,47.272078],[-122.2303532,47.2718091]],"type":"LineString"}},{"id":"way/89236227","type":"Feature","properties":{"@id":"way/89236227","electrified":"no","gauge":"1435","maxspeed":"79 mph","name":"Seattle Subdivision","operator":"BNSF Railway","operator:wikidata":"Q267122","passenger_lines":"2","railway":"rail","railway:track_class":"C4","railway:track_ref":"1","ref":"51","usage":"main"},"geometry":{"coordinates":[[-122.2303532,47.2718091],[-122.2302907,47.2706617],[-122.2302108,47.2691891]],"type":"LineString"}},{"id":"way/89236253","type":"Feature","properties":{"@id":"way/89236253","electrified":"no","gauge":"1435","maxspeed":"79 mph","name":"Seattle Subdivision","operator":"BNSF Railway","operator:wikidata":"Q267122","passenger_lines":"2","railway":"rail","railway:track_class":"C4","railway:track_ref":"1","ref":"51","usage":"main"},"geometry":{"coordinates":[[-122.2300373,47.2655878],[-122.2299764,47.2647452],[-122.2295806,47.2576034]],"type":"LineString"}},{"id":"way/89236283","type":"Feature","properties":{"@id":"way/89236283","bridge":"yes","electrified":"no","gauge":"1435","layer":"1","maxspeed":"79 mph","name":"Seattle Subdivision","operator":"BNSF Railway","operator:wikidata":"Q267122","passenger_lines":"2","railway":"rail","railway:track_class":"C4","railway:track_ref":"1","ref":"51","usage":"main"},"geometry":{"coordinates":[[-122.2300636,47.2661501],[-122.2300373,47.2655878]],"type":"LineString"}},{"id":"way/89382768","type":"Feature","properties":{"@id":"way/89382768","bridge":"yes","electrified":"no","gauge":"1435","layer":"1","maxspeed":"79 mph","name":"Seattle Subdivision","operator":"BNSF Railway","operator:wikidata":"Q267122","passenger_lines":"2","railway":"rail","railway:track_class":"C4","railway:track_ref":"1","ref":"51","usage":"main"},"geometry":{"coordinates":[[-122.2285084,47.2383202],[-122.2285,47.2381086]],"type":"LineString"}},{"id":"way/89382769","type":"Feature","properties":{"@id":"way/89382769","electrified":"no","gauge":"1435","maxspeed":"79 mph","name":"Seattle Subdivision","operator":"BNSF Railway","operator:wikidata":"Q267122","passenger_lines":"2","railway":"rail","railway:track_class":"C4","railway:track_ref":"1","ref":"51","usage":"main"},"geometry":{"coordinates":[[-122.2295703,47.2574083],[-122.2292354,47.2515184],[-122.2291593,47.2500524],[-122.2285084,47.2383202]],"type":"LineString"}},{"id":"way/89382774","type":"Feature","properties":{"@id":"way/89382774","bridge":"yes","electrified":"no","gauge":"1435","layer":"1","maxspeed":"79 mph","name":"Seattle Subdivision","operator":"BNSF Railway","operator:wikidata":"Q267122","passenger_lines":"2","railway":"rail","railway:track_class":"C4","railway:track_ref":"1","ref":"51","usage":"main"},"geometry":{"coordinates":[[-122.2295806,47.2576034],[-122.2295703,47.2574083]],"type":"LineString"}},{"id":"way/89382781","type":"Feature","properties":{"@id":"way/89382781","electrified":"no","gauge":"1435","maxspeed":"70 mph","maxspeed:freight":"50 mph","maxspeed:tilting":"79 mph","name":"Seattle Subdivision","operator":"BNSF Railway","operator:wikidata":"Q267122","railway":"rail","railway:track_class":"4","railway:track_ref":"1","ref":"51","usage":"main"},"geometry":{"coordinates":[[-122.2277801,47.2172769],[-122.2279074,47.2169664],[-122.2280885,47.2165944],[-122.2284033,47.2160495],[-122.2287699,47.2155413],[-122.2292033,47.2150155],[-122.2296691,47.2145482],[-122.2302449,47.2140282],[-122.2316649,47.2127906],[-122.2317076,47.2127534],[-122.2317585,47.2127094],[-122.2334643,47.211232],[-122.2353296,47.2095884],[-122.235593,47.209358],[-122.2377115,47.2075366],[-122.2377604,47.2074958],[-122.238508,47.2068432],[-122.2414755,47.2042368],[-122.24248,47.203375],[-122.2425175,47.2033421],[-122.2425901,47.2032768],[-122.242637,47.2032386],[-122.2427047,47.2031796],[-122.2427414,47.2031469],[-122.243768,47.2022487],[-122.24383,47.2021947],[-122.243906,47.2021281],[-122.2440975,47.2019603],[-122.2441572,47.2019082],[-122.2457301,47.2005306],[-122.2458094,47.2004611],[-122.2462188,47.2001025],[-122.2473649,47.1991109]],"type":"LineString"}},{"id":"way/89382794","type":"Feature","properties":{"@id":"way/89382794","electrified":"no","gauge":"1435","maxspeed":"79 mph","maxspeed:freight":"50 mph","name":"Seattle Subdivision","operator":"BNSF Railway","operator:wikidata":"Q267122","railway":"rail","railway:track_class":"4","railway:track_ref":"1","ref":"51","usage":"main"},"geometry":{"coordinates":[[-122.33756,47.200143],[-122.335566,47.1997902],[-122.335286,47.1997393],[-122.3324914,47.1992577],[-122.3289248,47.1986212],[-122.3278739,47.1984326],[-122.3261253,47.1981227],[-122.323431,47.1976473],[-122.3185881,47.1967752],[-122.3156141,47.196255],[-122.3117737,47.1955726],[-122.309746,47.195227],[-122.309625,47.195206],[-122.309518,47.1951886],[-122.305664,47.1944902],[-122.3036841,47.1941436],[-122.302161,47.1938712],[-122.302067,47.1938543],[-122.301989,47.1938418],[-122.3003177,47.1935548],[-122.2997434,47.1934517],[-122.299137,47.1933523],[-122.299017,47.1933326],[-122.298912,47.193314],[-122.2981074,47.1931719],[-122.2969649,47.19297],[-122.2967125,47.1929254],[-122.2943788,47.1925136],[-122.2941936,47.1924811]],"type":"LineString"}},{"id":"way/89382798","type":"Feature","properties":{"@id":"way/89382798","bridge":"yes","electrified":"no","gauge":"1435","layer":"1","maxspeed":"79 mph","name":"Seattle Subdivision","operator":"BNSF Railway","operator:wikidata":"Q267122","passenger_lines":"2","railway":"rail","railway:track_class":"C4","railway:track_ref":"1","ref":"51","usage":"main"},"geometry":{"coordinates":[[-122.2276831,47.2175333],[-122.2277801,47.2172769]],"type":"LineString"}},{"id":"way/89382800","type":"Feature","properties":{"@id":"way/89382800","electrified":"no","gauge":"1435","maxspeed":"79 mph","name":"Seattle Subdivision","operator":"BNSF Railway","operator:wikidata":"Q267122","passenger_lines":"2","railway":"rail","railway:track_class":"C4","railway:track_ref":"1","ref":"51","usage":"main"},"geometry":{"coordinates":[[-122.2285,47.2381086],[-122.2283657,47.2354386],[-122.2276599,47.2231809],[-122.2274675,47.2200495],[-122.2274351,47.2193801],[-122.227461,47.2187386],[-122.22753,47.2181206],[-122.2276831,47.2175333]],"type":"LineString"}},{"id":"way/89385825","type":"Feature","properties":{"@id":"way/89385825","alt_name":"Point Defiance Bypass","electrified":"no","gauge":"1435","name":"Lakewood Subdivision","operator":"Sound Transit","railway":"rail","railway:traffic_mode":"mixed","source":"bing","usage":"main"},"geometry":{"coordinates":[[-122.4014225,47.2400692],[-122.4026646,47.240289],[-122.4031614,47.2403689],[-122.40351,47.2404249],[-122.4039771,47.240491],[-122.4043748,47.2405325],[-122.4048837,47.2405608],[-122.4059516,47.2405892],[-122.4062296,47.2406024],[-122.4069193,47.2406741],[-122.408669,47.2408674],[-122.4088852,47.2408899]],"type":"LineString"}},{"id":"way/89385826","type":"Feature","properties":{"@id":"way/89385826","alt_name":"Point Defiance Bypass","electrified":"no","gauge":"1435","name":"Lakewood Subdivision","operator":"Sound Transit","railway":"rail","railway:traffic_mode":"mixed","source":"bing","usage":"main"},"geometry":{"coordinates":[[-122.4112157,47.2411102],[-122.4116657,47.2410977],[-122.414048,47.2409191],[-122.4151033,47.2408197],[-122.4153308,47.2407984]],"type":"LineString"}},{"id":"way/89385830","type":"Feature","properties":{"@id":"way/89385830","electrified":"no","gauge":"1435","railway":"rail","railway:traffic_mode":"freight","service":"crossover","source":"bing"},"geometry":{"coordinates":[[-122.3995124,47.2397246],[-122.4010054,47.2399873]],"type":"LineString"}},{"id":"way/89385831","type":"Feature","properties":{"@id":"way/89385831","alt_name":"Point Defiance Bypass","electrified":"no","gauge":"1435","name":"Lakewood Subdivision","operator":"Sound Transit","railway":"rail","railway:traffic_mode":"mixed","source":"bing","usage":"main"},"geometry":{"coordinates":[[-122.409825,47.2409913],[-122.4107152,47.2410914]],"type":"LineString"}},{"id":"way/89385849","type":"Feature","properties":{"@id":"way/89385849","bridge":"yes","electrified":"no","gauge":"1435","layer":"1","maxspeed":"79 mph","name":"Seattle Subdivision","operator":"BNSF Railway","operator:wikidata":"Q267122","passenger_lines":"2","railway":"rail","railway:track_class":"4","railway:track_ref":"1","ref":"51","source":"bing","usage":"main"},"geometry":{"coordinates":[[-122.3415823,47.2008511],[-122.3417514,47.2008833]],"type":"LineString"}},{"id":"way/89385850","type":"Feature","properties":{"@id":"way/89385850","alt_name":"Point Defiance Bypass","bridge":"yes","electrified":"no","gauge":"1435","layer":"1","name":"Lakewood Subdivision","operator":"Sound Transit","railway":"rail","railway:traffic_mode":"mixed","source":"bing","usage":"main"},"geometry":{"coordinates":[[-122.4107152,47.2410914],[-122.4112157,47.2411102]],"type":"LineString"}},{"id":"way/89385853","type":"Feature","properties":{"@id":"way/89385853","alt_name":"Point Defiance Bypass","bridge":"yes","electrified":"no","gauge":"1435","layer":"1","name":"Lakewood Subdivision","operator":"Sound Transit","railway":"rail","railway:traffic_mode":"mixed","source":"bing","usage":"main"},"geometry":{"coordinates":[[-122.4096081,47.2409654],[-122.409825,47.2409913]],"type":"LineString"}},{"id":"way/246075344","type":"Feature","properties":{"@id":"way/246075344","electrified":"no","gauge":"1435","maxspeed":"79 mph","name":"Seattle Subdivision","operator":"BNSF Railway","operator:wikidata":"Q267122","railway":"rail","railway:track_class":"C4","railway:track_ref":"1","ref":"51","source":"bing","usage":"main"},"geometry":{"coordinates":[[-122.233073,47.3809282],[-122.2330709,47.3808599],[-122.2330404,47.379846],[-122.233038,47.379767]],"type":"LineString"}},{"id":"way/246075346","type":"Feature","properties":{"@id":"way/246075346","electrified":"no","gauge":"1435","maxspeed":"79 mph","name":"Seattle Subdivision","operator":"BNSF Railway","operator:wikidata":"Q267122","railway":"rail","railway:track_class":"C4","railway:track_ref":"1","ref":"51","source":"bing","usage":"main"},"geometry":{"coordinates":[[-122.233038,47.379767],[-122.2330363,47.3797002],[-122.2329891,47.3778668],[-122.2329871,47.3777901]],"type":"LineString"}},{"id":"way/246075348","type":"Feature","properties":{"@id":"way/246075348","electrified":"no","gauge":"1435","maxspeed":"79 mph","name":"Seattle Subdivision","operator":"BNSF Railway","operator:wikidata":"Q267122","railway":"rail","railway:track_class":"C4","railway:track_ref":"1","ref":"51","source":"bing","usage":"main"},"geometry":{"coordinates":[[-122.2329175,47.3718154],[-122.2329137,47.371258],[-122.232911,47.3704059],[-122.2329108,47.3701216],[-122.2329107,47.3700813],[-122.2328542,47.3634677]],"type":"LineString"}},{"id":"way/246075349","type":"Feature","properties":{"@id":"way/246075349","electrified":"no","gauge":"1435","maxspeed":"79 mph","name":"Seattle Subdivision","operator":"BNSF Railway","operator:wikidata":"Q267122","railway":"rail","railway:track_class":"C4","railway:track_ref":"1","ref":"51","source":"bing","usage":"main"},"geometry":{"coordinates":[[-122.233098,47.3831316],[-122.233097,47.3830501],[-122.2330799,47.3816751],[-122.2330789,47.3815922],[-122.2330784,47.3815344],[-122.2330756,47.3812855],[-122.2330737,47.3810092],[-122.233073,47.3809282]],"type":"LineString"}},{"id":"way/246075351","type":"Feature","properties":{"@id":"way/246075351","electrified":"no","gauge":"1435","maxspeed":"79 mph","name":"Seattle Subdivision","operator":"BNSF Railway","operator:wikidata":"Q267122","railway":"rail","railway:track_class":"C4","railway:track_ref":"1","ref":"51","source":"bing","usage":"main"},"geometry":{"coordinates":[[-122.2331234,47.3866614],[-122.2331305,47.3866187],[-122.2331111,47.3851711],[-122.2331094,47.3850417],[-122.2331084,47.3849697],[-122.2330983,47.3833249],[-122.2330982,47.383255],[-122.2330982,47.3832364],[-122.233098,47.3831316]],"type":"LineString"}},{"id":"way/315235389","type":"Feature","properties":{"@id":"way/315235389","electrified":"no","gauge":"1435","maxspeed":"79 mph","name":"Seattle Subdivision","operator":"BNSF Railway","operator:wikidata":"Q267122","railway":"rail","railway:track_class":"C4","railway:track_ref":"1","ref":"51","source":"bing","usage":"main"},"geometry":{"coordinates":[[-122.2406091,47.454768],[-122.2406318,47.4538833],[-122.2406553,47.4533019],[-122.2406903,47.4516727],[-122.240691,47.4516414],[-122.2407677,47.4486455],[-122.240778,47.448092],[-122.2408034,47.4476068],[-122.2408189,47.4465976],[-122.2408752,47.4446845],[-122.2409978,47.4413047]],"type":"LineString"}},{"id":"way/315235390","type":"Feature","properties":{"@id":"way/315235390","bridge":"yes","electrified":"no","gauge":"1435","layer":"1","maxspeed":"79 mph","name":"Seattle Subdivision","operator":"BNSF Railway","operator:wikidata":"Q267122","railway":"rail","railway:track_class":"C4","railway:track_ref":"1","ref":"51","source":"bing","usage":"main"},"geometry":{"coordinates":[[-122.2405621,47.4571019],[-122.2405602,47.4568286]],"type":"LineString"}},{"id":"way/334251610","type":"Feature","properties":{"@id":"way/334251610","electrified":"no","gauge":"1435","railway":"rail","source":"yahoo_wms;survey","usage":"main"},"geometry":{"coordinates":[[-122.3298271,47.5946363],[-122.329928,47.5942693]],"type":"LineString"}},{"id":"way/345635570","type":"Feature","properties":{"@id":"way/345635570","electrified":"no","gauge":"1435","maxspeed":"30 mph","maxspeed:freight":"25 mph","name":"Seattle Subdivision","operator":"BNSF Railway","operator:wikidata":"Q267122","railway":"rail","railway:track_ref":"Lander Main","ref":"51","usage":"main"},"geometry":{"coordinates":[[-122.3320935,47.5775103],[-122.332094,47.5776055],[-122.3320914,47.5786957],[-122.3320894,47.5796648],[-122.3320812,47.5801353],[-122.3320864,47.5802819],[-122.3320777,47.5804158],[-122.3320678,47.581134],[-122.3320561,47.5812606],[-122.33205,47.5813088],[-122.3320312,47.5814603],[-122.3319912,47.5816634],[-122.3319246,47.5819098],[-122.3318197,47.5822195],[-122.3316649,47.5825574],[-122.3314984,47.5828521],[-122.3310989,47.5835429],[-122.3308475,47.5839908],[-122.330741,47.5841972],[-122.330654,47.5843739],[-122.3305861,47.5845518],[-122.3305035,47.5847814],[-122.3304316,47.5850864],[-122.330393,47.5854033],[-122.330381,47.5858615],[-122.3303965,47.5861535]],"type":"LineString"}},{"id":"way/488312395","type":"Feature","properties":{"@id":"way/488312395","alt_name":"Point Defiance Bypass","bridge":"yes","electrified":"no","gauge":"1435","layer":"1","name":"Lakewood Subdivision","opening_date":"2017-11-13","operator":"Sound Transit","railway":"rail","railway:traffic_mode":"mixed","tiger:cfcc":"B11","tiger:county":"Pierce, WA","tiger:name_base":"Union Pacific Railroad","usage":"main"},"geometry":{"coordinates":[[-122.4185458,47.2404995],[-122.4191102,47.2404056],[-122.4198622,47.2402762],[-122.4203761,47.2401877],[-122.4209532,47.2401115],[-122.4216996,47.2400303],[-122.4234164,47.2398548],[-122.423851,47.2398119],[-122.4242381,47.2397788],[-122.4250324,47.2397209]],"type":"LineString"}},{"id":"way/524751570","type":"Feature","properties":{"@id":"way/524751570","alt_name":"Point Defiance Bypass","electrified":"no","gauge":"1435","name":"Lakewood Subdivision","opening_date":"2017-11-13","operator":"Sound Transit","railway":"rail","railway:traffic_mode":"mixed","service":"crossover","tiger:cfcc":"B11","tiger:county":"Pierce, WA","tiger:name_base":"Tacoma Rail"},"geometry":{"coordinates":[[-122.4165488,47.2407276],[-122.4153308,47.2407984]],"type":"LineString"}},{"id":"way/541812350","type":"Feature","properties":{"@id":"way/541812350","alt_name":"Point Defiance Bypass","electrified":"no","gauge":"1435","name":"Lakewood Subdivision","operator":"Sound Transit","railway":"rail","railway:traffic_mode":"mixed","tiger:cfcc":"B11","tiger:county":"Pierce, WA","tiger:name_base":"Tacoma Rail","usage":"main"},"geometry":{"coordinates":[[-122.4178899,47.2406013],[-122.4174765,47.2406425],[-122.4168624,47.2406988],[-122.4165488,47.2407276]],"type":"LineString"}},{"id":"way/563412525","type":"Feature","properties":{"@id":"way/563412525","electrified":"no","gauge":"1435","maxspeed":"30 mph","maxspeed:freight":"25 mph","name":"Seattle Subdivision","operator":"BNSF Railway","operator:wikidata":"Q267122","railway":"rail","railway:track_class":"C4","railway:track_ref":"1","ref":"51","source":"bing;yahoo_wms","usage":"main"},"geometry":{"coordinates":[[-122.3318016,47.5673481],[-122.3318058,47.5662592],[-122.331806,47.5649243],[-122.3318055,47.564624],[-122.331792,47.564363],[-122.3317591,47.5641405],[-122.331732,47.5640264],[-122.3316334,47.5636831],[-122.3315393,47.5634726],[-122.3314068,47.5632305],[-122.3312605,47.5630117],[-122.3310804,47.5627877],[-122.3310286,47.5627291],[-122.3309245,47.5626096],[-122.3307514,47.5624431],[-122.3303068,47.56207],[-122.3299219,47.5617539],[-122.3294872,47.5614007],[-122.329224,47.5611942],[-122.3237749,47.5569545],[-122.3227685,47.5561457]],"type":"LineString"}},{"id":"way/563673903","type":"Feature","properties":{"@id":"way/563673903","electrified":"no","gauge":"1435","maxspeed":"30 mph","maxspeed:freight":"25 mph","name":"Seattle Subdivision","operator":"BNSF Railway","operator:wikidata":"Q267122","railway":"rail","railway:track_class":"C4","railway:track_ref":"Lander Main","ref":"51","source":"bing;yahoo_wms","usage":"main"},"geometry":{"coordinates":[[-122.331805,47.569871],[-122.3318028,47.5708478],[-122.3318006,47.5713598],[-122.3318004,47.5714153],[-122.3318043,47.5716877],[-122.3318033,47.5717412],[-122.331799,47.5719283],[-122.3318043,47.5723014],[-122.3318045,47.5733197]],"type":"LineString"}},{"id":"way/563690208","type":"Feature","properties":{"@id":"way/563690208","electrified":"no","gauge":"1435","railway":"rail","service":"crossover"},"geometry":{"coordinates":[[-122.3297897,47.5947748],[-122.3297498,47.5949856],[-122.3297357,47.5951046],[-122.3297154,47.5953033]],"type":"LineString"}},{"id":"way/613623307","type":"Feature","properties":{"@id":"way/613623307","electrified":"no","gauge":"1435","maxspeed":"79 mph","name":"Seattle Subdivision","operator":"BNSF Railway","operator:wikidata":"Q267122","railway":"rail","railway:track_ref":"1","ref":"51","usage":"main"},"geometry":{"coordinates":[[-122.2306528,47.2757593],[-122.2307591,47.2775361],[-122.2308425,47.2789561],[-122.2315204,47.2904753],[-122.2315346,47.290711],[-122.231535,47.2907173],[-122.2318011,47.2954538],[-122.2319464,47.298342],[-122.2319834,47.299049],[-122.2323614,47.3051774],[-122.2323684,47.3056167],[-122.232369,47.3056568],[-122.2323924,47.3072812],[-122.2323942,47.3074239],[-122.232395,47.3074934],[-122.2323962,47.30759],[-122.2323984,47.3076957],[-122.2323906,47.3079873],[-122.2323947,47.3101059],[-122.232395,47.3101536],[-122.2323954,47.3102331],[-122.232399,47.3110374],[-122.2324017,47.3112166]],"type":"LineString"}},{"id":"way/656618949","type":"Feature","properties":{"@id":"way/656618949","electrified":"no","gauge":"1435","maxspeed":"79 mph","name":"Seattle Subdivision","operator":"BNSF Railway","operator:wikidata":"Q267122","passenger_lines":"2","railway":"rail","railway:track_class":"C4","railway:track_ref":"1","ref":"51","usage":"main"},"geometry":{"coordinates":[[-122.2328253,47.3610054],[-122.2327488,47.3544542],[-122.2327392,47.3530634],[-122.2327301,47.3519528],[-122.2327401,47.3508659]],"type":"LineString"}},{"id":"way/656618951","type":"Feature","properties":{"@id":"way/656618951","electrified":"no","gauge":"1435","maxspeed":"79 mph","name":"Seattle Subdivision","operator":"BNSF Railway","operator:wikidata":"Q267122","passenger_lines":"2","railway":"rail","railway:track_class":"C4","railway:track_ref":"1","ref":"51","usage":"main"},"geometry":{"coordinates":[[-122.2306528,47.2757593],[-122.2306211,47.2752101],[-122.2305786,47.2746746],[-122.230373,47.272078]],"type":"LineString"}},{"id":"way/656618953","type":"Feature","properties":{"@id":"way/656618953","electrified":"no","gauge":"1435","name":"Seattle Subdivision","operator":"BNSF Railway","operator:wikidata":"Q267122","passenger_lines":"2","railway":"rail","railway:track_ref":"2","railway:traffic_mode":"mixed","ref":"51","source":"bing","usage":"main"},"geometry":{"coordinates":[[-122.4010054,47.2399873],[-122.4014225,47.2400692]],"type":"LineString"}},{"id":"way/656618954","type":"Feature","properties":{"@id":"way/656618954","alt_name":"Point Defiance Bypass","electrified":"no","gauge":"1435","name":"Lakewood Subdivision","operator":"Sound Transit","railway":"rail","railway:traffic_mode":"mixed","source":"bing","usage":"main"},"geometry":{"coordinates":[[-122.4088852,47.2408899],[-122.4096081,47.2409654]],"type":"LineString"}},{"id":"way/656620310","type":"Feature","properties":{"@id":"way/656620310","electrified":"no","gauge":"1435","railway":"rail","source":"yahoo_wms;survey","usage":"main"},"geometry":{"coordinates":[[-122.3297897,47.5947748],[-122.3298271,47.5946363]],"type":"LineString"}},{"id":"way/749937834","type":"Feature","properties":{"@id":"way/749937834","electrified":"no","gauge":"1435","railway":"rail","usage":"main"},"geometry":{"coordinates":[[-122.3297154,47.5953033],[-122.3297099,47.5953485]],"type":"LineString"}},{"id":"way/749937836","type":"Feature","properties":{"@id":"way/749937836","electrified":"no","gauge":"1435","maxspeed":"30 mph","maxspeed:freight":"25 mph","name":"Seattle Subdivision","operator":"BNSF Railway","operator:wikidata":"Q267122","railway":"rail","railway:track_ref":"Lander Main","ref":"51","source":"yahoo_wms","usage":"main"},"geometry":{"coordinates":[[-122.3303835,47.5901828],[-122.330394,47.5889237],[-122.3303902,47.5884877],[-122.330398,47.5865122]],"type":"LineString"}},{"id":"way/749937837","type":"Feature","properties":{"@id":"way/749937837","electrified":"no","gauge":"1435","maxspeed":"30 mph","maxspeed:freight":"25 mph","name":"Seattle Subdivision","operator":"BNSF Railway","operator:wikidata":"Q267122","railway":"rail","railway:track_ref":"Lander Main","ref":"51","source":"yahoo_wms;survey;yahoo_wms","usage":"main"},"geometry":{"coordinates":[[-122.3303828,47.5926342],[-122.3303883,47.5925359],[-122.3303933,47.5924625]],"type":"LineString"}},{"id":"way/749937838","type":"Feature","properties":{"@id":"way/749937838","description":"KING 5","electrified":"no","gauge":"1435","maxspeed":"10 mph","railway":"rail","railway:track_ref":"5","source":"yahoo_wms;survey","usage":"main"},"geometry":{"coordinates":[[-122.329569,47.5975188],[-122.329611,47.5961656]],"type":"LineString"}},{"id":"way/759047058","type":"Feature","properties":{"@id":"way/759047058","electrified":"no","gauge":"1435","maxspeed":"79 mph","name":"Seattle Subdivision","operator":"BNSF Railway","operator:wikidata":"Q267122","railway":"rail","railway:track_class":"C4","railway:track_ref":"1","ref":"51","source":"bing","usage":"main"},"geometry":{"coordinates":[[-122.2410416,47.4387133],[-122.2410246,47.4384486],[-122.2409927,47.4381249],[-122.2409494,47.4377199],[-122.2408922,47.4373778],[-122.2407992,47.4368431],[-122.2401709,47.4334708],[-122.2399925,47.432491],[-122.2397042,47.430928],[-122.2395722,47.4302184],[-122.2389022,47.4267182],[-122.2388845,47.4266114],[-122.2384622,47.4240688],[-122.2381998,47.4227402],[-122.2381917,47.4227007],[-122.2379296,47.4214168],[-122.237039,47.4164859],[-122.2367727,47.4150476],[-122.2362538,47.4121072],[-122.2362279,47.4119607],[-122.2362034,47.4118383],[-122.2360527,47.4110872],[-122.2354946,47.4080056],[-122.2353253,47.4071483],[-122.2349819,47.4052373],[-122.2347559,47.4039792],[-122.2344687,47.4023964],[-122.2342737,47.4013724],[-122.2336911,47.3982504],[-122.2335217,47.3972993],[-122.2333503,47.3962742],[-122.2332684,47.3956589],[-122.2331863,47.3947106],[-122.2331595,47.3942726],[-122.2331513,47.3930757],[-122.233144,47.3909345],[-122.2331317,47.3867802],[-122.2331297,47.3867309],[-122.2331234,47.3866614]],"type":"LineString"}},{"id":"way/759047059","type":"Feature","properties":{"@id":"way/759047059","bridge":"yes","electrified":"no","gauge":"1435","layer":"1","maxspeed":"79 mph","name":"Seattle Subdivision","operator":"BNSF Railway","operator:wikidata":"Q267122","railway":"rail","railway:track_class":"C4","railway:track_ref":"1","ref":"51","source":"bing","usage":"main"},"geometry":{"coordinates":[[-122.2410493,47.4389827],[-122.2410416,47.4387133]],"type":"LineString"}},{"id":"way/759071837","type":"Feature","properties":{"@id":"way/759071837","electrified":"no","gauge":"1435","maxspeed":"79 mph","name":"Seattle Subdivision","operator":"BNSF Railway","operator:wikidata":"Q267122","railway":"rail","railway:track_class":"C4","railway:track_ref":"1","ref":"51","source":"bing","usage":"main"},"geometry":{"coordinates":[[-122.2328515,47.3631717],[-122.2328226,47.3614987]],"type":"LineString"}},{"id":"way/759071838","type":"Feature","properties":{"@id":"way/759071838","bridge":"yes","electrified":"no","gauge":"1435","layer":"1","maxspeed":"79 mph","name":"Seattle Subdivision","operator":"BNSF Railway","operator:wikidata":"Q267122","railway":"rail","railway:track_class":"C4","railway:track_ref":"1","ref":"51","source":"bing","usage":"main"},"geometry":{"coordinates":[[-122.2328542,47.3634677],[-122.2328515,47.3631717]],"type":"LineString"}},{"id":"way/867855133","type":"Feature","properties":{"@id":"way/867855133","electrified":"no","gauge":"1435","maxspeed":"79 mph","name":"Seattle Subdivision","operator":"BNSF Railway","operator:wikidata":"Q267122","railway":"rail","railway:track_class":"C4","railway:track_ref":"1","ref":"51","source":"bing","usage":"main"},"geometry":{"coordinates":[[-122.2329176,47.3722203],[-122.2329175,47.3718154]],"type":"LineString"}},{"id":"way/867855134","type":"Feature","properties":{"@id":"way/867855134","electrified":"no","gauge":"1435","maxspeed":"79 mph","name":"Seattle Subdivision","operator":"BNSF Railway","operator:wikidata":"Q267122","railway":"rail","railway:track_class":"C4","railway:track_ref":"1","ref":"51","source":"bing","usage":"main"},"geometry":{"coordinates":[[-122.2329871,47.3777901],[-122.2329863,47.3777165],[-122.232943,47.3736292],[-122.2329428,47.3735299],[-122.2329338,47.3731024],[-122.2329176,47.3722203]],"type":"LineString"}},{"id":"way/867855140","type":"Feature","properties":{"@id":"way/867855140","electrified":"no","gauge":"1435","maxspeed":"79 mph","name":"Seattle Subdivision","operator":"BNSF Railway","operator:wikidata":"Q267122","railway":"rail","railway:track_class":"C4","railway:track_ref":"1","ref":"51","source":"bing","usage":"main"},"geometry":{"coordinates":[[-122.2405602,47.4568286],[-122.2405669,47.456685],[-122.2406091,47.454768]],"type":"LineString"}},{"id":"way/867855143","type":"Feature","properties":{"@id":"way/867855143","electrified":"no","gauge":"1435","maxspeed":"73 mph","name":"Seattle Subdivision","operator":"BNSF Railway","operator:wikidata":"Q267122","railway":"rail","railway:track_class":"C4","railway:track_ref":"1","ref":"51","source":"bing","usage":"main"},"geometry":{"coordinates":[[-122.2484685,47.4723947],[-122.2465319,47.4705219],[-122.2457414,47.4697374],[-122.2447206,47.4687607]],"type":"LineString"}},{"id":"way/867855148","type":"Feature","properties":{"@id":"way/867855148","electrified":"no","gauge":"1435","maxspeed":"73 mph","name":"Seattle Subdivision","operator":"BNSF Railway","operator:wikidata":"Q267122","railway":"rail","railway:track_class":"C4","railway:track_ref":"1","ref":"51","source":"bing","usage":"main"},"geometry":{"coordinates":[[-122.2447206,47.4687607],[-122.2446083,47.4686507],[-122.2444354,47.4684812],[-122.2438783,47.4679421],[-122.2433805,47.4674633],[-122.2426591,47.4667667]],"type":"LineString"}},{"id":"way/867855150","type":"Feature","properties":{"@id":"way/867855150","electrified":"no","gauge":"1435","maxspeed":"73 mph","name":"Seattle Subdivision","operator":"BNSF Railway","operator:wikidata":"Q267122","railway":"rail","railway:track_class":"C4","railway:track_ref":"1","ref":"51","source":"bing","usage":"main"},"geometry":{"coordinates":[[-122.2501185,47.4739946],[-122.2491857,47.4730889],[-122.2485878,47.4725125],[-122.2485672,47.4724926],[-122.2484685,47.4723947]],"type":"LineString"}},{"id":"way/887281435","type":"Feature","properties":{"@id":"way/887281435","electrified":"no","gauge":"1435","maxspeed":"37 mph","name":"Seattle Subdivision","operator":"BNSF Railway","operator:wikidata":"Q267122","passenger_lines":"2","railway":"rail","railway:track_ref":"1","railway:traffic_mode":"mixed","ref":"51","source":"bing","usage":"main"},"geometry":{"coordinates":[[-122.3959845,47.2368693],[-122.3959922,47.2368973],[-122.3961098,47.2373463],[-122.3961283,47.2374087],[-122.396191,47.2376123],[-122.3963126,47.2379099],[-122.3964303,47.2381346],[-122.3965411,47.2382668],[-122.3966561,47.2384263],[-122.3969471,47.2387107],[-122.3972814,47.2389504],[-122.3975917,47.2391408],[-122.3978716,47.2392749],[-122.3981973,47.2393998],[-122.3985052,47.2395021],[-122.3988685,47.2395943],[-122.399315,47.2396847],[-122.3995124,47.2397246]],"type":"LineString"}},{"id":"way/887291375","type":"Feature","properties":{"@id":"way/887291375","electrified":"no","gauge":"1435","maxspeed":"30 mph","maxspeed:freight":"25 mph","name":"Seattle Subdivision","operator":"BNSF Railway","operator:wikidata":"Q267122","railway":"rail","railway:track_ref":"Lander Main","ref":"51","source":"yahoo_wms","usage":"main"},"geometry":{"coordinates":[[-122.330398,47.5865122],[-122.330394,47.5863777],[-122.3303949,47.5862807],[-122.3303965,47.5861535]],"type":"LineString"}},{"id":"way/887291376","type":"Feature","properties":{"@id":"way/887291376","electrified":"no","gauge":"1435","maxspeed":"30 mph","maxspeed:freight":"25 mph","name":"Seattle Subdivision","operator":"BNSF Railway","operator:wikidata":"Q267122","railway":"rail","railway:track_class":"C4","railway:track_ref":"Lander Main","ref":"51","source":"bing;yahoo_wms","usage":"main"},"geometry":{"coordinates":[[-122.3318016,47.5673481],[-122.331805,47.569871]],"type":"LineString"}},{"id":"way/887291381","type":"Feature","properties":{"@id":"way/887291381","electrified":"no","gauge":"1435","maxspeed":"79 mph","operator":"BNSF Railway","operator:wikidata":"Q267122","railway":"rail","railway:track_class":"C4","source":"bing;yahoo_wms","usage":"main"},"geometry":{"coordinates":[[-122.3190068,47.5527439],[-122.3181346,47.5518673],[-122.3174152,47.551168],[-122.3169773,47.5507605],[-122.31682,47.5506113]],"type":"LineString"}},{"id":"way/887291383","type":"Feature","properties":{"@id":"way/887291383","electrified":"no","gauge":"1435","maxspeed":"79 mph","name":"Seattle Subdivision","operator":"BNSF Railway","operator:wikidata":"Q267122","railway":"rail","railway:track_class":"C4","railway:track_ref":"1","ref":"51","source":"bing;yahoo_wms","usage":"main"},"geometry":{"coordinates":[[-122.316635,47.550436],[-122.314791,47.548719],[-122.3136289,47.5476356]],"type":"LineString"}},{"id":"way/887291388","type":"Feature","properties":{"@id":"way/887291388","electrified":"no","gauge":"1435","maxspeed":"79 mph","name":"Seattle Subdivision","operator":"BNSF Railway","operator:wikidata":"Q267122","railway":"rail","railway:track_class":"C4","railway:track_ref":"1","ref":"51","source":"bing;yahoo_wms","usage":"main"},"geometry":{"coordinates":[[-122.3136289,47.5476356],[-122.3135299,47.5475397],[-122.313419,47.5474416],[-122.3120238,47.5461497],[-122.3116008,47.5457866],[-122.3108982,47.5451902],[-122.307534,47.542353],[-122.3036693,47.5390929],[-122.2995862,47.535641],[-122.299271,47.535389],[-122.298536,47.5347034],[-122.297892,47.53401],[-122.2974462,47.5334383],[-122.2970963,47.5328558],[-122.2968696,47.5324335],[-122.296688,47.5320634],[-122.2963045,47.5312265],[-122.2958519,47.5302519],[-122.2957699,47.5300731],[-122.2950914,47.5286166],[-122.2909888,47.5197868],[-122.2908335,47.5194628],[-122.2906249,47.5190331],[-122.2904369,47.5186793],[-122.2903731,47.5185613],[-122.2900857,47.5180722],[-122.2898594,47.5176742],[-122.289427,47.5169217],[-122.288206,47.5148073]],"type":"LineString"}},{"id":"way/887291392","type":"Feature","properties":{"@id":"way/887291392","electrified":"no","gauge":"1435","maxspeed":"79 mph","name":"Seattle Subdivision","operator":"BNSF Railway","operator:wikidata":"Q267122","railway":"rail","railway:track_class":"C4","railway:track_ref":"1","ref":"51","source":"bing;yahoo_wms","usage":"main"},"geometry":{"coordinates":[[-122.288206,47.5148073],[-122.2878176,47.514137],[-122.2877598,47.5140366],[-122.2876969,47.5139258],[-122.2876252,47.5137993],[-122.2872216,47.5131096]],"type":"LineString"}},{"id":"way/887291393","type":"Feature","properties":{"@id":"way/887291393","electrified":"no","gauge":"1435","maxspeed":"79 mph","name":"Seattle Subdivision","operator":"BNSF Railway","operator:wikidata":"Q267122","railway":"rail","railway:track_class":"C4","railway:track_ref":"1","ref":"51","source":"bing;yahoo_wms","usage":"main"},"geometry":{"coordinates":[[-122.2872216,47.5131096],[-122.2861237,47.5112005],[-122.285592,47.5102779],[-122.2854863,47.5100886],[-122.284946,47.5091622],[-122.2844781,47.5084128],[-122.2840674,47.5078416],[-122.2838068,47.5074999],[-122.2835195,47.5071517],[-122.2831495,47.506723],[-122.282893,47.5064348],[-122.2826045,47.506147],[-122.2822112,47.5057569],[-122.2798292,47.5033563],[-122.2791934,47.5027239],[-122.2785629,47.5021179],[-122.2776402,47.5012685],[-122.2771672,47.5008455],[-122.2755346,47.4994646],[-122.2743536,47.4984983],[-122.2733333,47.4976637],[-122.2714279,47.4961205],[-122.271264,47.4959909],[-122.2705472,47.4953983],[-122.2695248,47.4945688],[-122.2689715,47.4941109],[-122.268466,47.4936524],[-122.2679811,47.4931432],[-122.2675553,47.4926492],[-122.2672599,47.4922579],[-122.2668821,47.4917086],[-122.2655665,47.4897072],[-122.2653445,47.489399],[-122.2650055,47.4888666],[-122.2648187,47.4885939],[-122.2646131,47.4882994],[-122.2644457,47.4880853],[-122.2641935,47.487789],[-122.2639332,47.4875089],[-122.2636892,47.4872608],[-122.2630707,47.4866976],[-122.2625163,47.4862934],[-122.2616059,47.4856478],[-122.2611749,47.4853899]],"type":"LineString"}},{"id":"way/887291396","type":"Feature","properties":{"@id":"way/887291396","electrified":"no","gauge":"1435","maxspeed":"79 mph","name":"Seattle Subdivision","operator":"BNSF Railway","operator:wikidata":"Q267122","railway":"rail","railway:track_ref":"1","ref":"51","usage":"main"},"geometry":{"coordinates":[[-122.232755,47.3480358],[-122.2327671,47.3494426],[-122.2327671,47.3494513],[-122.2327401,47.3508659]],"type":"LineString"}},{"id":"way/887291398","type":"Feature","properties":{"@id":"way/887291398","electrified":"no","gauge":"1435","maxspeed":"79 mph","name":"Seattle Subdivision","operator":"BNSF Railway","operator:wikidata":"Q267122","railway":"rail","railway:track_ref":"1","ref":"51","usage":"main"},"geometry":{"coordinates":[[-122.2324017,47.3112166],[-122.2324649,47.316708]],"type":"LineString"}},{"id":"way/887291404","type":"Feature","properties":{"@id":"way/887291404","electrified":"no","gauge":"1435","maxspeed":"79 mph","name":"Seattle Subdivision","operator":"BNSF Railway","operator:wikidata":"Q267122","railway":"rail","railway:track_ref":"1","ref":"51","usage":"main"},"geometry":{"coordinates":[[-122.2324649,47.316708],[-122.232466,47.3168662],[-122.2324808,47.3178062],[-122.232594,47.3329217],[-122.232674,47.3400073],[-122.2326747,47.3400735],[-122.2326754,47.3401517],[-122.232739,47.3463779],[-122.2327442,47.3467871],[-122.232755,47.3480358]],"type":"LineString"}},{"id":"way/887291410","type":"Feature","properties":{"@id":"way/887291410","electrified":"no","gauge":"1435","maxspeed":"79 mph","name":"Seattle Subdivision","operator":"BNSF Railway","operator:wikidata":"Q267122","passenger_lines":"2","railway":"rail","railway:track_class":"C4","railway:track_ref":"1","ref":"51","usage":"main"},"geometry":{"coordinates":[[-122.2302108,47.2691891],[-122.2301898,47.2687781]],"type":"LineString"}},{"id":"way/887291411","type":"Feature","properties":{"@id":"way/887291411","electrified":"no","gauge":"1435","maxspeed":"79 mph","name":"Seattle Subdivision","operator":"BNSF Railway","operator:wikidata":"Q267122","passenger_lines":"2","railway":"rail","railway:track_class":"C4","railway:track_ref":"1","ref":"51","usage":"main"},"geometry":{"coordinates":[[-122.2301898,47.2687781],[-122.2301019,47.267396],[-122.2300636,47.2661501]],"type":"LineString"}},{"id":"way/887291414","type":"Feature","properties":{"@id":"way/887291414","electrified":"no","gauge":"1435","maxspeed":"70 mph","maxspeed:freight":"50 mph","maxspeed:tilting":"79 mph","name":"Seattle Subdivision","operator":"BNSF Railway","operator:wikidata":"Q267122","railway":"rail","railway:track_class":"4","railway:track_ref":"1","ref":"51","usage":"main"},"geometry":{"coordinates":[[-122.253345,47.1938861],[-122.252976,47.1942073]],"type":"LineString"}},{"id":"way/887291415","type":"Feature","properties":{"@id":"way/887291415","electrified":"no","gauge":"1435","maxspeed":"70 mph","maxspeed:freight":"50 mph","maxspeed:tilting":"79 mph","name":"Seattle Subdivision","operator":"BNSF Railway","operator:wikidata":"Q267122","railway":"rail","railway:track_class":"4","railway:track_ref":"1","ref":"51","usage":"main"},"geometry":{"coordinates":[[-122.252976,47.1942073],[-122.2516628,47.1953318],[-122.2510632,47.1958483],[-122.2506811,47.1962161]],"type":"LineString"}},{"id":"way/887291418","type":"Feature","properties":{"@id":"way/887291418","electrified":"no","gauge":"1435","maxspeed":"79 mph","maxspeed:freight":"50 mph","name":"Seattle Subdivision","operator":"BNSF Railway","operator:wikidata":"Q267122","railway":"rail","railway:track_class":"4","railway:track_ref":"1","ref":"51","usage":"main"},"geometry":{"coordinates":[[-122.338343,47.2002831],[-122.33756,47.200143]],"type":"LineString"}},{"id":"way/887291419","type":"Feature","properties":{"@id":"way/887291419","electrified":"no","gauge":"1435","maxspeed":"79 mph","maxspeed:freight":"50 mph","name":"Seattle Subdivision","operator":"BNSF Railway","operator:wikidata":"Q267122","railway":"rail","railway:track_class":"C4","railway:track_ref":"1","ref":"51","usage":"main"},"geometry":{"coordinates":[[-122.3415823,47.2008511],[-122.340981,47.2007439],[-122.340624,47.200682],[-122.3398473,47.2005475],[-122.338343,47.2002831]],"type":"LineString"}},{"id":"way/899985659","type":"Feature","properties":{"@id":"way/899985659","alt_name":"Point Defiance Bypass","electrified":"no","gauge":"1435","name":"Lakewood Subdivision","operator":"Sound Transit","railway":"rail","railway:traffic_mode":"mixed","usage":"main"},"geometry":{"coordinates":[[-122.4250324,47.2397209],[-122.4255223,47.2396835],[-122.426001,47.2396389],[-122.4265063,47.2395851],[-122.4286233,47.2393629]],"type":"LineString"}},{"id":"way/953634222","type":"Feature","properties":{"@id":"way/953634222","electrified":"no","gauge":"1435","maxspeed":"30 mph","maxspeed:freight":"25 mph","name":"Seattle Subdivision","operator":"BNSF Railway","operator:wikidata":"Q267122","railway":"rail","railway:track_ref":"Lander Main","ref":"51","usage":"main"},"geometry":{"coordinates":[[-122.3318092,47.5746158],[-122.3318408,47.5752034],[-122.3318591,47.5754199],[-122.3319625,47.5759717],[-122.3320517,47.5765342],[-122.3320686,47.5766992],[-122.3320794,47.5769449],[-122.3320919,47.5770849],[-122.3320935,47.5775103]],"type":"LineString"}},{"id":"way/953634223","type":"Feature","properties":{"@id":"way/953634223","electrified":"no","gauge":"1435","maxspeed":"30 mph","maxspeed:freight":"25 mph","name":"Seattle Subdivision","operator":"BNSF Railway","operator:wikidata":"Q267122","railway":"rail","railway:track_class":"C4","railway:track_ref":"Lander Main","ref":"51","source":"bing;yahoo_wms","usage":"main"},"geometry":{"coordinates":[[-122.3318045,47.5733197],[-122.3318054,47.5743848],[-122.3318092,47.5746158]],"type":"LineString"}},{"id":"way/953634225","type":"Feature","properties":{"@id":"way/953634225","electrified":"no","gauge":"1435","maxspeed":"79 mph","operator":"BNSF Railway","operator:wikidata":"Q267122","railway":"rail","railway:track_class":"C4","source":"bing;yahoo_wms","usage":"main"},"geometry":{"coordinates":[[-122.3193,47.553043],[-122.3190068,47.5527439]],"type":"LineString"}},{"id":"way/953634227","type":"Feature","properties":{"@id":"way/953634227","electrified":"no","gauge":"1435","maxspeed":"73 mph","name":"Seattle Subdivision","operator":"BNSF Railway","operator:wikidata":"Q267122","railway":"rail","railway:track_class":"C4","railway:track_ref":"1","ref":"51","source":"bing;yahoo_wms","usage":"main"},"geometry":{"coordinates":[[-122.2611749,47.4853899],[-122.26052,47.4850297],[-122.2601452,47.4848202],[-122.2590361,47.4842153],[-122.2586092,47.4839693],[-122.2581487,47.4836355],[-122.2577535,47.4833189],[-122.2573159,47.4829482],[-122.2570242,47.482658],[-122.2566942,47.4822532],[-122.2564723,47.4819527],[-122.2557408,47.4809067],[-122.2552031,47.4801192],[-122.2548474,47.479644],[-122.2546044,47.4793016],[-122.2542516,47.4787953],[-122.2540443,47.4785017],[-122.2536726,47.4779669],[-122.2533956,47.4775916],[-122.2531318,47.4772472],[-122.2529086,47.4769659],[-122.2526395,47.4766614],[-122.2520129,47.4759344],[-122.2518974,47.4758087],[-122.2512575,47.4751124],[-122.2505398,47.474411]],"type":"LineString"}},{"id":"way/953634230","type":"Feature","properties":{"@id":"way/953634230","electrified":"no","gauge":"1435","maxspeed":"63 mph","name":"Seattle Subdivision","operator":"BNSF Railway","operator:wikidata":"Q267122","railway":"rail","railway:track_class":"C4","railway:track_ref":"1","ref":"51","source":"bing","usage":"main"},"geometry":{"coordinates":[[-122.2426591,47.4667667],[-122.2422639,47.466384]],"type":"LineString"}},{"id":"way/953634231","type":"Feature","properties":{"@id":"way/953634231","electrified":"no","gauge":"1435","maxspeed":"79 mph","name":"Seattle Subdivision","operator":"BNSF Railway","operator:wikidata":"Q267122","railway":"rail","railway:track_class":"C4","railway:track_ref":"1","ref":"51","source":"bing","usage":"main"},"geometry":{"coordinates":[[-122.2404125,47.4622179],[-122.2404379,47.4612931]],"type":"LineString"}},{"id":"way/953634235","type":"Feature","properties":{"@id":"way/953634235","electrified":"no","gauge":"1435","maxspeed":"79 mph","name":"Seattle Subdivision","operator":"BNSF Railway","operator:wikidata":"Q267122","passenger_lines":"2","railway":"rail","railway:track_ref":"1","railway:traffic_mode":"mixed","ref":"51","source":"bing","usage":"main"},"geometry":{"coordinates":[[-122.3417514,47.2008833],[-122.3445362,47.2013796],[-122.3464985,47.2017342],[-122.3477026,47.2019517]],"type":"LineString"}},{"id":"way/954459109","type":"Feature","properties":{"@id":"way/954459109","electrified":"no","gauge":"1435","maxspeed":"55 mph","name":"Seattle Subdivision","operator":"BNSF Railway","operator:wikidata":"Q267122","passenger_lines":"2","railway":"rail","railway:track_ref":"1","railway:traffic_mode":"mixed","ref":"51","source":"bing","usage":"main"},"geometry":{"coordinates":[[-122.3477026,47.2019517],[-122.3481795,47.2020577],[-122.3486516,47.2021915],[-122.3490671,47.2023403],[-122.349473,47.202521],[-122.349858,47.202738],[-122.3506266,47.2032838],[-122.3509404,47.2035199]],"type":"LineString"}},{"id":"way/954459112","type":"Feature","properties":{"@id":"way/954459112","electrified":"no","gauge":"1435","maxspeed":"52 mph","name":"Seattle Subdivision","operator":"BNSF Railway","operator:wikidata":"Q267122","passenger_lines":"2","railway":"rail","railway:track_ref":"1","railway:traffic_mode":"mixed","ref":"51","source":"bing","usage":"main"},"geometry":{"coordinates":[[-122.3786369,47.2214682],[-122.3799245,47.2220416],[-122.3807803,47.2224944],[-122.3811539,47.2227476],[-122.3814776,47.2230075],[-122.3817017,47.2232122],[-122.3818844,47.2234333],[-122.3822385,47.2239139],[-122.3824567,47.2243891],[-122.3828587,47.2253747],[-122.3835379,47.2269832],[-122.383916,47.2278705],[-122.3842418,47.2283937],[-122.3846443,47.2287999],[-122.3850862,47.2291421],[-122.3857167,47.2294765],[-122.3864663,47.2297315],[-122.3869992,47.2298767],[-122.3876522,47.2300019],[-122.3891383,47.2302567],[-122.3909058,47.2305752],[-122.3914347,47.2306924],[-122.3919384,47.2308421],[-122.3922773,47.2309492],[-122.3926218,47.2310871],[-122.3930281,47.2313023],[-122.3933918,47.2315041],[-122.3937706,47.2317782],[-122.3941047,47.2320543],[-122.3943351,47.2322767],[-122.394601,47.232583],[-122.3949247,47.233134],[-122.3951291,47.2337354],[-122.3953529,47.2345011],[-122.3955334,47.235179],[-122.3956174,47.2355061],[-122.3956515,47.2356365]],"type":"LineString"}},{"id":"way/954459113","type":"Feature","properties":{"@id":"way/954459113","electrified":"no","gauge":"1435","maxspeed":"37 mph","name":"Seattle Subdivision","operator":"BNSF Railway","operator:wikidata":"Q267122","passenger_lines":"2","railway":"rail","railway:track_ref":"1","railway:traffic_mode":"mixed","ref":"51","source":"bing","usage":"main"},"geometry":{"coordinates":[[-122.3956515,47.2356365],[-122.395742,47.2359858],[-122.3959845,47.2368693]],"type":"LineString"}},{"id":"way/1043294943","type":"Feature","properties":{"@id":"way/1043294943","electrified":"no","gauge":"1435","maxspeed":"70 mph","maxspeed:freight":"50 mph","maxspeed:tilting":"79 mph","name":"Seattle Subdivision","operator":"BNSF Railway","operator:wikidata":"Q267122","railway":"rail","railway:track_class":"4","railway:track_ref":"1","ref":"51","usage":"main"},"geometry":{"coordinates":[[-122.271054,47.1883691],[-122.2687752,47.1879722],[-122.268331,47.1878968],[-122.2676359,47.1878096],[-122.2666609,47.1877402],[-122.2659642,47.1877201],[-122.2653032,47.1877225],[-122.2645039,47.1877698],[-122.2637577,47.1878536],[-122.2632959,47.1879194],[-122.2629028,47.1879858],[-122.2620758,47.1881635],[-122.2615358,47.1883034],[-122.2608829,47.1885158],[-122.2598603,47.1889007],[-122.259342,47.1891423],[-122.2588384,47.1894039],[-122.2583393,47.1896963],[-122.2578471,47.1900158],[-122.2576475,47.1901691],[-122.2570912,47.1905965],[-122.254805,47.1926106],[-122.2544807,47.1928916],[-122.253345,47.1938861]],"type":"LineString"}},{"id":"way/1050806444","type":"Feature","properties":{"@id":"way/1050806444","electrified":"no","gauge":"1435","maxspeed":"79 mph","maxspeed:freight":"50 mph","name":"Seattle Subdivision","operator":"BNSF Railway","operator:wikidata":"Q267122","railway":"rail","railway:track_class":"4","railway:track_ref":"1","ref":"51","usage":"main"},"geometry":{"coordinates":[[-122.2920868,47.1921089],[-122.2920325,47.1920992],[-122.291922,47.1920769],[-122.291786,47.1920506],[-122.291657,47.1920266],[-122.2897855,47.191682],[-122.287919,47.1913525],[-122.287821,47.1913352],[-122.287751,47.1913229],[-122.28695,47.191183],[-122.28691,47.191176],[-122.2852674,47.1908886],[-122.283795,47.1906239],[-122.2823542,47.1903651],[-122.2779296,47.1895834],[-122.277472,47.1895018],[-122.274216,47.1889202],[-122.274142,47.188908],[-122.274043,47.1888898],[-122.273987,47.1888795],[-122.271733,47.1884873],[-122.271054,47.1883691]],"type":"LineString"}},{"id":"way/1050806447","type":"Feature","properties":{"@id":"way/1050806447","electrified":"no","gauge":"1435","maxspeed":"65 mph","maxspeed:freight":"50 mph","maxspeed:tilting":"65 mph","name":"Seattle Subdivision","operator":"BNSF Railway","operator:wikidata":"Q267122","railway":"rail","railway:track_class":"4","railway:track_ref":"1","ref":"51","usage":"main"},"geometry":{"coordinates":[[-122.2941936,47.1924811],[-122.293845,47.1924196],[-122.293737,47.1924006],[-122.29364,47.1923814],[-122.2926413,47.1922068],[-122.2920868,47.1921089]],"type":"LineString"}},{"id":"way/1066525394","type":"Feature","properties":{"@id":"way/1066525394","electrified":"no","gauge":"1435","maxspeed":"30 mph","operator":"BNSF Railway","operator:wikidata":"Q267122","railway":"rail","railway:track_class":"C4","source":"bing;yahoo_wms","usage":"main"},"geometry":{"coordinates":[[-122.3227685,47.5561457],[-122.322464,47.555901],[-122.3217643,47.5553359],[-122.3210801,47.5547524],[-122.3208007,47.5544944],[-122.3204768,47.5541891],[-122.3203367,47.5540568],[-122.3198784,47.5536177],[-122.319422,47.553165],[-122.3193,47.553043]],"type":"LineString"}},{"id":"way/1066525395","type":"Feature","properties":{"@id":"way/1066525395","electrified":"no","gauge":"1435","maxspeed":"79 mph","name":"Seattle Subdivision","operator":"BNSF Railway","operator:wikidata":"Q267122","railway":"rail","railway:track_class":"C4","railway:track_ref":"1","ref":"51","source":"bing;yahoo_wms","usage":"main"},"geometry":{"coordinates":[[-122.31682,47.5506113],[-122.316635,47.550436]],"type":"LineString"}}]}