{"type":"FeatureCollection","features":[{"id":"way/24990576","type":"Feature","properties":{"@id":"way/24990576","bridge":"yes","electrified":"rail","frequency":"0","gauge":"1435","layer":"2","maxspeed":"10 mph","name":"Loop 'L'","operator":"Chicago Transit Authority","operator:wikidata":"Q117309","railway":"subway","railway:preferred_direction":"forward","railway:track_ref":"2","voltage":"600"},"geometry":{"coordinates":[[-87.626732,41.8857477],[-87.6266514,41.8857468],[-87.6265845,41.8857389],[-87.6265188,41.8857306],[-87.6264489,41.885709],[-87.6264032,41.8856864],[-87.6263525,41.8856426],[-87.6263141,41.8855847],[-87.6262946,41.8855073],[-87.6262953,41.8854449],[-87.6263026,41.8853613],[-87.6263057,41.8852989],[-87.6263049,41.8852744]],"type":"LineString"}},{"id":"way/59341810","type":"Feature","properties":{"@id":"way/59341810","bridge":"yes","electrified":"rail","frequency":"0","gauge":"1435","layer":"2","maxspeed":"25 mph","name":"Lake Branch","old_name":"Lake Street Division","operator":"Chicago Transit Authority","operator:wikidata":"Q117309","railway":"subway","railway:preferred_direction":"forward","railway:track_ref":"2","voltage":"600"},"geometry":{"coordinates":[[-87.6410689,41.8857073],[-87.6403185,41.8857101],[-87.6401476,41.8857079],[-87.6397215,41.8856916],[-87.6394895,41.8856896],[-87.6389906,41.8856896],[-87.6382383,41.8856987]],"type":"LineString"}},{"id":"way/59399787","type":"Feature","properties":{"@id":"way/59399787","bridge":"yes","electrified":"rail","frequency":"0","gauge":"1435","layer":"2","maxspeed":"35 mph","operator":"Chicago Transit Authority","operator:wikidata":"Q117309","railway":"subway","railway:preferred_direction":"forward","railway:track_ref":"2","voltage":"600"},"geometry":{"coordinates":[[-87.6343225,41.8857199],[-87.6340991,41.8857214],[-87.6339719,41.8857195],[-87.6339279,41.8857191],[-87.6338078,41.8857198],[-87.6336823,41.8857215]],"type":"LineString"}},{"id":"way/545586645","type":"Feature","properties":{"@id":"way/545586645","bridge":"yes","electrified":"rail","frequency":"0","gauge":"1435","layer":"2","maxspeed":"35 mph","name":"Loop 'L'","operator":"Chicago Transit Authority","operator:wikidata":"Q117309","railway":"subway","railway:preferred_direction":"forward","railway:track_ref":"2","voltage":"600"},"geometry":{"coordinates":[[-87.6336823,41.8857215],[-87.6336165,41.8857198]],"type":"LineString"}},{"id":"way/860243584","type":"Feature","properties":{"@id":"way/860243584","bridge":"yes","electrified":"rail","frequency":"0","gauge":"1435","layer":"2","maxspeed":"35 mph","name":"Loop 'L'","operator":"Chicago Transit Authority","operator:wikidata":"Q117309","railway":"subway","railway:preferred_direction":"forward","railway:track_ref":"2","voltage":"600"},"geometry":{"coordinates":[[-87.6332693,41.8857207],[-87.6328225,41.8857208]],"type":"LineString"}},{"id":"way/860243585","type":"Feature","properties":{"@id":"way/860243585","bridge":"yes","electrified":"rail","frequency":"0","gauge":"1435","layer":"2","maxspeed":"35 mph","name":"Loop 'L'","operator":"Chicago Transit Authority","operator:wikidata":"Q117309","railway":"subway","railway:preferred_direction":"forward","railway:track_ref":"2","voltage":"600"},"geometry":{"coordinates":[[-87.6336165,41.8857198],[-87.6332693,41.8857207]],"type":"LineString"}},{"id":"way/860253726","type":"Feature","properties":{"@id":"way/860253726","bridge":"yes","electrified":"rail","frequency":"0","gauge":"1435","layer":"2","maxspeed":"35 mph","name":"Lake Branch","old_name":"Lake Street Division","operator":"Chicago Transit Authority","operator:wikidata":"Q117309","railway":"subway","railway:preferred_direction":"forward","railway:track_ref":"2","voltage":"600"},"geometry":{"coordinates":[[-87.6352654,41.8857168],[-87.6343555,41.8857201],[-87.6343225,41.8857199]],"type":"LineString"}},{"id":"way/860253727","type":"Feature","properties":{"@id":"way/860253727","bridge":"yes","electrified":"rail","frequency":"0","gauge":"1435","layer":"2","maxspeed":"35 mph","name":"Lake Branch","old_name":"Lake Street Division","operator":"Chicago Transit Authority","operator:wikidata":"Q117309","railway":"subway","railway:preferred_direction":"forward","railway:track_ref":"2","voltage":"600"},"geometry":{"coordinates":[[-87.6355401,41.8857143],[-87.6352654,41.8857168]],"type":"LineString"}},{"id":"way/931833867","type":"Feature","properties":{"@id":"way/931833867","bridge":"yes","electrified":"rail","frequency":"0","gauge":"1435","layer":"2","maxspeed":"35 mph","name":"Loop 'L'","operator":"Chicago Transit Authority","operator:wikidata":"Q117309","railway":"subway","railway:preferred_direction":"forward","railway:track_ref":"2","voltage":"600"},"geometry":{"coordinates":[[-87.6328225,41.8857208],[-87.6323002,41.8857262],[-87.6306151,41.8857303]],"type":"LineString"}},{"id":"way/1013544167","type":"Feature","properties":{"@id":"way/1013544167","bridge":"yes","electrified":"rail","frequency":"0","gauge":"1435","layer":"2","maxspeed":"25 mph","name":"Lake Branch","old_name":"Lake Street Division","operator":"Chicago Transit Authority","operator:wikidata":"Q117309","railway":"subway","railway:preferred_direction":"forward","railway:track_ref":"2","voltage":"600"},"geometry":{"coordinates":[[-87.6371812,41.8856988],[-87.6370636,41.8857001],[-87.6370151,41.8857006],[-87.6366168,41.8857136]],"type":"LineString"}},{"id":"way/1013544168","type":"Feature","properties":{"@id":"way/1013544168","bridge":"movable","bridge:movable":"bascule","electrified":"rail","frequency":"0","gauge":"1435","layer":"2","maxspeed":"25 mph","name":"Lake Branch","old_name":"Lake Street Division","operator":"Chicago Transit Authority","operator:wikidata":"Q117309","railway":"subway","railway:preferred_direction":"forward","railway:track_ref":"2","voltage":"600"},"geometry":{"coordinates":[[-87.6382383,41.8856987],[-87.6378104,41.8856987],[-87.6371812,41.8856988]],"type":"LineString"}},{"id":"way/1217561913","type":"Feature","properties":{"@id":"way/1217561913","bridge":"yes","electrified":"rail","frequency":"0","gauge":"1435","layer":"2","maxspeed":"35 mph","name":"Loop 'L'","operator":"Chicago Transit Authority","operator:wikidata":"Q117309","railway":"subway","railway:preferred_direction":"forward","railway:track_ref":"2","voltage":"600"},"geometry":{"coordinates":[[-87.6263049,41.8852744],[-87.6262447,41.8830904],[-87.6262123,41.8819146]],"type":"LineString"}},{"id":"way/1217561914","type":"Feature","properties":{"@id":"way/1217561914","bridge":"yes","electrified":"rail","frequency":"0","gauge":"1435","layer":"2","maxspeed":"25 mph","name":"Loop 'L'","operator":"Chicago Transit Authority","operator:wikidata":"Q117309","railway":"subway","railway:preferred_direction":"forward","railway:track_ref":"2","voltage":"600"},"geometry":{"coordinates":[[-87.6304867,41.8857318],[-87.6290828,41.8857384],[-87.6271668,41.8857429],[-87.6270046,41.8857439],[-87.626732,41.8857477]],"type":"LineString"}},{"id":"way/1217577699","type":"Feature","properties":{"@id":"way/1217577699","bridge":"yes","electrified":"rail","frequency":"0","gauge":"1435","layer":"2","maxspeed":"35 mph","name":"Loop 'L'","operator":"Chicago Transit Authority","operator:wikidata":"Q117309","railway":"subway","railway:preferred_direction":"forward","railway:track_ref":"2","voltage":"600"},"geometry":{"coordinates":[[-87.6306151,41.8857303],[-87.6304867,41.8857318]],"type":"LineString"}},{"id":"way/1217602646","type":"Feature","properties":{"@id":"way/1217602646","bridge":"yes","electrified":"rail","frequency":"0","gauge":"1435","layer":"2","maxspeed":"35 mph","name":"Lake Branch","old_name":"Lake Street Division","operator":"Chicago Transit Authority","operator:wikidata":"Q117309","railway":"subway","railway:preferred_direction":"forward","railway:track_ref":"2","voltage":"600"},"geometry":{"coordinates":[[-87.6366168,41.8857136],[-87.6364572,41.8857136],[-87.6355401,41.8857143]],"type":"LineString"}},{"id":"way/1217602647","type":"Feature","properties":{"@id":"way/1217602647","bridge":"yes","electrified":"rail","frequency":"0","gauge":"1435","layer":"2","maxspeed":"55 mph","name":"Lake Branch","old_name":"Lake Street Division","operator":"Chicago Transit Authority","operator:wikidata":"Q117309","railway":"subway","railway:preferred_direction":"forward","railway:track_ref":"2","voltage":"600"},"geometry":{"coordinates":[[-87.642678,41.8856971],[-87.6418207,41.8856995],[-87.6410689,41.8857073]],"type":"LineString"}}]}