{"type":"FeatureCollection","features":[{"id":"way/4009129","type":"Feature","properties":{"@id":"way/4009129","electrified":"no","gauge":"1435","layer":"1","maxspeed":"15 mph","railway":"rail","ref":"WSJ2","source":"GPX","usage":"main"},"geometry":{"coordinates":[[-2.7494187,52.7117329],[-2.7498034,52.7120094],[-2.7499115,52.7120927],[-2.7500086,52.7121761],[-2.7500931,52.7122525]],"type":"LineString"}},{"id":"way/4010113","type":"Feature","properties":{"@id":"way/4010113","electrified":"no","gauge":"1435","loading_gauge":"W6A, W7, W8","maxspeed":"90 mph","name":"Shrewsbury and Crewe Line","operator":"Network Rail","railway":"rail","ref":"SYC","ref:lor":"GW735","source":"Bing","usage":"main"},"geometry":{"coordinates":[[-2.5405396,53.0529165],[-2.5385843,53.0540666],[-2.5331483,53.0573995],[-2.5321222,53.0580116],[-2.5313937,53.0584593],[-2.5306434,53.0589028],[-2.5293842,53.0596221],[-2.5291286,53.0597988],[-2.5283302,53.0602773]],"type":"LineString"}},{"id":"way/4711343","type":"Feature","properties":{"@id":"way/4711343","bridge":"yes","bridge:name":"Gresty Bridge","bridge:ref":"1A","electrified":"contact_line","frequency":"50","gauge":"1435","layer":"1","loading_gauge":"W6A, W7, W8, W9, W10","maxspeed":"70 mph","name":"Shrewsbury and Crewe Line","operator":"Network Rail","railway":"rail","ref":"SYC","ref:lor":"NW1007","source":"Bing","usage":"main","voltage":"25000"},"geometry":{"coordinates":[[-2.4346392,53.0807284],[-2.4348273,53.0806607]],"type":"LineString"}},{"id":"way/4783800","type":"Feature","properties":{"@id":"way/4783800","bridge":"yes","bridge:name":"Gresty Green Road Occupation Bridge","bridge:ref":"3","electrified":"contact_line","frequency":"50","gauge":"1435","layer":"1","loading_gauge":"W6A, W7, W8, W9, W10","maxspeed":"70 mph","name":"Shrewsbury and Crewe Line","operator":"Network Rail","railway":"rail","ref":"SYC","ref:lor":"NW1007","source":"Bing","usage":"main","voltage":"25000"},"geometry":{"coordinates":[[-2.4411314,53.0783739],[-2.4412521,53.0783302]],"type":"LineString"}},{"id":"way/8132018","type":"Feature","properties":{"@id":"way/8132018","electrified":"contact_line","frequency":"50","gauge":"1435","loading_gauge":"W6A, W7, W8, W9, W10","maxspeed":"70 mph","name":"Shrewsbury and Crewe Line","operator":"Network Rail","railway":"rail","ref":"SYC","ref:lor":"NW1007","source":"Bing","usage":"main","voltage":"25000"},"geometry":{"coordinates":[[-2.4411314,53.0783739],[-2.4387517,53.0791957],[-2.4371854,53.0797587],[-2.4368484,53.079886],[-2.4360004,53.0802063],[-2.4356779,53.0803281],[-2.4356404,53.0803432],[-2.4348273,53.0806607]],"type":"LineString"}},{"id":"way/15261688","type":"Feature","properties":{"@id":"way/15261688","electrified":"no","gauge":"1435","loading_gauge":"W6A, W7, W8","maxspeed":"70 mph","name":"Shrewsbury and Crewe Line","operator":"Network Rail","railway":"rail","ref":"SYC","ref:lor":"GW735","source":"Bing","usage":"main"},"geometry":{"coordinates":[[-2.6682254,52.9746046],[-2.6685055,52.9743172],[-2.6694654,52.9732709],[-2.6702803,52.9721885],[-2.6707285,52.9714221],[-2.671137,52.9705461],[-2.6713938,52.9699724],[-2.6715495,52.9693755],[-2.6716463,52.9685862],[-2.6717057,52.9678113],[-2.6717124,52.9673649]],"type":"LineString"}},{"id":"way/24248844","type":"Feature","properties":{"@id":"way/24248844","bridge":"yes","electrified":"no","gauge":"1435","layer":"1","loading_gauge":"W6A, W7, W8","maxspeed":"70 mph","name":"Shrewsbury and Crewe Line","operator":"Network Rail","railway":"rail","ref":"SYC","ref:lor":"GW735","source":"Bing","usage":"main"},"geometry":{"coordinates":[[-2.7398599,52.7269106],[-2.7396576,52.7270685]],"type":"LineString"}},{"id":"way/24248845","type":"Feature","properties":{"@id":"way/24248845","electrified":"no","gauge":"1435","loading_gauge":"W6A, W7, W8","maxspeed":"70 mph","name":"Shrewsbury and Crewe Line","operator":"Network Rail","railway":"rail","ref":"SYC","ref:lor":"GW735","source":"Bing","usage":"main"},"geometry":{"coordinates":[[-2.7396576,52.7270685],[-2.7355477,52.7301966],[-2.7347883,52.7308283],[-2.7341086,52.731435],[-2.7322525,52.7333222],[-2.7301348,52.7359323],[-2.728607,52.7379647],[-2.7274824,52.7393863]],"type":"LineString"}},{"id":"way/24501187","type":"Feature","properties":{"@id":"way/24501187","bridge":"yes","electrified":"no","gauge":"1435","layer":"1","loading_gauge":"W6A, W7, W8","maxspeed":"90 mph","name":"Shrewsbury and Crewe Line","operator":"Network Rail","railway":"rail","ref":"SYC","ref:lor":"GW735","source":"Bing","usage":"main"},"geometry":{"coordinates":[[-2.7226884,52.7455121],[-2.7224121,52.7458699]],"type":"LineString"}},{"id":"way/24501188","type":"Feature","properties":{"@id":"way/24501188","electrified":"no","gauge":"1435","loading_gauge":"W6A, W7, W8","maxspeed":"90 mph","name":"Shrewsbury and Crewe Line","operator":"Network Rail","railway":"rail","ref":"SYC","ref:lor":"GW735","source":"Bing","usage":"main"},"geometry":{"coordinates":[[-2.7224121,52.7458699],[-2.7212,52.747445],[-2.7204184,52.7485978],[-2.7196648,52.7497436]],"type":"LineString"}},{"id":"way/28131253","type":"Feature","properties":{"@id":"way/28131253","bridge":"yes","electrified":"no","gauge":"1435","layer":"1","loading_gauge":"W6A, W7, W8","maxspeed":"70 mph","name":"Shrewsbury and Crewe Line","operator":"Network Rail","railway":"rail","ref":"SYC","ref:lor":"GW735","source":"Bing","usage":"main"},"geometry":{"coordinates":[[-2.6717124,52.9673649],[-2.6717002,52.9671854]],"type":"LineString"}},{"id":"way/28131255","type":"Feature","properties":{"@id":"way/28131255","electrified":"no","gauge":"1435","loading_gauge":"W6A, W7, W8","maxspeed":"90 mph","name":"Shrewsbury and Crewe Line","operator":"Network Rail","railway":"rail","ref":"SYC","ref:lor":"GW735","source":"Bing","usage":"main"},"geometry":{"coordinates":[[-2.6716126,52.9661684],[-2.6715727,52.9656649],[-2.6712649,52.9629668],[-2.6711443,52.9618762]],"type":"LineString"}},{"id":"way/34927035","type":"Feature","properties":{"@id":"way/34927035","bridge":"yes","bridge:name":"Yew Tree Bridge","bridge:ref":"27","electrified":"no","gauge":"1435","layer":"1","loading_gauge":"W6A, W7, W8","maxspeed":"90 mph","name":"Shrewsbury and Crewe Line","operator":"Network Rail","railway":"rail","ref":"SYC","ref:lor":"GW735","source":"Bing","usage":"main"},"geometry":{"coordinates":[[-2.6178175,53.0101521],[-2.6179334,53.010119]],"type":"LineString"}},{"id":"way/34927036","type":"Feature","properties":{"@id":"way/34927036","electrified":"no","gauge":"1435","loading_gauge":"W6A, W7, W8","maxspeed":"90 mph","name":"Shrewsbury and Crewe Line","operator":"Network Rail","railway":"rail","ref":"SYC","ref:lor":"GW735","source":"Bing","usage":"main"},"geometry":{"coordinates":[[-2.6179334,53.010119],[-2.6221607,53.0088079],[-2.625945,53.0076416],[-2.629215,53.0065705],[-2.6305514,53.0061596],[-2.6318678,53.0057302],[-2.6331892,53.0052374],[-2.6344345,53.0047009],[-2.6358672,53.0040402],[-2.6369489,53.0034906]],"type":"LineString"}},{"id":"way/35263221","type":"Feature","properties":{"@id":"way/35263221","bridge":"yes","electrified":"no","gauge":"1435","layer":"1","loading_gauge":"W6A, W7, W8","maxspeed":"90 mph","name":"Shrewsbury and Crewe Line","operator":"Network Rail","railway":"rail","ref":"SYC","ref:lor":"GW735","source":"Bing","usage":"main"},"geometry":{"coordinates":[[-2.7367257,52.8095186],[-2.7368365,52.8096685]],"type":"LineString"}},{"id":"way/35478096","type":"Feature","properties":{"@id":"way/35478096","bridge":"yes","bridge:ref":"89A","electrified":"no","gauge":"1435","layer":"1","loading_gauge":"W6A, W7, W8","maxspeed":"90 mph","name":"Shrewsbury and Crewe Line","operator":"Network Rail","railway":"rail","ref":"SYC","ref:lor":"GW735","source":"Bing","usage":"main"},"geometry":{"coordinates":[[-2.5405396,53.0529165],[-2.540999,53.0526392]],"type":"LineString"}},{"id":"way/35478097","type":"Feature","properties":{"@id":"way/35478097","electrified":"no","gauge":"1435","loading_gauge":"W6A, W7, W8","maxspeed":"90 mph","name":"Shrewsbury and Crewe Line","operator":"Network Rail","railway":"rail","ref":"SYC","ref:lor":"GW735","source":"Bing","usage":"main"},"geometry":{"coordinates":[[-2.540999,53.0526392],[-2.5411666,53.0525501],[-2.5425377,53.0517158],[-2.5474429,53.0487361]],"type":"LineString"}},{"id":"way/42491064","type":"Feature","properties":{"@id":"way/42491064","bridge":"yes","electrified":"no","gauge":"1435","layer":"1","loading_gauge":"W6A, W7, W8","maxspeed":"90 mph","name":"Shrewsbury and Crewe Line","operator":"Network Rail","railway":"rail","ref":"SYC","ref:lor":"GW735","source":"Bing","usage":"main"},"geometry":{"coordinates":[[-2.7196648,52.7497436],[-2.7195891,52.7498699]],"type":"LineString"}},{"id":"way/42491065","type":"Feature","properties":{"@id":"way/42491065","electrified":"no","gauge":"1435","loading_gauge":"W6A, W7, W8","maxspeed":"90 mph","name":"Shrewsbury and Crewe Line","operator":"Network Rail","railway":"rail","ref":"SYC","ref:lor":"GW735","source":"Bing","usage":"main"},"geometry":{"coordinates":[[-2.7195891,52.7498699],[-2.7187879,52.7513431],[-2.7185109,52.7519801],[-2.7182721,52.752549],[-2.7179091,52.7535254],[-2.7176119,52.7544877],[-2.7174346,52.7551025],[-2.7172851,52.7557868],[-2.7171483,52.7564425],[-2.717041,52.7572119],[-2.7169632,52.7578711],[-2.7169592,52.7597193],[-2.7168963,52.7610357],[-2.7167502,52.7623175],[-2.7166508,52.7628451],[-2.7165305,52.7633627],[-2.7162431,52.7644049],[-2.7152895,52.7666957],[-2.7150487,52.7675725],[-2.7149649,52.7678967],[-2.7148117,52.7693839],[-2.7149413,52.7708802],[-2.7152223,52.7721628],[-2.7159647,52.7736638],[-2.7169882,52.7751777],[-2.7178476,52.7760766],[-2.7199392,52.7782501],[-2.7214365,52.7802243],[-2.7224483,52.7821218],[-2.7233199,52.7839855],[-2.7236741,52.7847015],[-2.7250914,52.7875671],[-2.7281713,52.7939372]],"type":"LineString"}},{"id":"way/43705158","type":"Feature","properties":{"@id":"way/43705158","electrified":"no","gauge":"1435","loading_gauge":"W6A, W7, W8","maxspeed":"90 mph","name":"Shrewsbury and Crewe Line","operator":"Network Rail","railway":"rail","ref":"SYC","ref:lor":"GW735","source":"Bing","usage":"main"},"geometry":{"coordinates":[[-2.6456616,52.9975005],[-2.6469691,52.9962994],[-2.6481611,52.9951263],[-2.6493808,52.9939069],[-2.6506045,52.9926718],[-2.6521533,52.991077],[-2.6551607,52.9879897],[-2.6591381,52.9838871],[-2.6611387,52.9818515],[-2.6627164,52.9802616],[-2.6636721,52.9792755]],"type":"LineString"}},{"id":"way/43705161","type":"Feature","properties":{"@id":"way/43705161","bridge":"yes","bridge:name":"Hollins Lane Bridge","bridge:ref":"30","electrified":"no","gauge":"1435","layer":"1","loading_gauge":"W6A, W7, W8","maxspeed":"90 mph","name":"Shrewsbury and Crewe Line","operator":"Network Rail","railway":"rail","ref":"SYC","ref:lor":"GW735","source":"Bing","usage":"main"},"geometry":{"coordinates":[[-2.6455882,52.9975659],[-2.6456616,52.9975005]],"type":"LineString"}},{"id":"way/91906559","type":"Feature","properties":{"@id":"way/91906559","electrified":"contact_line","frequency":"50","gauge":"1435","loading_gauge":"W6A, W7, W8, W9, W10","maxspeed":"70 mph","name":"Shrewsbury and Crewe Line","operator":"Network Rail","railway":"rail","ref":"SYC","ref:lor":"NW1007","source":"Bing","usage":"main","voltage":"25000"},"geometry":{"coordinates":[[-2.4512789,53.0746982],[-2.4485549,53.0757033],[-2.4445241,53.0771869],[-2.4431875,53.0776637],[-2.4418198,53.078138],[-2.4415722,53.0782219],[-2.4412521,53.0783302]],"type":"LineString"}},{"id":"way/93216591","type":"Feature","properties":{"@id":"way/93216591","bridge":"yes","bridge:name":"Egerleys Bridge","bridge:ref":"39","electrified":"no","gauge":"1435","layer":"1","loading_gauge":"W6A, W7, W8","maxspeed":"90 mph","name":"Shrewsbury and Crewe Line","operator":"Network Rail","railway":"rail","ref":"SYC","ref:lor":"GW735","source":"Bing","usage":"main"},"geometry":{"coordinates":[[-2.6711443,52.9618762],[-2.6711217,52.9617031]],"type":"LineString"}},{"id":"way/93216601","type":"Feature","properties":{"@id":"way/93216601","electrified":"no","gauge":"1435","loading_gauge":"W6A, W7, W8","maxspeed":"90 mph","name":"Shrewsbury and Crewe Line","operator":"Network Rail","railway":"rail","ref":"SYC","ref:lor":"GW735","source":"Bing","usage":"main"},"geometry":{"coordinates":[[-2.6711217,52.9617031],[-2.6710653,52.9611077],[-2.6710402,52.9603689],[-2.6710758,52.9596021],[-2.6711817,52.9580486],[-2.6713192,52.9570646],[-2.6713716,52.9560975],[-2.6713589,52.9559205],[-2.671303,52.9548721],[-2.6710943,52.9536564],[-2.6706677,52.9512421],[-2.6699643,52.9475907],[-2.6687022,52.941208],[-2.668427,52.9395798],[-2.6683635,52.939018],[-2.6683195,52.9380493],[-2.6683267,52.937129],[-2.6683605,52.9362725],[-2.6684505,52.9354773],[-2.6686145,52.9345575],[-2.6687857,52.9338069],[-2.6688903,52.9333853],[-2.6691899,52.9323549],[-2.6697303,52.9308938],[-2.6702602,52.9298095],[-2.6709175,52.9285858],[-2.6716531,52.9274062],[-2.671835,52.9271249],[-2.672255,52.9264751],[-2.6807031,52.913434],[-2.6851522,52.9064402],[-2.6857704,52.9054595],[-2.6897701,52.8991737],[-2.7148656,52.8599623],[-2.7151096,52.8596109],[-2.7153582,52.8592835],[-2.7158224,52.8586989],[-2.71681,52.8575762],[-2.7172403,52.8571356],[-2.7176684,52.8567122],[-2.7177038,52.8566781],[-2.7178583,52.8565338],[-2.7181733,52.8562341],[-2.7184107,52.8560327],[-2.7187764,52.8557142],[-2.7208706,52.8541161],[-2.7214862,52.8536808],[-2.7219757,52.8533348],[-2.7221296,52.8532245],[-2.7228227,52.852728],[-2.7230363,52.8525696]],"type":"LineString"}},{"id":"way/117293149","type":"Feature","properties":{"@id":"way/117293149","electrified":"no","gauge":"1435","loading_gauge":"W6A, W7, W8","maxspeed":"90 mph","name":"Shrewsbury and Crewe Line","operator":"Network Rail","railway":"rail","ref":"SYC","ref:lor":"GW735","source":"Bing","usage":"main"},"geometry":{"coordinates":[[-2.7282474,52.7940887],[-2.7291188,52.7958517],[-2.7293612,52.7963358],[-2.7296567,52.796926],[-2.7308702,52.7994098],[-2.7321512,52.8021472],[-2.7326254,52.8031605],[-2.7335621,52.8050312],[-2.7339355,52.8056613],[-2.7343412,52.8062662],[-2.7352517,52.8074699],[-2.7356193,52.8079971],[-2.736348,52.809042],[-2.7367257,52.8095186]],"type":"LineString"}},{"id":"way/117293168","type":"Feature","properties":{"@id":"way/117293168","bridge":"yes","electrified":"no","gauge":"1435","layer":"1","loading_gauge":"W6A, W7, W8","maxspeed":"90 mph","name":"Shrewsbury and Crewe Line","operator":"Network Rail","railway":"rail","ref":"SYC","ref:lor":"GW735","source":"Bing","usage":"main"},"geometry":{"coordinates":[[-2.7281713,52.7939372],[-2.7282474,52.7940887]],"type":"LineString"}},{"id":"way/144589131","type":"Feature","properties":{"@id":"way/144589131","bridge":"yes","electrified":"no","gauge":"1435","layer":"1","loading_gauge":"W8","maxspeed":"70 mph","name":"Shrewsbury and Crewe Line","operator":"Network Rail","railway":"rail","ref":"SYC","source":"Bing","usage":"main"},"geometry":{"coordinates":[[-2.7496492,52.7146638],[-2.7495874,52.7147546]],"type":"LineString"}},{"id":"way/151416119","type":"Feature","properties":{"@id":"way/151416119","bridge":"yes","electrified":"no","gauge":"1435","layer":"1","loading_gauge":"W6A, W7, W8","maxspeed":"90 mph","name":"Shrewsbury and Crewe Line","operator":"Network Rail","railway":"rail","ref":"SYC","ref:lor":"GW735","source":"Bing","usage":"main"},"geometry":{"coordinates":[[-2.7230363,52.8525696],[-2.7231711,52.8524751]],"type":"LineString"}},{"id":"way/171499474","type":"Feature","properties":{"@id":"way/171499474","electrified":"no","gauge":"1435","loading_gauge":"W6A, W7, W8","maxspeed":"90 mph","name":"Shrewsbury and Crewe Line","operator":"Network Rail","railway":"rail","ref":"SYC","ref:lor":"GW735","source":"Bing","usage":"main"},"geometry":{"coordinates":[[-2.7231711,52.8524751],[-2.7249748,52.8511443],[-2.7253892,52.8508247],[-2.7268048,52.8495837]],"type":"LineString"}},{"id":"way/171499476","type":"Feature","properties":{"@id":"way/171499476","bridge":"yes","electrified":"no","gauge":"1435","layer":"1","loading_gauge":"W6A, W7, W8","maxspeed":"90 mph","name":"Shrewsbury and Crewe Line","operator":"Network Rail","railway":"rail","ref":"SYC","ref:lor":"GW735","source":"Bing","usage":"main"},"geometry":{"coordinates":[[-2.7268048,52.8495837],[-2.7269203,52.8494771]],"type":"LineString"}},{"id":"way/171499477","type":"Feature","properties":{"@id":"way/171499477","electrified":"no","gauge":"1435","loading_gauge":"W6A, W7, W8","maxspeed":"90 mph","name":"Shrewsbury and Crewe Line","operator":"Network Rail","railway":"rail","ref":"SYC","ref:lor":"GW735","source":"Bing","usage":"main"},"geometry":{"coordinates":[[-2.7382265,52.827065],[-2.7371801,52.8303197],[-2.7344626,52.8386937],[-2.7341595,52.8395182],[-2.7337811,52.8404622],[-2.733127,52.8418034],[-2.7329248,52.8421673],[-2.7326588,52.8426105],[-2.7319437,52.8437613],[-2.73114,52.8448828],[-2.7310271,52.8450362],[-2.7309741,52.8451133],[-2.7295761,52.8468201],[-2.7291698,52.8472586],[-2.7287602,52.8476817],[-2.7279377,52.8485286],[-2.7274567,52.8489878],[-2.7269203,52.8494771]],"type":"LineString"}},{"id":"way/234910387","type":"Feature","properties":{"@id":"way/234910387","bridge":"yes","electrified":"no","gauge":"1435","layer":"1","loading_gauge":"W6A, W7, W8","maxspeed":"15 mph","operator":"Network Rail","railway":"rail","ref":"WSJ2","ref:lor":"GW735","source":"GPX;Bing","usage":"main"},"geometry":{"coordinates":[[-2.7500931,52.7122525],[-2.7501871,52.7123513],[-2.750228,52.7123995]],"type":"LineString"}},{"id":"way/309399484","type":"Feature","properties":{"@id":"way/309399484","electrified":"no","gauge":"1435","loading_gauge":"W6A, W7, W8","maxspeed":"70 mph","name":"Shrewsbury and Crewe Line","operator":"Network Rail","railway":"rail","ref":"SYC","ref:lor":"NW1007","source":"Bing","usage":"main"},"geometry":{"coordinates":[[-2.4926689,53.0651871],[-2.4916125,53.0653256],[-2.4881621,53.0657815],[-2.4844881,53.0662632],[-2.4808278,53.0667609],[-2.4798547,53.066889],[-2.4792573,53.0669725],[-2.478821,53.0670302],[-2.4770939,53.0673055],[-2.4752502,53.0676275],[-2.473423,53.0679692],[-2.4720822,53.0682441],[-2.4707635,53.0685312],[-2.4694605,53.068836],[-2.4681777,53.069148],[-2.4661482,53.0696752],[-2.464161,53.0702244],[-2.4623463,53.070771],[-2.4605656,53.0713267],[-2.4585277,53.0720299],[-2.4566458,53.072744],[-2.4535225,53.0738813]],"type":"LineString"}},{"id":"way/309399485","type":"Feature","properties":{"@id":"way/309399485","bridge":"yes","electrified":"no","gauge":"1435","layer":"1","loading_gauge":"W6A, W7, W8","maxspeed":"60 mph","name":"Shrewsbury and Crewe Line","operator":"Network Rail","railway":"rail","ref":"SYC","ref:lor":"GW735","source":"Bing","usage":"main"},"geometry":{"coordinates":[[-2.5258445,53.0616287],[-2.5254572,53.0617966]],"type":"LineString"}},{"id":"way/309399486","type":"Feature","properties":{"@id":"way/309399486","bridge":"yes","bridge:name":"Brick Kiln Lane Bridge","bridge:ref":"33","electrified":"no","gauge":"1435","layer":"1","loading_gauge":"W6A, W7, W8","maxspeed":"90 mph","name":"Shrewsbury and Crewe Line","operator":"Network Rail","railway":"rail","ref":"SYC","ref:lor":"GW735","source":"Bing","usage":"main"},"geometry":{"coordinates":[[-2.6637527,52.9791943],[-2.6636721,52.9792755]],"type":"LineString"}},{"id":"way/309436650","type":"Feature","properties":{"@id":"way/309436650","electrified":"no","gauge":"1435","loading_gauge":"W6A, W7, W8","maxspeed":"90 mph","name":"Shrewsbury and Crewe Line","operator":"Network Rail","railway":"rail","ref":"SYC","ref:lor":"GW735","source":"Bing","usage":"main"},"geometry":{"coordinates":[[-2.7368365,52.8096685],[-2.7378085,52.8110176],[-2.7387511,52.8123858],[-2.7397237,52.8144054],[-2.7400525,52.8153942],[-2.7401859,52.8159012],[-2.7402573,52.8161585],[-2.7403071,52.8164562],[-2.7404436,52.8174371],[-2.7404803,52.8183798],[-2.740465,52.8187161],[-2.7404334,52.8194135],[-2.7402886,52.8203629],[-2.7401114,52.821212],[-2.739844,52.8220936],[-2.7392986,52.8238091],[-2.7384387,52.8264332],[-2.7382519,52.8269867]],"type":"LineString"}},{"id":"way/309436654","type":"Feature","properties":{"@id":"way/309436654","alt_name":"Welsh Marches Line","electrified":"no","gauge":"1435","loading_gauge":"W6A, W7, W8","maxspeed":"70 mph","name":"Shrewsbury and Crewe Line","operator":"Network Rail","railway":"rail","ref":"SYC","ref:lor":"GW735","source":"Bing","usage":"main"},"geometry":{"coordinates":[[-2.7495874,52.7147546],[-2.7488917,52.7157967],[-2.7487048,52.7160733],[-2.7486041,52.7162151],[-2.7485073,52.7163507],[-2.7483964,52.7164949],[-2.748285,52.7166349],[-2.7481508,52.7168017],[-2.7479967,52.7169825],[-2.7479041,52.7170902],[-2.7478348,52.7171704],[-2.7477556,52.7172602],[-2.7475549,52.7174749],[-2.7473387,52.7176975],[-2.7467456,52.7183111],[-2.7465359,52.7185308],[-2.7463455,52.7187355],[-2.7461525,52.7189393],[-2.7460275,52.7190825],[-2.7458399,52.7192938],[-2.7457264,52.7194237],[-2.7456144,52.7195554],[-2.7455232,52.7196696],[-2.745302,52.719946],[-2.744951,52.720408],[-2.744795,52.7206332],[-2.7446006,52.7209194],[-2.7444289,52.7211893],[-2.7442727,52.7214504],[-2.7441513,52.7216563],[-2.7439331,52.7220505],[-2.7438008,52.7222849],[-2.743682,52.7224923],[-2.7435587,52.7226984],[-2.7434391,52.722895],[-2.743313,52.7230922],[-2.7431394,52.7233544],[-2.7429644,52.7236054],[-2.7427525,52.7239023],[-2.7425736,52.7241413],[-2.7423415,52.7244319],[-2.7419123,52.7249049],[-2.7414439,52.7254127],[-2.7412019,52.7256617],[-2.7407582,52.7260955],[-2.7398599,52.7269106]],"type":"LineString"}},{"id":"way/309436658","type":"Feature","properties":{"@id":"way/309436658","bridge":"yes","electrified":"no","gauge":"1435","layer":"1","loading_gauge":"W6A, W7, W8","maxspeed":"90 mph","name":"Shrewsbury and Crewe Line","operator":"Network Rail","railway":"rail","ref":"SYC","ref:lor":"GW735","source":"Bing","usage":"main"},"geometry":{"coordinates":[[-2.7382519,52.8269867],[-2.7382265,52.827065]],"type":"LineString"}},{"id":"way/521083904","type":"Feature","properties":{"@id":"way/521083904","alt_name":"Welsh Marches Line","bridge":"no","electrified":"no","gauge":"1435","layer":"1","loading_gauge":"W6A, W7, W8","maxspeed":"70 mph","name":"Shrewsbury and Crewe Line","operator":"Network Rail","railway":"rail","ref":"SYC","ref:lor":"GW735","source":"Bing","usage":"main"},"geometry":{"coordinates":[[-2.750045,52.7140674],[-2.7497368,52.7145312],[-2.7496492,52.7146638]],"type":"LineString"}},{"id":"way/553649262","type":"Feature","properties":{"@id":"way/553649262","electrified":"no","gauge":"1435","loading_gauge":"W6A, W7, W8","maxspeed":"60 mph","name":"Shrewsbury and Crewe Line","operator":"Network Rail","railway":"rail","ref":"SYC","ref:lor":"GW735","source":"Bing","usage":"main"},"geometry":{"coordinates":[[-2.5254572,53.0617966],[-2.5246213,53.062168],[-2.5244548,53.0622429],[-2.5237223,53.0624656],[-2.5217448,53.0630072],[-2.5208652,53.0632041],[-2.5199808,53.0633821],[-2.5191579,53.0635045],[-2.5188279,53.0635502],[-2.518497,53.0635924]],"type":"LineString"}},{"id":"way/553649263","type":"Feature","properties":{"@id":"way/553649263","electrified":"contact_line","frequency":"50","gauge":"1435","loading_gauge":"W6A, W7, W8","maxspeed":"70 mph","name":"Shrewsbury and Crewe Line","operator":"Network Rail","railway":"rail","ref":"SYC","ref:lor":"NW1007","source":"Bing","usage":"main","voltage":"25000"},"geometry":{"coordinates":[[-2.4528188,53.0741376],[-2.4512789,53.0746982]],"type":"LineString"}},{"id":"way/704450883","type":"Feature","properties":{"@id":"way/704450883","electrified":"no","gauge":"1435","loading_gauge":"W6A, W7, W8","maxspeed":"90 mph","name":"Shrewsbury and Crewe Line","operator":"Network Rail","railway":"rail","ref":"SYC","ref:lor":"GW735","source":"Bing","usage":"main"},"geometry":{"coordinates":[[-2.591186,53.0223064],[-2.5950223,53.0199772],[-2.595984,53.019385],[-2.5961934,53.0192755],[-2.5970495,53.0187596],[-2.5979678,53.0182342],[-2.5996244,53.0172366],[-2.6009959,53.0164197],[-2.6024212,53.01563],[-2.6038341,53.0148508],[-2.6043974,53.0145849],[-2.6057298,53.0140459],[-2.6070312,53.0135071],[-2.6086705,53.01286]],"type":"LineString"}},{"id":"way/704450885","type":"Feature","properties":{"@id":"way/704450885","bridge":"yes","electrified":"no","gauge":"1435","layer":"1","loading_gauge":"W6A, W7, W8","maxspeed":"90 mph","name":"Shrewsbury and Crewe Line","operator":"Network Rail","railway":"rail","ref":"SYC","ref:lor":"GW735","source":"Bing","usage":"main"},"geometry":{"coordinates":[[-2.5910443,53.0223981],[-2.591186,53.0223064]],"type":"LineString"}},{"id":"way/768791166","type":"Feature","properties":{"@id":"way/768791166","electrified":"no","gauge":"1435","loading_gauge":"W6A, W7, W8","maxspeed":"15 mph","name":"Welsh Marches Line","operator":"Network Rail","railway":"rail","ref":"SYC","ref:lor":"GW735","source":"Bing","usage":"main","wikipedia":"en:Welsh Marches Line"},"geometry":{"coordinates":[[-2.7504512,52.7128146],[-2.7504623,52.7128631],[-2.7504709,52.7129458],[-2.7504775,52.7130401],[-2.750472,52.7131416],[-2.7504615,52.7132168],[-2.7504427,52.7132862],[-2.7504057,52.7133864],[-2.750367,52.7134846]],"type":"LineString"}},{"id":"way/776353744","type":"Feature","properties":{"@id":"way/776353744","bridge":"no","electrified":"no","gauge":"1435","layer":"1","loading_gauge":"W6A, W7, W8","maxspeed":"15 mph","name":"Shrewsbury and Crewe Line","operator":"Network Rail","railway":"rail","ref":"SYC","ref:lor":"GW735","source":"Bing","usage":"main"},"geometry":{"coordinates":[[-2.7501223,52.7139523],[-2.750045,52.7140674]],"type":"LineString"}},{"id":"way/776842283","type":"Feature","properties":{"@id":"way/776842283","electrified":"no","gauge":"1435","loading_gauge":"W6A, W7, W8","maxspeed":"60 mph","name":"Shrewsbury and Crewe Line","operator":"Network Rail","railway":"rail","ref":"SYC","ref:lor":"NW1007","source":"Bing","usage":"main"},"geometry":{"coordinates":[[-2.518497,53.0635924],[-2.5178267,53.0636643],[-2.5174142,53.0637081],[-2.5168935,53.0637484],[-2.5166364,53.063767],[-2.5156918,53.0638056],[-2.5139123,53.0637781],[-2.5124694,53.0636859],[-2.5110231,53.0635792],[-2.5099469,53.0635298],[-2.5097363,53.0635201],[-2.5084239,53.0635249],[-2.5071771,53.0635161],[-2.5059263,53.0635793],[-2.5051464,53.0636275],[-2.5046443,53.0636684],[-2.5044238,53.0636914],[-2.5040135,53.0637337],[-2.5035101,53.0637886],[-2.5022315,53.0639462]],"type":"LineString"}},{"id":"way/776842284","type":"Feature","properties":{"@id":"way/776842284","electrified":"no","gauge":"1435","loading_gauge":"W6A, W7, W8","maxspeed":"60 mph","name":"Shrewsbury and Crewe Line","operator":"Network Rail","railway":"rail","ref":"SYC","ref:lor":"GW735","source":"Bing","usage":"main"},"geometry":{"coordinates":[[-2.5283302,53.0602773],[-2.5276171,53.0607047],[-2.5267474,53.061193],[-2.5258445,53.0616287]],"type":"LineString"}},{"id":"way/776842287","type":"Feature","properties":{"@id":"way/776842287","electrified":"no","gauge":"1435","loading_gauge":"W6A, W7, W8","maxspeed":"90 mph","name":"Shrewsbury and Crewe Line","operator":"Network Rail","railway":"rail","ref":"SYC","ref:lor":"GW735","source":"Bing","usage":"main"},"geometry":{"coordinates":[[-2.6637527,52.9791943],[-2.6682254,52.9746046]],"type":"LineString"}},{"id":"way/776842288","type":"Feature","properties":{"@id":"way/776842288","electrified":"no","gauge":"1435","loading_gauge":"W6A, W7, W8","maxspeed":"70 mph","name":"Shrewsbury and Crewe Line","operator":"Network Rail","railway":"rail","ref":"SYC","ref:lor":"GW735","source":"Bing","usage":"main"},"geometry":{"coordinates":[[-2.6717002,52.9671854],[-2.6716669,52.9667882],[-2.6716126,52.9661684]],"type":"LineString"}},{"id":"way/776842290","type":"Feature","properties":{"@id":"way/776842290","electrified":"no","gauge":"1435","loading_gauge":"W6A, W7, W8","maxspeed":"90 mph","name":"Shrewsbury and Crewe Line","operator":"Network Rail","railway":"rail","ref":"SYC","ref:lor":"GW735","source":"Bing","usage":"main"},"geometry":{"coordinates":[[-2.7274824,52.7393863],[-2.7258368,52.7414483],[-2.7226884,52.7455121]],"type":"LineString"}},{"id":"way/782378175","type":"Feature","properties":{"@id":"way/782378175","bridge":"yes","electrified":"no","gauge":"1435","layer":"1","loading_gauge":"W6A, W7, W8","maxspeed":"90 mph","name":"Shrewsbury and Crewe Line","operator":"Network Rail","railway":"rail","ref":"SYC","ref:lor":"GW735","source":"Bing","usage":"main"},"geometry":{"coordinates":[[-2.5474429,53.0487361],[-2.5475519,53.0486709]],"type":"LineString"}},{"id":"way/782378180","type":"Feature","properties":{"@id":"way/782378180","electrified":"no","gauge":"1435","loading_gauge":"W6A, W7, W8","maxspeed":"90 mph","name":"Shrewsbury and Crewe Line","operator":"Network Rail","railway":"rail","ref":"SYC","ref:lor":"GW735","source":"Bing","usage":"main"},"geometry":{"coordinates":[[-2.5475519,53.0486709],[-2.549586,53.0474546],[-2.5530853,53.0453286],[-2.5548846,53.0442722],[-2.5557983,53.0437186],[-2.5562693,53.0434503],[-2.5566392,53.0432069],[-2.5581002,53.0423304],[-2.5595266,53.041483],[-2.5619687,53.0399672],[-2.5653854,53.0379333],[-2.5686851,53.0359182],[-2.5776091,53.0305334],[-2.5851323,53.0259319],[-2.5900515,53.0229868],[-2.5910443,53.0223981]],"type":"LineString"}},{"id":"way/820475012","type":"Feature","properties":{"@id":"way/820475012","electrified":"contact_line","frequency":"50","gauge":"1435","loading_gauge":"W6A, W7, W8","maxspeed":"70 mph","name":"Shrewsbury and Crewe Line","operator":"Network Rail","railway":"rail","ref":"SYC","ref:lor":"NW1007","source":"Bing","usage":"main","voltage":"25000"},"geometry":{"coordinates":[[-2.4535225,53.0738813],[-2.4528188,53.0741376]],"type":"LineString"}},{"id":"way/900328722","type":"Feature","properties":{"@id":"way/900328722","electrified":"no","gauge":"1435","loading_gauge":"W6A, W7, W8","maxspeed":"70 mph","name":"Shrewsbury and Crewe Line","operator":"Network Rail","railway":"rail","ref":"SYC","ref:lor":"NW1007","source":"Bing","usage":"main"},"geometry":{"coordinates":[[-2.5022315,53.0639462],[-2.5009102,53.0641189],[-2.4979108,53.0645075],[-2.4977911,53.0645229],[-2.4948208,53.0649051],[-2.4927633,53.0651762]],"type":"LineString"}},{"id":"way/900328723","type":"Feature","properties":{"@id":"way/900328723","bridge":"yes","bridge:name":"Fittons Underline Bridge","bridge:ref":"8","electrified":"no","gauge":"1435","layer":"1","loading_gauge":"W6A, W7, W8","maxspeed":"70 mph","name":"Shrewsbury and Crewe Line","operator":"Network Rail","railway":"rail","ref":"SYC","ref:lor":"NW1007","source":"Bing","usage":"main"},"geometry":{"coordinates":[[-2.4927633,53.0651762],[-2.4926689,53.0651871]],"type":"LineString"}},{"id":"way/908060295","type":"Feature","properties":{"@id":"way/908060295","electrified":"no","gauge":"1435","loading_gauge":"W6A, W7, W8","maxspeed":"90 mph","name":"Shrewsbury and Crewe Line","operator":"Network Rail","railway":"rail","ref":"SYC","ref:lor":"GW735","source":"Bing","usage":"main"},"geometry":{"coordinates":[[-2.6087435,53.0128322],[-2.6096715,53.0125299],[-2.6111425,53.0120291],[-2.6125044,53.0116141],[-2.6139127,53.011187],[-2.6154508,53.0108011],[-2.6178175,53.0101521]],"type":"LineString"}},{"id":"way/908060296","type":"Feature","properties":{"@id":"way/908060296","bridge":"yes","electrified":"no","gauge":"1435","layer":"1","loading_gauge":"W6A, W7, W8","maxspeed":"90 mph","name":"Shrewsbury and Crewe Line","operator":"Network Rail","railway":"rail","ref":"SYC","ref:lor":"GW735","source":"Bing","usage":"main"},"geometry":{"coordinates":[[-2.6086705,53.01286],[-2.6087435,53.0128322]],"type":"LineString"}},{"id":"way/1034915092","type":"Feature","properties":{"@id":"way/1034915092","bridge":"yes","electrified":"no","gauge":"1435","layer":"1","loading_gauge":"W6A, W7, W8","maxspeed":"15 mph","name":"Welsh Marches Line","operator":"Network Rail","railway":"rail","ref":"SYC","ref:lor":"GW735","source":"Bing","usage":"main","wikipedia":"en:Welsh Marches Line"},"geometry":{"coordinates":[[-2.7504193,52.7127028],[-2.7504431,52.7127795],[-2.7504512,52.7128146]],"type":"LineString"}},{"id":"way/1034915098","type":"Feature","properties":{"@id":"way/1034915098","bridge":"no","electrified":"no","gauge":"1435","layer":"1","loading_gauge":"W6A, W7, W8","maxspeed":"15 mph","name":"Welsh Marches Line","operator":"Network Rail","railway":"rail","ref":"SYC","ref:lor":"GW735","source":"Bing","usage":"main","wikipedia":"en:Welsh Marches Line"},"geometry":{"coordinates":[[-2.7502557,52.712432],[-2.7502931,52.7124822],[-2.7503297,52.7125367],[-2.7503583,52.7125848],[-2.7503911,52.7126426],[-2.7504193,52.7127028]],"type":"LineString"}},{"id":"way/1034915103","type":"Feature","properties":{"@id":"way/1034915103","bridge":"no","electrified":"no","gauge":"1435","layer":"1","loading_gauge":"W6A, W7, W8","maxspeed":"15 mph","operator":"Network Rail","railway":"rail","ref":"WSJ2","ref:lor":"GW735","source":"GPX;Bing","usage":"main"},"geometry":{"coordinates":[[-2.750228,52.7123995],[-2.7502557,52.712432]],"type":"LineString"}},{"id":"way/1049691066","type":"Feature","properties":{"@id":"way/1049691066","bridge":"yes","electrified":"no","gauge":"1435","layer":"1","loading_gauge":"W6A, W7, W8","maxspeed":"15 mph","name":"Welsh Marches Line","operator":"Network Rail","railway":"rail","ref":"SYC","ref:lor":"GW735","source":"Bing","usage":"main","wikipedia":"en:Welsh Marches Line"},"geometry":{"coordinates":[[-2.750367,52.7134846],[-2.7503242,52.7135553],[-2.7503112,52.7135772]],"type":"LineString"}},{"id":"way/1075068902","type":"Feature","properties":{"@id":"way/1075068902","electrified":"no","gauge":"1435","loading_gauge":"W6A, W7, W8","maxspeed":"90 mph","name":"Shrewsbury and Crewe Line","operator":"Network Rail","railway":"rail","ref":"SYC","ref:lor":"GW735","source":"Bing","usage":"main"},"geometry":{"coordinates":[[-2.6370323,53.0034464],[-2.6372289,53.0033411],[-2.6393591,53.002096],[-2.6414781,53.0007535],[-2.6424014,53.0001125],[-2.6432888,52.9994441],[-2.6441711,52.9987627],[-2.6455882,52.9975659]],"type":"LineString"}},{"id":"way/1075068904","type":"Feature","properties":{"@id":"way/1075068904","bridge":"yes","bridge:name":"Pennys Bridge","bridge:ref":"28","electrified":"no","gauge":"1435","layer":"1","loading_gauge":"W6A, W7, W8","maxspeed":"90 mph","name":"Shrewsbury and Crewe Line","operator":"Network Rail","railway":"rail","ref":"SYC","ref:lor":"GW735","source":"Bing","usage":"main"},"geometry":{"coordinates":[[-2.6369489,53.0034906],[-2.6370323,53.0034464]],"type":"LineString"}},{"id":"way/1109780763","type":"Feature","properties":{"@id":"way/1109780763","electrified":"contact_line","frequency":"50","gauge":"1435","loading_gauge":"W6A, W7, W8, W9, W10","maxspeed":"70 mph","name":"Shrewsbury and Crewe Line","operator":"Network Rail","railway":"rail","ref":"SYC","ref:lor":"NW1007","source":"Bing","usage":"main","voltage":"25000"},"geometry":{"coordinates":[[-2.4345597,53.0807594],[-2.4346392,53.0807284]],"type":"LineString"}}]}