{"type":"FeatureCollection","features":[{"id":"way/3978939","type":"Feature","properties":{"@id":"way/3978939","bridge":"yes","electrified":"rail","frequency":"0","gauge":"1435","layer":"1","maxspeed":"15 mph","name":"South Eastern Main Line","operator":"Network Rail","railway":"rail","ref":"CBM","usage":"main","voltage":"750"},"geometry":{"coordinates":[[-0.0918089,51.5081003],[-0.0919568,51.5078031],[-0.0920433,51.5076216],[-0.0920478,51.5076119],[-0.0920844,51.5075341],[-0.0921007,51.5074926],[-0.0921199,51.507444],[-0.0921363,51.5074034]],"type":"LineString"}},{"id":"way/3978945","type":"Feature","properties":{"@id":"way/3978945","bridge":"yes","electrified":"rail","frequency":"0","gauge":"1435","layer":"1","maxspeed":"15 mph","name":"South Eastern Main Line","operator":"Network Rail","railway":"rail","ref":"CBM","usage":"main","voltage":"750"},"geometry":{"coordinates":[[-0.0917457,51.5082354],[-0.0915765,51.5084954],[-0.0915224,51.5085803],[-0.0913983,51.5087943]],"type":"LineString"}},{"id":"way/4076368","type":"Feature","properties":{"@id":"way/4076368","bridge":"viaduct","electrified":"rail","frequency":"0","gauge":"1435","layer":"1","maxspeed":"20 mph","name":"South Eastern Main Line","operator":"Network Rail","railway":"rail","ref":"CBM","usage":"main","voltage":"750"},"geometry":{"coordinates":[[-0.0916583,51.5061764],[-0.0915803,51.5061146],[-0.0914561,51.5060426],[-0.0912669,51.505948],[-0.0911037,51.5058784],[-0.0909089,51.5058152],[-0.0907543,51.5057722],[-0.0905337,51.5057309],[-0.090388,51.5057118],[-0.090175,51.5056961],[-0.0900362,51.5056888],[-0.0898994,51.5056858],[-0.0897601,51.5056898],[-0.0896651,51.5056964],[-0.0896077,51.5056999],[-0.0892867,51.5057368]],"type":"LineString"}},{"id":"way/111786032","type":"Feature","properties":{"@id":"way/111786032","electrified":"rail","frequency":"0","gauge":"1435","layer":"1","maxspeed":"15 mph","name":"South Eastern Main Line","operator":"Network Rail","railway":"rail","railway:track_ref":"2","ref":"CBM","usage":"main","voltage":"750"},"geometry":{"coordinates":[[-0.0903793,51.5107581],[-0.0904072,51.5107048],[-0.0911399,51.5092521]],"type":"LineString"}},{"id":"way/111786037","type":"Feature","properties":{"@id":"way/111786037","bridge":"yes","electrified":"rail","frequency":"0","gauge":"1435","layer":"1","maxspeed":"15 mph","name":"South Eastern Main Line","operator":"Network Rail","railway":"rail","ref":"CBM","usage":"main","voltage":"750"},"geometry":{"coordinates":[[-0.0920037,51.5078119],[-0.091858,51.5081084],[-0.0917737,51.5082814]],"type":"LineString"}},{"id":"way/140208767","type":"Feature","properties":{"@id":"way/140208767","electrified":"rail","frequency":"0","gauge":"1435","layer":"1","maxspeed":"15 mph","name":"South Eastern Main Line","operator":"Network Rail","railway":"rail","railway:track_ref":"1","ref":"CBM","usage":"main","voltage":"750"},"geometry":{"coordinates":[[-0.0910973,51.5092447],[-0.0903711,51.5106986],[-0.0903436,51.5107516]],"type":"LineString"}},{"id":"way/140208768","type":"Feature","properties":{"@id":"way/140208768","bridge":"yes","electrified":"rail","frequency":"0","gauge":"1435","layer":"1","maxspeed":"15 mph","name":"South Eastern Main Line","operator":"Network Rail","railway":"rail","ref":"CBM","usage":"main","voltage":"750"},"geometry":{"coordinates":[[-0.0917286,51.5083772],[-0.0917737,51.5082814]],"type":"LineString"}},{"id":"way/140208769","type":"Feature","properties":{"@id":"way/140208769","bridge":"yes","electrified":"rail","frequency":"0","gauge":"1435","layer":"1","maxspeed":"15 mph","name":"South Eastern Main Line","operator":"Network Rail","railway":"rail","ref":"CBM","usage":"main","voltage":"750"},"geometry":{"coordinates":[[-0.0914512,51.5087987],[-0.0915475,51.5086413]],"type":"LineString"}},{"id":"way/161716453","type":"Feature","properties":{"@id":"way/161716453","bridge":"viaduct","electrified":"rail","frequency":"0","gauge":"1435","layer":"1","maxspeed":"20 mph","name":"South Eastern Main Line","operator":"Network Rail","railway":"rail","ref":"CBM","usage":"main","voltage":"750"},"geometry":{"coordinates":[[-0.0917223,51.50617],[-0.0915506,51.5060495],[-0.0914544,51.505993],[-0.0911871,51.5058708],[-0.0909673,51.5057941],[-0.0908219,51.5057547],[-0.0906478,51.5057163],[-0.0904865,51.5056867],[-0.0903611,51.5056721],[-0.0902317,51.5056612],[-0.0901055,51.5056547],[-0.089941,51.5056509],[-0.0898334,51.5056515],[-0.0897151,51.5056564],[-0.0895794,51.5056666],[-0.0894416,51.5056788]],"type":"LineString"}},{"id":"way/161716459","type":"Feature","properties":{"@id":"way/161716459","bridge":"viaduct","electrified":"rail","frequency":"0","gauge":"1435","layer":"1","maxspeed":"20 mph","name":"South Eastern Main Line","operator":"Network Rail","railway":"rail","railway:track_ref":"DN CS","ref":"XTD","usage":"main","voltage":"750"},"geometry":{"coordinates":[[-0.0892867,51.5057368],[-0.0891783,51.5057542],[-0.0888328,51.5058194],[-0.0885899,51.5058652],[-0.0885106,51.505878],[-0.0884178,51.5058907],[-0.088306,51.5059015],[-0.0881963,51.5059079],[-0.0879893,51.5059109],[-0.087799,51.5059053],[-0.0875364,51.5058901],[-0.0872801,51.5058671],[-0.0870326,51.5058353],[-0.0868337,51.5058011],[-0.0865466,51.5057442],[-0.0863958,51.5057106],[-0.0862186,51.5056635],[-0.0860724,51.50562],[-0.0859424,51.5055813],[-0.0857777,51.5055249],[-0.0856221,51.5054694]],"type":"LineString"}},{"id":"way/161752070","type":"Feature","properties":{"@id":"way/161752070","bridge":"yes","electrified":"rail","frequency":"0","gauge":"1435","layer":"1","maxspeed":"20 mph","name":"South Eastern Main Line","operator":"Network Rail","railway":"rail","railway:track_ref":"DN CS","ref":"XTD","usage":"main","voltage":"750"},"geometry":{"coordinates":[[-0.0856221,51.5054694],[-0.0854483,51.5053941],[-0.0851297,51.5052503],[-0.0845353,51.5049461],[-0.0841699,51.504714],[-0.0840408,51.5046221],[-0.0838888,51.5044937],[-0.0832579,51.5038383],[-0.0831312,51.5037236],[-0.0830797,51.5036863],[-0.0830467,51.5036624],[-0.0828709,51.503552],[-0.0827287,51.5034852]],"type":"LineString"}},{"id":"way/385947171","type":"Feature","properties":{"@id":"way/385947171","bridge":"viaduct","electrified":"rail","frequency":"0","gauge":"1435","layer":"1","maxspeed":"20 mph","name":"South Eastern Main Line","operator":"Network Rail","railway":"rail","railway:track_ref":"UP CS","ref":"XTD","usage":"main","voltage":"750"},"geometry":{"coordinates":[[-0.0856648,51.5054461],[-0.0857909,51.5054931],[-0.0859117,51.5055353],[-0.0861548,51.5056104],[-0.0862856,51.5056487],[-0.086433,51.505686],[-0.0866859,51.5057413],[-0.0868263,51.5057677],[-0.0870433,51.5058036],[-0.087313,51.5058376],[-0.0874281,51.5058494],[-0.0875443,51.5058586],[-0.0877606,51.5058723],[-0.0879526,51.5058797],[-0.0880955,51.5058798],[-0.0882002,51.5058776],[-0.0883269,51.5058682],[-0.0884027,51.5058596],[-0.088466,51.505852],[-0.0885504,51.5058394],[-0.0886339,51.505825],[-0.0888641,51.5057816],[-0.0891195,51.5057313],[-0.0892724,51.5057058],[-0.0894416,51.5056788]],"type":"LineString"}},{"id":"way/621486344","type":"Feature","properties":{"@id":"way/621486344","bridge":"yes","electrified":"rail","frequency":"0","gauge":"1435","layer":"1","maxspeed":"20 mph","name":"South Eastern Main Line","operator":"Network Rail","railway":"rail","railway:track_ref":"UP CS","ref":"XTD","usage":"main","voltage":"750"},"geometry":{"coordinates":[[-0.082541,51.5033521],[-0.0827507,51.5034604],[-0.0828987,51.5035335],[-0.0830841,51.503648],[-0.0831699,51.5037081],[-0.0832934,51.503821],[-0.0839263,51.5044803],[-0.0840745,51.5046055],[-0.0842013,51.5046948],[-0.0845813,51.5049258],[-0.0851665,51.5052325],[-0.0854632,51.5053568],[-0.0856648,51.5054461]],"type":"LineString"}},{"id":"way/622994236","type":"Feature","properties":{"@id":"way/622994236","bridge":"yes","electrified":"rail","frequency":"0","gauge":"1435","layer":"1","maxspeed":"15 mph","name":"South Eastern Main Line","operator":"Network Rail","railway":"rail","ref":"CBM","usage":"main","voltage":"750"},"geometry":{"coordinates":[[-0.0917457,51.5082354],[-0.0918089,51.5081003]],"type":"LineString"}},{"id":"way/622994249","type":"Feature","properties":{"@id":"way/622994249","bridge":"yes","electrified":"rail","frequency":"0","gauge":"1435","layer":"1","maxspeed":"15 mph","name":"South Eastern Main Line","operator":"Network Rail","railway":"rail","service":"crossover","voltage":"750"},"geometry":{"coordinates":[[-0.0917286,51.5083772],[-0.0916423,51.5085024],[-0.0915475,51.5086413]],"type":"LineString"}},{"id":"way/784231465","type":"Feature","properties":{"@id":"way/784231465","bridge":"viaduct","electrified":"rail","frequency":"0","gauge":"1435","layer":"1","maxspeed":"15 mph","name":"South Eastern Main Line","operator":"Network Rail","railway":"rail","ref":"CBM","usage":"main","voltage":"750"},"geometry":{"coordinates":[[-0.0921363,51.5074034],[-0.0921612,51.5072858],[-0.0921781,51.5071694],[-0.0921739,51.5069885],[-0.0921559,51.5068868],[-0.0921383,51.5068201],[-0.0921022,51.5067044],[-0.0920425,51.5065928],[-0.0919783,51.5064886],[-0.091902,51.5063914],[-0.0918004,51.5062873],[-0.0917197,51.5062194],[-0.0916583,51.5061764]],"type":"LineString"}},{"id":"way/784231467","type":"Feature","properties":{"@id":"way/784231467","bridge":"viaduct","electrified":"rail","frequency":"0","gauge":"1435","layer":"1","maxspeed":"15 mph","name":"South Eastern Main Line","operator":"Network Rail","railway":"rail","ref":"CBM","usage":"main","voltage":"750"},"geometry":{"coordinates":[[-0.0920037,51.5078119],[-0.0920964,51.5076205],[-0.092127,51.5075571],[-0.0921653,51.507461],[-0.0921692,51.5074497],[-0.0921809,51.5074163],[-0.0922044,51.5073377],[-0.0922265,51.5071745],[-0.0922306,51.5071174],[-0.0922304,51.5070342],[-0.092205,51.5068482],[-0.0921567,51.5067099],[-0.0921202,51.5066285],[-0.092068,51.5065422],[-0.0919863,51.5064232],[-0.0918922,51.5063167],[-0.0917949,51.506228]],"type":"LineString"}},{"id":"way/1028920622","type":"Feature","properties":{"@id":"way/1028920622","bridge":"yes","electrified":"rail","frequency":"0","gauge":"1435","layer":"1","maxspeed":"15 mph","name":"South Eastern Main Line","operator":"Network Rail","railway":"rail","railway:track_ref":"2","ref":"CBM","usage":"main","voltage":"750"},"geometry":{"coordinates":[[-0.0911399,51.5092521],[-0.0911616,51.5092092],[-0.0914512,51.5087987]],"type":"LineString"}},{"id":"way/1028920623","type":"Feature","properties":{"@id":"way/1028920623","bridge":"yes","electrified":"rail","frequency":"0","gauge":"1435","layer":"1","maxspeed":"15 mph","name":"South Eastern Main Line","operator":"Network Rail","railway":"rail","railway:track_ref":"1","ref":"CBM","usage":"main","voltage":"750"},"geometry":{"coordinates":[[-0.0913983,51.5087943],[-0.0911248,51.5091951],[-0.0910973,51.5092447]],"type":"LineString"}},{"id":"way/1032446076","type":"Feature","properties":{"@id":"way/1032446076","bridge":"viaduct","electrified":"rail","frequency":"0","gauge":"1435","layer":"1","maxspeed":"20 mph","name":"South Eastern Main Line","operator":"Network Rail","railway":"rail","ref":"CBM","usage":"main","voltage":"750"},"geometry":{"coordinates":[[-0.0917949,51.506228],[-0.0917223,51.50617]],"type":"LineString"}}]}