{"type":"FeatureCollection","features":[{"id":"way/4357409","type":"Feature","properties":{"@id":"way/4357409","electrified":"no","gauge":"1435","maxspeed":"85 mph","name":"Highland Main Line","operator":"Network Rail","passenger_lines":"2","railway":"rail","railway:traffic_mode":"mixed","ref":"HGL1","usage":"main"},"geometry":{"coordinates":[[-3.4669664,56.4716229],[-3.4666553,56.4718749]],"type":"LineString"}},{"id":"way/32799985","type":"Feature","properties":{"@id":"way/32799985","bridge":"yes","electrified":"no","gauge":"1435","layer":"1","maxspeed":"85 mph","name":"Highland Main Line","operator":"Network Rail","passenger_lines":"2","railway":"rail","railway:traffic_mode":"mixed","ref":"HGL1","usage":"main","wikidata":"Q114077660"},"geometry":{"coordinates":[[-3.4732964,56.4587999],[-3.4733909,56.4593184]],"type":"LineString"}},{"id":"way/32799986","type":"Feature","properties":{"@id":"way/32799986","electrified":"no","gauge":"1435","maxspeed":"85 mph","name":"Highland Main Line","operator":"Network Rail","passenger_lines":"2","railway":"rail","railway:traffic_mode":"mixed","ref":"HGL1","usage":"main"},"geometry":{"coordinates":[[-3.4733909,56.4593184],[-3.4734394,56.45972],[-3.4734781,56.4601233],[-3.4734946,56.4609248],[-3.4734517,56.4616717],[-3.4733749,56.4621998],[-3.4733552,56.4623356],[-3.4732106,56.4630101],[-3.4729582,56.4637937],[-3.4727317,56.464384],[-3.4724003,56.4651392],[-3.471974,56.4659569],[-3.4717448,56.4663621],[-3.4715065,56.4667641],[-3.4710276,56.4674614],[-3.4705318,56.4681123],[-3.4698135,56.4689738],[-3.4691032,56.4697324],[-3.4683922,56.4704033],[-3.4676942,56.4710169],[-3.4669664,56.4716229]],"type":"LineString"}},{"id":"way/115975483","type":"Feature","properties":{"@id":"way/115975483","bridge":"yes","electrified":"no","gauge":"1435","layer":"1","maxspeed":"75 mph","name":"Highland Main Line","operator":"Network Rail","passenger_lines":"2","railway":"rail","railway:traffic_mode":"mixed","ref":"HGL1","usage":"main"},"geometry":{"coordinates":[[-3.4601458,56.4154342],[-3.460453,56.4159201]],"type":"LineString"}},{"id":"way/115975484","type":"Feature","properties":{"@id":"way/115975484","bridge":"yes","electrified":"no","gauge":"1435","layer":"1","maxspeed":"80 mph","name":"Highland Main Line","operator":"Network Rail","passenger_lines":"2","railway":"rail","railway:traffic_mode":"mixed","ref":"HGL1","usage":"main"},"geometry":{"coordinates":[[-3.4645786,56.4226868],[-3.4651091,56.4235764]],"type":"LineString"}},{"id":"way/115975494","type":"Feature","properties":{"@id":"way/115975494","electrified":"no","gauge":"1435","maxspeed":"80 mph","name":"Highland Main Line","operator":"Network Rail","passenger_lines":"2","railway":"rail","railway:traffic_mode":"mixed","ref":"HGL1","usage":"main"},"geometry":{"coordinates":[[-3.4651091,56.4235764],[-3.4662612,56.4254456],[-3.4676085,56.4276455]],"type":"LineString"}},{"id":"way/115975508","type":"Feature","properties":{"@id":"way/115975508","electrified":"no","gauge":"1435","maxspeed":"75 mph","name":"Highland Main Line","operator":"Network Rail","passenger_lines":"2","railway":"rail","railway:traffic_mode":"mixed","ref":"HGL1","usage":"main"},"geometry":{"coordinates":[[-3.460453,56.4159201],[-3.460724,56.4163405],[-3.461466,56.4175624]],"type":"LineString"}},{"id":"way/117063699","type":"Feature","properties":{"@id":"way/117063699","bridge":"yes","electrified":"no","gauge":"1435","layer":"1","maxspeed":"85 mph","name":"Highland Main Line","operator":"Network Rail","passenger_lines":"2","railway":"rail","railway:traffic_mode":"mixed","ref":"HGL1","usage":"main","wikidata":"Q114077661"},"geometry":{"coordinates":[[-3.4727966,56.4556905],[-3.4728774,56.4562291]],"type":"LineString"}},{"id":"way/117063755","type":"Feature","properties":{"@id":"way/117063755","electrified":"no","gauge":"1435","maxspeed":"85 mph","name":"Highland Main Line","operator":"Network Rail","passenger_lines":"2","railway":"rail","railway:traffic_mode":"mixed","ref":"HGL1","usage":"main"},"geometry":{"coordinates":[[-3.4728774,56.4562291],[-3.4729767,56.4567424],[-3.4730429,56.4572538],[-3.4732964,56.4587999]],"type":"LineString"}},{"id":"way/150691058","type":"Feature","properties":{"@id":"way/150691058","electrified":"no","gauge":"1435","maxspeed":"75 mph","name":"Highland Main Line","operator":"Network Rail","passenger_lines":"2","railway":"rail","railway:traffic_mode":"mixed","ref":"HGL1","usage":"main"},"geometry":{"coordinates":[[-3.4424488,56.3972467],[-3.4426188,56.3977638],[-3.4427085,56.3980236],[-3.4427905,56.398249],[-3.4429246,56.3985805],[-3.4431727,56.3991374],[-3.4435149,56.3997713],[-3.4439488,56.4004384],[-3.4444648,56.4011108],[-3.4449517,56.4016704],[-3.4452125,56.401951],[-3.4454901,56.402232],[-3.4457595,56.4024925],[-3.446191,56.4028814],[-3.4466627,56.403282],[-3.446968,56.4035413],[-3.447054,56.4036137],[-3.4473338,56.4038494],[-3.4503289,56.4063788],[-3.4503916,56.4064317],[-3.4508909,56.406855],[-3.4512382,56.407149],[-3.4512954,56.4071968],[-3.453096,56.4087028],[-3.4551781,56.4104492],[-3.4561975,56.4112984],[-3.4571499,56.4120991],[-3.4576343,56.412536],[-3.4579408,56.4128246],[-3.45819,56.4130694],[-3.458934,56.4138665],[-3.4592812,56.4142635],[-3.4596195,56.41469],[-3.4601458,56.4154342]],"type":"LineString"}},{"id":"way/150691060","type":"Feature","properties":{"@id":"way/150691060","electrified":"no","gauge":"1435","maxspeed":"45 mph","name":"Highland Main Line","operator":"Network Rail","passenger_lines":"2","railway":"rail","railway:traffic_mode":"mixed","ref":"HGL1","usage":"main"},"geometry":{"coordinates":[[-3.4465013,56.4859652],[-3.446021,56.4861635]],"type":"LineString"}},{"id":"way/220456663","type":"Feature","properties":{"@id":"way/220456663","bridge":"yes","electrified":"no","gauge":"1435","layer":"1","maxspeed":"85 mph","name":"Highland Main Line","operator":"Network Rail","passenger_lines":"2","railway":"rail","railway:traffic_mode":"mixed","ref":"HGL1","usage":"main"},"geometry":{"coordinates":[[-3.4666553,56.4718749],[-3.4665482,56.471955]],"type":"LineString"}},{"id":"way/220456664","type":"Feature","properties":{"@id":"way/220456664","electrified":"no","gauge":"1435","maxspeed":"85 mph","name":"Highland Main Line","operator":"Network Rail","passenger_lines":"2","railway":"rail","railway:traffic_mode":"mixed","ref":"HGL1","usage":"main"},"geometry":{"coordinates":[[-3.4665482,56.471955],[-3.4637879,56.4739973],[-3.4605071,56.4764037],[-3.4555431,56.4800622],[-3.45257,56.4822491],[-3.451612,56.4829563]],"type":"LineString"}},{"id":"way/234811328","type":"Feature","properties":{"@id":"way/234811328","electrified":"no","gauge":"1435","maxspeed":"15 mph","name":"Highland Main Line","operator":"Network Rail","passenger_lines":"2","railway":"rail","railway:traffic_mode":"mixed","ref":"HGL1","usage":"main"},"geometry":{"coordinates":[[-3.4388395,56.3904472],[-3.4390775,56.3907194],[-3.4393568,56.3910621],[-3.4401509,56.3921524]],"type":"LineString"}},{"id":"way/368602265","type":"Feature","properties":{"@id":"way/368602265","bridge":"yes","electrified":"no","gauge":"1435","layer":"1","maxspeed":"55 mph","name":"Highland Main Line","operator":"Network Rail","railway":"rail","railway:track_ref":"2","ref":"HGL2","usage":"main"},"geometry":{"coordinates":[[-3.5791841,56.5571723],[-3.5794818,56.5572823]],"type":"LineString"}},{"id":"way/368602266","type":"Feature","properties":{"@id":"way/368602266","electrified":"no","gauge":"1435","maxspeed":"40 mph","name":"Highland Main Line","operator":"Network Rail","railway":"rail","railway:track_ref":"2","ref":"HGL2","usage":"main"},"geometry":{"coordinates":[[-3.5727578,56.5550472],[-3.5730617,56.5550966],[-3.5741568,56.5554048],[-3.5748119,56.5556356],[-3.5787474,56.5570181]],"type":"LineString"}},{"id":"way/368607003","type":"Feature","properties":{"@id":"way/368607003","electrified":"no","gauge":"1435","maxspeed":"55 mph","name":"Highland Main Line","operator":"Network Rail","railway":"rail","railway:track_ref":"2","ref":"HGL2","usage":"main"},"geometry":{"coordinates":[[-3.5794818,56.5572823],[-3.5811108,56.5578978]],"type":"LineString"}},{"id":"way/422486448","type":"Feature","properties":{"@id":"way/422486448","bridge":"yes","electrified":"no","gauge":"1435","layer":"1","maxspeed":"85 mph","name":"Highland Main Line","operator":"Network Rail","passenger_lines":"2","railway":"rail","railway:traffic_mode":"mixed","ref":"HGL1","usage":"main"},"geometry":{"coordinates":[[-3.4678754,56.4280813],[-3.4679028,56.4281259]],"type":"LineString"}},{"id":"way/422486455","type":"Feature","properties":{"@id":"way/422486455","electrified":"no","gauge":"1435","maxspeed":"85 mph","name":"Highland Main Line","operator":"Network Rail","passenger_lines":"2","railway":"rail","railway:traffic_mode":"mixed","ref":"HGL1","usage":"main"},"geometry":{"coordinates":[[-3.4679028,56.4281259],[-3.4680506,56.4283673],[-3.4684126,56.4288894],[-3.4689355,56.4295913],[-3.4694567,56.4301433],[-3.4703381,56.4310825],[-3.4708226,56.4316164],[-3.4712829,56.432213],[-3.4716188,56.4327448],[-3.4719446,56.4333615],[-3.4722191,56.4340252],[-3.4723952,56.4346618],[-3.4725195,56.4354017],[-3.4725392,56.4360423],[-3.4725124,56.4366142],[-3.47242,56.437261],[-3.4722852,56.4378233],[-3.472101,56.4384023],[-3.4718627,56.4391092],[-3.4716426,56.4398456],[-3.4715036,56.4403958],[-3.4713982,56.4409114]],"type":"LineString"}},{"id":"way/777526121","type":"Feature","properties":{"@id":"way/777526121","electrified":"no","gauge":"1435","maxspeed":"15 mph","name":"Highland Main Line","operator":"Network Rail","passenger_lines":"2","railway":"rail","railway:traffic_mode":"mixed","ref":"HGL1","usage":"main"},"geometry":{"coordinates":[[-3.4417571,56.3951592],[-3.4418483,56.395448],[-3.4419611,56.3957809],[-3.4420682,56.3960994],[-3.4420853,56.3961507],[-3.4424488,56.3972467]],"type":"LineString"}},{"id":"way/777526122","type":"Feature","properties":{"@id":"way/777526122","electrified":"no","gauge":"1435","maxspeed":"80 mph","name":"Highland Main Line","operator":"Network Rail","passenger_lines":"2","railway":"rail","railway:traffic_mode":"mixed","ref":"HGL1","usage":"main"},"geometry":{"coordinates":[[-3.461466,56.4175624],[-3.462772,56.4197127],[-3.4645786,56.4226868]],"type":"LineString"}},{"id":"way/777526125","type":"Feature","properties":{"@id":"way/777526125","electrified":"no","gauge":"1435","maxspeed":"85 mph","name":"Highland Main Line","operator":"Network Rail","passenger_lines":"2","railway":"rail","railway:traffic_mode":"mixed","ref":"HGL1","usage":"main"},"geometry":{"coordinates":[[-3.4676085,56.4276455],[-3.4678754,56.4280813]],"type":"LineString"}},{"id":"way/777526126","type":"Feature","properties":{"@id":"way/777526126","electrified":"no","gauge":"1435","maxspeed":"75 mph","name":"Highland Main Line","operator":"Network Rail","passenger_lines":"2","railway":"rail","railway:traffic_mode":"mixed","ref":"HGL1","usage":"main"},"geometry":{"coordinates":[[-3.451612,56.4829563],[-3.4506858,56.4836405],[-3.4501475,56.4840195],[-3.4496632,56.4843361],[-3.4492529,56.4845777],[-3.4485249,56.4849846],[-3.4477029,56.4854096]],"type":"LineString"}},{"id":"way/777526129","type":"Feature","properties":{"@id":"way/777526129","electrified":"no","gauge":"1435","maxspeed":"45 mph","name":"Highland Main Line","operator":"Network Rail","passenger_lines":"2","railway":"rail","railway:traffic_mode":"mixed","ref":"HGL1","usage":"main"},"geometry":{"coordinates":[[-3.4477029,56.4854096],[-3.4465013,56.4859652]],"type":"LineString"}},{"id":"way/777526137","type":"Feature","properties":{"@id":"way/777526137","electrified":"no","gauge":"1435","maxspeed":"55 mph","name":"Highland Main Line","operator":"Network Rail","railway":"rail","railway:track_ref":"2","ref":"HGL2","usage":"main"},"geometry":{"coordinates":[[-3.5787474,56.5570181],[-3.5791841,56.5571723]],"type":"LineString"}},{"id":"way/777526139","type":"Feature","properties":{"@id":"way/777526139","electrified":"no","gauge":"1435","maxspeed":"55 mph","name":"Highland Main Line","operator":"Network Rail","passenger_lines":"1","railway":"rail","railway:traffic_mode":"mixed","ref":"HGL2","source":"GPS","start_date":"1863-06-01","usage":"main"},"geometry":{"coordinates":[[-3.5811108,56.5578978],[-3.5816614,56.5580945]],"type":"LineString"}},{"id":"way/779447286","type":"Feature","properties":{"@id":"way/779447286","electrified":"no","gauge":"1435","maxspeed":"15 mph","name":"Highland Main Line","operator":"Network Rail","passenger_lines":"2","railway":"rail","railway:traffic_mode":"mixed","ref":"HGL1","usage":"main"},"geometry":{"coordinates":[[-3.4401509,56.3921524],[-3.4408804,56.3931513],[-3.4411186,56.3934978],[-3.4412669,56.3937753],[-3.4414343,56.3941145],[-3.4415125,56.3943672],[-3.4417571,56.3951592]],"type":"LineString"}},{"id":"way/1017591403","type":"Feature","properties":{"@id":"way/1017591403","electrified":"no","gauge":"1435","maxspeed":"85 mph","name":"Highland Main Line","operator":"Network Rail","passenger_lines":"2","railway":"rail","railway:traffic_mode":"mixed","ref":"HGL1","usage":"main"},"geometry":{"coordinates":[[-3.471388,56.4409613],[-3.4712003,56.4421175],[-3.4711097,56.4430637],[-3.4710801,56.4437417],[-3.4710831,56.4444903],[-3.4711292,56.4452368],[-3.4712082,56.4460339],[-3.471433,56.4475068],[-3.4715781,56.4484126],[-3.471603,56.4485682],[-3.4720807,56.4515388],[-3.4725686,56.4544012],[-3.4727966,56.4556905]],"type":"LineString"}},{"id":"way/1017591404","type":"Feature","properties":{"@id":"way/1017591404","bridge":"yes","electrified":"no","gauge":"1435","layer":"1","maxspeed":"85 mph","name":"Highland Main Line","operator":"Network Rail","passenger_lines":"2","railway":"rail","railway:traffic_mode":"mixed","ref":"HGL1","usage":"main"},"geometry":{"coordinates":[[-3.4713982,56.4409114],[-3.471388,56.4409613]],"type":"LineString"}}]}