{"type":"FeatureCollection","features":[{"id":"way/4350947","type":"Feature","properties":{"@id":"way/4350947","electrified":"no","gauge":"1435","maxspeed":"80 mph","name":"Highland Main Line","operator":"Network Rail","passenger_lines":"1","railway":"rail","railway:traffic_mode":"mixed","ref":"HGL2","source":"GPS","start_date":"1897-07-08","usage":"main"},"geometry":{"coordinates":[[-3.8257582,57.1947481],[-3.8254195,57.1952595],[-3.8249589,57.1959947],[-3.8244256,57.1968264],[-3.8238715,57.1976845],[-3.8227739,57.1993294]],"type":"LineString"}},{"id":"way/4351390","type":"Feature","properties":{"@id":"way/4351390","electrified":"no","gauge":"1435","maxspeed":"60 mph","name":"Highland Main Line","operator":"Network Rail","passenger_lines":"1","railway":"rail","railway:traffic_mode":"mixed","ref":"HGL2","source":"GPS","start_date":"1863-09-09","usage":"main"},"geometry":{"coordinates":[[-3.7504765,56.7090707],[-3.7510998,56.7092526],[-3.7516907,56.7094096],[-3.7525361,56.7095961],[-3.7554625,56.7101665],[-3.7561328,56.7103316],[-3.7568157,56.710515],[-3.7576541,56.7107728],[-3.7582298,56.7109596],[-3.7587626,56.7111435],[-3.7594315,56.7114061],[-3.7601247,56.7117315],[-3.7610355,56.7121909],[-3.761529,56.712497],[-3.7620178,56.7128346],[-3.7626761,56.7134282]],"type":"LineString"}},{"id":"way/4351803","type":"Feature","properties":{"@id":"way/4351803","electrified":"no","gauge":"1435","maxspeed":"65 mph","name":"Highland Main Line","operator":"Network Rail","passenger_lines":"1","railway":"rail","railway:traffic_mode":"mixed","ref":"HGL2","source":"GPS","start_date":"1863-09-09","usage":"main"},"geometry":{"coordinates":[[-3.8088217,56.7543287],[-3.8136819,56.7566049],[-3.8163855,56.7578694],[-3.8173833,56.7583458],[-3.8180592,56.7586339],[-3.8186735,56.758878],[-3.8193893,56.7591135],[-3.8206088,56.7594149],[-3.8225729,56.7598291],[-3.8232396,56.7599784],[-3.8310163,56.7617125],[-3.832929,56.76214],[-3.8378969,56.7632504],[-3.8384891,56.7633826],[-3.8436328,56.764523]],"type":"LineString"}},{"id":"way/4351804","type":"Feature","properties":{"@id":"way/4351804","electrified":"no","gauge":"1435","maxspeed":"75 mph","name":"Highland Main Line","operator":"Network Rail","passenger_lines":"2","railway":"rail","railway:traffic_mode":"mixed","ref":"HGL2","start_date":"1863-09-09","usage":"main"},"geometry":{"coordinates":[[-3.9508104,56.767934],[-3.9546542,56.767548],[-3.955201,56.767494],[-3.9558764,56.7674399],[-3.9566228,56.7673994],[-3.9574449,56.7673749],[-3.95859,56.7673984],[-3.9596066,56.767417],[-3.9607892,56.7674026],[-3.9612237,56.7673932]],"type":"LineString"}},{"id":"way/4351805","type":"Feature","properties":{"@id":"way/4351805","electrified":"no","gauge":"1435","maxspeed":"75 mph","name":"Highland Main Line","operator":"Network Rail","passenger_lines":"2","railway":"rail","railway:traffic_mode":"mixed","ref":"HGL2","start_date":"1863-09-09","usage":"main"},"geometry":{"coordinates":[[-4.0775052,56.8009032],[-4.0802191,56.8015275],[-4.0820932,56.8019722],[-4.0847514,56.8025869],[-4.0859578,56.8028393],[-4.0870309,56.8030375],[-4.088298,56.8032452],[-4.0893519,56.803389],[-4.0901958,56.8035051]],"type":"LineString"}},{"id":"way/4351806","type":"Feature","properties":{"@id":"way/4351806","bridge":"yes","electrified":"no","gauge":"1435","layer":"1","maxspeed":"75 mph","name":"Highland Main Line","operator":"Network Rail","passenger_lines":"2","railway":"rail","railway:traffic_mode":"mixed","ref":"HGL2","start_date":"1863-09-09","usage":"main"},"geometry":{"coordinates":[[-4.1846543,56.818862],[-4.1848132,56.8189103]],"type":"LineString"}},{"id":"way/4352745","type":"Feature","properties":{"@id":"way/4352745","electrified":"no","gauge":"1435","maxspeed":"75 mph","name":"Highland Main Line","operator":"Network Rail","passenger_lines":"1","railway":"rail","railway:traffic_mode":"mixed","ref":"HGL2","source":"GPS","start_date":"1898-11-01","usage":"main"},"geometry":{"coordinates":[[-4.1060841,57.4317043],[-4.1065794,57.4323642],[-4.1068465,57.4328205],[-4.1070164,57.4332864],[-4.10714,57.4339135],[-4.1072609,57.4347327],[-4.1072757,57.4354177],[-4.1072389,57.4358615],[-4.1071684,57.4362975],[-4.107076,57.4367299],[-4.1069566,57.4371443],[-4.1067387,57.4377507],[-4.1061203,57.4389779],[-4.1057279,57.4396814],[-4.1046058,57.4416984],[-4.1032796,57.4440583],[-4.1028075,57.4449369],[-4.1025063,57.4454558],[-4.101939,57.4462745],[-4.1016544,57.4466237],[-4.1011079,57.4471995],[-4.1006489,57.4476248],[-4.1001232,57.4480676],[-4.0994441,57.4485772],[-4.0987403,57.4490529],[-4.0978353,57.4495917],[-4.0961768,57.450486],[-4.0947379,57.4512722],[-4.0932462,57.452135],[-4.0917419,57.4531214],[-4.0906498,57.4538493],[-4.0899095,57.4544149],[-4.0891692,57.4550209],[-4.0880421,57.4560923],[-4.0848409,57.4590337],[-4.0838964,57.4599047],[-4.0830728,57.460679],[-4.0827671,57.4609665],[-4.081414,57.462213],[-4.0804654,57.463081],[-4.080039,57.4634351],[-4.0795207,57.4638385],[-4.0787936,57.4643374],[-4.0782962,57.4646403]],"type":"LineString"}},{"id":"way/4352748","type":"Feature","properties":{"@id":"way/4352748","electrified":"no","gauge":"1435","maxspeed":"75 mph","name":"Highland Main Line","operator":"Network Rail","passenger_lines":"1","railway":"rail","railway:traffic_mode":"mixed","ref":"HGL2","source":"GPS","start_date":"1897-07-08","usage":"main"},"geometry":{"coordinates":[[-4.0517982,57.3820002],[-4.0527143,57.3823036],[-4.0536533,57.3825867],[-4.0544768,57.382888],[-4.0552339,57.3832025],[-4.0564892,57.3837056],[-4.0581554,57.3843664],[-4.0594611,57.3849085],[-4.0603653,57.3853469]],"type":"LineString"}},{"id":"way/4352749","type":"Feature","properties":{"@id":"way/4352749","electrified":"no","gauge":"1435","maxspeed":"60 mph","name":"Highland Main Line","operator":"Network Rail","passenger_lines":"1","railway":"rail","railway:traffic_mode":"mixed","ref":"HGL2","source":"GPS","start_date":"1897-07-08","usage":"main"},"geometry":{"coordinates":[[-3.9771709,57.322552],[-3.9776537,57.3230849],[-3.9780078,57.3235889],[-3.9783404,57.3241333],[-3.9785549,57.3246836],[-3.9787052,57.3252455],[-3.978791,57.3258826],[-3.9787695,57.3264618],[-3.9786837,57.3277881],[-3.9786193,57.3288306]],"type":"LineString"}},{"id":"way/4352750","type":"Feature","properties":{"@id":"way/4352750","electrified":"no","gauge":"1435","maxspeed":"75 mph","name":"Highland Main Line","operator":"Network Rail","passenger_lines":"1","railway":"rail","railway:traffic_mode":"mixed","ref":"HGL2","source":"GPS","start_date":"1897-07-08","usage":"main"},"geometry":{"coordinates":[[-3.856176,57.2937273],[-3.8569865,57.2938501],[-3.8584671,57.2940646],[-3.860055,57.2943138],[-3.861557,57.2945689],[-3.8634989,57.2949283],[-3.8685415,57.2959891]],"type":"LineString"}},{"id":"way/4353025","type":"Feature","properties":{"@id":"way/4353025","electrified":"no","gauge":"1435","maxspeed":"85 mph","name":"Highland Main Line","operator":"Network Rail","passenger_lines":"1","railway":"rail","railway:traffic_mode":"mixed","ref":"HGL2","source":"GPS","start_date":"1863-09-09","usage":"main"},"geometry":{"coordinates":[[-3.927151,57.1305647],[-3.9268504,57.1307688],[-3.9262259,57.1311991],[-3.9253798,57.1316921],[-3.9245858,57.1321405],[-3.9237597,57.132548],[-3.9227727,57.1329964],[-3.9217212,57.1334272],[-3.9207878,57.1337707],[-3.9197257,57.1341143],[-3.918406,57.1344927],[-3.9169255,57.1348711],[-3.9098601,57.1366626],[-3.9085615,57.1370225],[-3.9076236,57.1373222],[-3.906821,57.137623],[-3.9058681,57.1380055],[-3.9049057,57.1384385],[-3.9041889,57.1387947],[-3.9034184,57.1392299],[-3.9026883,57.1395577],[-3.9018085,57.1401223],[-3.8999095,57.1414554],[-3.897019,57.1435242],[-3.8958004,57.1443775]],"type":"LineString"}},{"id":"way/4397591","type":"Feature","properties":{"@id":"way/4397591","electrified":"no","gauge":"1435","maxspeed":"80 mph","name":"Highland Main Line","operator":"Network Rail","passenger_lines":"1","railway":"rail","railway:traffic_mode":"mixed","ref":"HGL2","source":"GPS","start_date":"1856-04-07","usage":"main"},"geometry":{"coordinates":[[-3.4843415,56.5329185],[-3.4921278,56.533612],[-3.4968846,56.5340264],[-3.5004732,56.5343477],[-3.5026488,56.5345384],[-3.5041899,56.5346212],[-3.5061103,56.5347068],[-3.508063,56.5347304],[-3.5094148,56.5346949],[-3.5106271,56.5345944],[-3.5138243,56.5341684],[-3.5165709,56.5337424],[-3.5182748,56.5334567],[-3.5184056,56.5334348],[-3.5203582,56.5330265]],"type":"LineString"}},{"id":"way/4397592","type":"Feature","properties":{"@id":"way/4397592","electrified":"no","gauge":"1435","layer":"-1","maxspeed":"55 mph","name":"Highland Main Line","operator":"Network Rail","passenger_lines":"1","railway":"rail","railway:traffic_mode":"mixed","ref":"HGL2","source":"OS_OpenData_StreetView","start_date":"1863-06-01","tunnel":"yes","tunnel:name":"Inver Tunnel","usage":"main"},"geometry":{"coordinates":[[-3.6087242,56.5608058],[-3.6102731,56.5612908],[-3.6117401,56.5617506],[-3.6126801,56.5620627],[-3.613353,56.5622546]],"type":"LineString"}},{"id":"way/4397593","type":"Feature","properties":{"@id":"way/4397593","electrified":"no","gauge":"1435","maxspeed":"80 mph","name":"Highland Main Line","operator":"Network Rail","passenger_lines":"1","railway":"rail","railway:traffic_mode":"mixed","ref":"HGL2","source":"GPS","start_date":"1863-06-01","usage":"main"},"geometry":{"coordinates":[[-3.6713465,56.6538374],[-3.6719256,56.654815],[-3.6722292,56.6554787],[-3.6724988,56.656141],[-3.6729302,56.6572384],[-3.6731741,56.6579113],[-3.6733181,56.6584595],[-3.6733876,56.658961],[-3.6734,56.659412],[-3.6733565,56.6599417],[-3.6731575,56.660838],[-3.6727678,56.6624195],[-3.6726298,56.6630218],[-3.6725262,56.6634842],[-3.6725683,56.6639944],[-3.6726485,56.6645411],[-3.672797,56.664974],[-3.673068,56.6655633],[-3.6732894,56.6659461],[-3.6735552,56.6662968],[-3.6738986,56.6667036],[-3.6742151,56.6670259],[-3.674623,56.6673856],[-3.6756688,56.6681775],[-3.6770483,56.6691964],[-3.6781924,56.6699971],[-3.6820345,56.6728424],[-3.6831544,56.6736348],[-3.6849076,56.674939],[-3.6865408,56.6760858],[-3.6881953,56.6770955],[-3.6929529,56.6799216],[-3.6989515,56.6835462],[-3.7015449,56.6851163],[-3.7041217,56.6866667],[-3.7056667,56.6876036],[-3.7066355,56.6881948]],"type":"LineString"}},{"id":"way/4412543","type":"Feature","properties":{"@id":"way/4412543","electrified":"no","gauge":"1435","maxspeed":"70 mph","name":"Highland Main Line","operator":"Network Rail","passenger_lines":"1","railway":"rail","railway:traffic_mode":"mixed","ref":"HGL2","source":"GPS","start_date":"1863-09-09","usage":"main"},"geometry":{"coordinates":[[-4.1810621,56.9808461],[-4.180787,56.9811855],[-4.1805437,56.9815487],[-4.1802433,56.9820748],[-4.1801189,56.9825206]],"type":"LineString"}},{"id":"way/4412544","type":"Feature","properties":{"@id":"way/4412544","electrified":"no","gauge":"1435","maxspeed":"75 mph","name":"Highland Main Line","operator":"Network Rail","passenger_lines":"2","railway":"rail","railway:traffic_mode":"mixed","ref":"HGL2","start_date":"1863-09-09","usage":"main"},"geometry":{"coordinates":[[-4.2390196,56.9137006],[-4.2386556,56.9148742],[-4.2382793,56.9161623],[-4.2380627,56.9169769],[-4.2379934,56.9175025],[-4.2379825,56.9181503],[-4.2381154,56.9188577],[-4.2382143,56.9192437],[-4.238365,56.9196302],[-4.2388513,56.920599]],"type":"LineString"}},{"id":"way/5042395","type":"Feature","properties":{"@id":"way/5042395","electrified":"no","gauge":"1435","maxspeed":"80 mph","name":"Highland Main Line","operator":"Network Rail","passenger_lines":"1","railway":"rail","railway:traffic_mode":"mixed","ref":"HGL2","source":"GPS","start_date":"1863-06-01","usage":"main"},"geometry":{"coordinates":[[-3.6383055,56.6134145],[-3.6373347,56.6145919],[-3.6362511,56.6159616],[-3.6357688,56.6166042],[-3.6354374,56.6171588],[-3.635115,56.6178447],[-3.6348953,56.6185236],[-3.634779,56.6190549],[-3.6347214,56.6195467],[-3.634708,56.6200245],[-3.6347276,56.6205011],[-3.6347812,56.6208966],[-3.6349315,56.6215341],[-3.6351056,56.6220653],[-3.6354228,56.6227301],[-3.6356418,56.6230915],[-3.6360195,56.6236475],[-3.636508,56.6242445],[-3.6376244,56.6254178],[-3.6405316,56.6284452],[-3.6414487,56.6293588]],"type":"LineString"}},{"id":"way/5042396","type":"Feature","properties":{"@id":"way/5042396","bridge":"viaduct","bridge:name":"Dalguise Viaduct","electrified":"no","gauge":"1435","heritage":"yes","layer":"1","maxspeed":"65 mph","name":"Highland Main Line","operator":"Network Rail","passenger_lines":"1","railway":"rail","railway:traffic_mode":"mixed","ref":"HGL2","source":"GPS","start_date":"1863-06-01","usage":"main","wikidata":"Q17570888"},"geometry":{"coordinates":[[-3.6393943,56.61207],[-3.6383867,56.6133183]],"type":"LineString"}},{"id":"way/24470126","type":"Feature","properties":{"@id":"way/24470126","bridge":"yes","bridge:structure":"arch","electrified":"no","gauge":"1435","layer":"1","maxspeed":"75 mph","name":"Highland Main Line","operator":"Network Rail","passenger_lines":"2","railway":"rail","railway:traffic_mode":"mixed","ref":"HGL2","start_date":"1863-09-09","usage":"main"},"geometry":{"coordinates":[[-3.9505819,56.7679593],[-3.9508104,56.767934]],"type":"LineString"}},{"id":"way/27745115","type":"Feature","properties":{"@id":"way/27745115","electrified":"no","gauge":"1435","maxspeed":"40 mph","name":"Highland Main Line","operator":"Network Rail","passenger_lines":"1","railway":"rail","railway:track_ref":"1","railway:traffic_mode":"mixed","ref":"HGL2","source":"GPS","start_date":"1863-06-01","usage":"main"},"geometry":{"coordinates":[[-3.7343604,56.7021519],[-3.7356498,56.7023788],[-3.7362877,56.70249],[-3.736997,56.7026472],[-3.7377431,56.70285]],"type":"LineString"}},{"id":"way/27745132","type":"Feature","properties":{"@id":"way/27745132","bridge":"yes","electrified":"no","gauge":"1435","layer":"1","maxspeed":"60 mph","name":"Highland Main Line","operator":"Network Rail","passenger_lines":"1","railway":"rail","railway:traffic_mode":"mixed","ref":"HGL2","source":"GPS;NPE","start_date":"1863-06-01","usage":"main"},"geometry":{"coordinates":[[-3.7322848,56.7017942],[-3.7327342,56.7018675]],"type":"LineString"}},{"id":"way/32808877","type":"Feature","properties":{"@id":"way/32808877","bridge":"yes","electrified":"no","gauge":"1435","layer":"1","maxspeed":"55 mph","name":"Highland Main Line","operator":"Network Rail","passenger_lines":"1","railway":"rail","railway:track_ref":"1","railway:traffic_mode":"mixed","ref":"HGL2","source":"survey","source:name":"npe","start_date":"1863-06-01","usage":"main"},"geometry":{"coordinates":[[-3.5791654,56.557192],[-3.5794634,56.5572997]],"type":"LineString"}},{"id":"way/32808878","type":"Feature","properties":{"@id":"way/32808878","electrified":"no","gauge":"1435","maxspeed":"55 mph","name":"Highland Main Line","operator":"Network Rail","passenger_lines":"1","railway":"rail","railway:track_ref":"1","railway:traffic_mode":"mixed","ref":"HGL2","source":"GPS","start_date":"1863-06-01","usage":"main"},"geometry":{"coordinates":[[-3.5794634,56.5572997],[-3.5811108,56.5578978]],"type":"LineString"}},{"id":"way/38453271","type":"Feature","properties":{"@id":"way/38453271","bridge":"yes","bridge:structure":"arch","electrified":"no","gauge":"1435","layer":"1","maxspeed":"75 mph","name":"Highland Main Line","operator":"Network Rail","passenger_lines":"2","railway":"rail","railway:traffic_mode":"mixed","ref":"HGL2","start_date":"1863-09-09","usage":"main"},"geometry":{"coordinates":[[-3.8916563,56.769794],[-3.8919757,56.7698332]],"type":"LineString"}},{"id":"way/38453273","type":"Feature","properties":{"@id":"way/38453273","electrified":"no","gauge":"1435","maxspeed":"75 mph","name":"Highland Main Line","operator":"Network Rail","passenger_lines":"2","railway":"rail","railway:traffic_mode":"mixed","ref":"HGL2","start_date":"1863-09-09","usage":"main"},"geometry":{"coordinates":[[-3.8919757,56.7698332],[-3.8950535,56.7702048],[-3.9000281,56.7707624],[-3.9027356,56.7710655],[-3.9045288,56.7712594],[-3.9054513,56.7713377],[-3.9060807,56.7713761],[-3.9062894,56.7713858],[-3.9066987,56.7713944]],"type":"LineString"}},{"id":"way/38680842","type":"Feature","properties":{"@id":"way/38680842","bridge":"yes","electrified":"no","gauge":"1435","layer":"1","maxspeed":"75 mph","name":"Highland Main Line","operator":"Network Rail","passenger_lines":"1","railway":"rail","railway:traffic_mode":"mixed","ref":"HGL2","source":"survey","start_date":"1897-07-08","usage":"main"},"geometry":{"coordinates":[[-3.8301184,57.2804163],[-3.8304111,57.280565]],"type":"LineString"}},{"id":"way/38680873","type":"Feature","properties":{"@id":"way/38680873","bridge":"yes","electrified":"no","gauge":"1435","layer":"1","maxspeed":"75 mph","name":"Highland Main Line","operator":"Network Rail","passenger_lines":"1","railway":"rail","railway:traffic_mode":"mixed","ref":"HGL2","source":"survey","start_date":"1897-07-08","usage":"main"},"geometry":{"coordinates":[[-4.0662147,57.3897202],[-4.0665625,57.390162]],"type":"LineString"}},{"id":"way/38680875","type":"Feature","properties":{"@id":"way/38680875","electrified":"no","gauge":"1435","maxspeed":"75 mph","name":"Highland Main Line","operator":"Network Rail","passenger_lines":"1","railway":"rail","railway:traffic_mode":"mixed","ref":"HGL2","source":"GPS","start_date":"1897-07-08","usage":"main"},"geometry":{"coordinates":[[-4.0647611,57.3882565],[-4.0655338,57.388992],[-4.0662147,57.3897202]],"type":"LineString"}},{"id":"way/38680879","type":"Feature","properties":{"@id":"way/38680879","bridge":"yes","electrified":"no","gauge":"1435","layer":"1","maxspeed":"75 mph","name":"Highland Main Line","operator":"Network Rail","passenger_lines":"1","railway":"rail","railway:traffic_mode":"mixed","ref":"HGL2","source":"GPS","start_date":"1898-11-01","usage":"main"},"geometry":{"coordinates":[[-4.0782962,57.4646403],[-4.0780259,57.4647931]],"type":"LineString"}},{"id":"way/39379388","type":"Feature","properties":{"@id":"way/39379388","electrified":"no","embankment":"yes","gauge":"1435","maxspeed":"70 mph","name":"Highland Main Line","operator":"Network Rail","passenger_lines":"1","railway":"rail","railway:traffic_mode":"mixed","ref":"HGL2","source":"NPE","start_date":"1898-11-01","usage":"main"},"geometry":{"coordinates":[[-4.0636929,57.4798018],[-4.0643748,57.4809833],[-4.0648024,57.4817243],[-4.0648628,57.4818286]],"type":"LineString"}},{"id":"way/39379389","type":"Feature","properties":{"@id":"way/39379389","cutting":"yes","electrified":"no","gauge":"1435","maxspeed":"75 mph","name":"Highland Main Line","operator":"Network Rail","passenger_lines":"1","railway":"rail","railway:traffic_mode":"mixed","ref":"HGL2","source":"GPS","start_date":"1898-11-01","usage":"main"},"geometry":{"coordinates":[[-4.0719783,57.4674839],[-4.068094,57.4690204],[-4.0668762,57.4695025],[-4.06601,57.4698859],[-4.0653143,57.470268],[-4.0646119,57.4707078],[-4.0639979,57.4711447],[-4.0633645,57.4716836],[-4.0632318,57.4718268]],"type":"LineString"}},{"id":"way/40554639","type":"Feature","properties":{"@id":"way/40554639","electrified":"no","gauge":"1435","maxspeed":"55 mph","name":"Highland Main Line","operator":"Network Rail","passenger_lines":"1","railway":"rail","railway:traffic_mode":"mixed","ref":"HGL2","source":"GPS","start_date":"1863-06-01","usage":"main"},"geometry":{"coordinates":[[-3.6080352,56.5605749],[-3.6084052,56.5607012]],"type":"LineString"}},{"id":"way/40554640","type":"Feature","properties":{"@id":"way/40554640","bridge":"viaduct","bridge:name":"Inver Viaduct","electrified":"no","gauge":"1435","layer":"1","maxspeed":"55 mph","name":"Highland Main Line","operator":"Network Rail","passenger_lines":"1","railway":"rail","railway:traffic_mode":"mixed","ref":"HGL2","source":"GPS","start_date":"1863-06-01","usage":"main"},"geometry":{"coordinates":[[-3.6071991,56.5603072],[-3.6080352,56.5605749]],"type":"LineString"}},{"id":"way/41689018","type":"Feature","properties":{"@id":"way/41689018","bridge":"yes","bridge:name":"Moy Viaduct","electrified":"no","gauge":"1435","historic":"bridge","layer":"1","maxspeed":"75 mph","name":"Highland Main Line","note":"Constructed in 1887. Is the last remaining timber Viaduct on Scottish mainline. Refurbished 2003","operator":"Network Rail","passenger_lines":"1","railway":"rail","railway:traffic_mode":"mixed","ref":"HGL2","source":"GPS","start_date":"1897-07-08","usage":"main","wikidata":"Q17571091"},"geometry":{"coordinates":[[-4.0639458,57.3875626],[-4.0647611,57.3882565]],"type":"LineString"}},{"id":"way/41689019","type":"Feature","properties":{"@id":"way/41689019","electrified":"no","gauge":"1435","maxspeed":"75 mph","name":"Highland Main Line","operator":"Network Rail","passenger_lines":"1","railway":"rail","railway:traffic_mode":"mixed","ref":"HGL2","source":"NPE","start_date":"1897-07-08","usage":"main"},"geometry":{"coordinates":[[-4.0603653,57.3853469],[-4.0613624,57.3858811],[-4.0621235,57.3863152],[-4.0629265,57.3868283],[-4.0639458,57.3875626]],"type":"LineString"}},{"id":"way/42292834","type":"Feature","properties":{"@id":"way/42292834","electrified":"no","gauge":"1435","maxspeed":"80 mph","name":"Highland Main Line","operator":"Network Rail","passenger_lines":"1","railway":"rail","railway:traffic_mode":"mixed","ref":"HGL2","source":"GPS","start_date":"1856-04-07","usage":"main"},"geometry":{"coordinates":[[-3.4684709,56.5308876],[-3.4703296,56.5313758],[-3.4718209,56.5316775],[-3.4725535,56.5318002],[-3.4731942,56.5318905],[-3.4741289,56.5320059],[-3.4750577,56.5320985],[-3.4768343,56.5322651]],"type":"LineString"}},{"id":"way/42292836","type":"Feature","properties":{"@id":"way/42292836","bridge":"yes","electrified":"no","gauge":"1435","layer":"1","maxspeed":"80 mph","name":"Highland Main Line","operator":"Network Rail","passenger_lines":"1","railway":"rail","railway:traffic_mode":"mixed","ref":"HGL2","source":"GPS","start_date":"1856-04-07","usage":"main"},"geometry":{"coordinates":[[-3.4682213,56.5308155],[-3.4684709,56.5308876]],"type":"LineString"}},{"id":"way/44051199","type":"Feature","properties":{"@id":"way/44051199","bridge":"yes","electrified":"no","gauge":"1435","layer":"1","maxspeed":"80 mph","name":"Highland Main Line","operator":"Network Rail","passenger_lines":"1","railway":"rail","railway:traffic_mode":"mixed","ref":"HGL2","source":"GPS","start_date":"1863-06-01","usage":"main"},"geometry":{"coordinates":[[-3.7103607,56.6916464],[-3.7104491,56.6917865]],"type":"LineString"}},{"id":"way/44051200","type":"Feature","properties":{"@id":"way/44051200","electrified":"no","gauge":"1435","maxspeed":"60 mph","name":"Highland Main Line","operator":"Network Rail","passenger_lines":"1","railway":"rail","railway:traffic_mode":"mixed","ref":"HGL2","source":"GPS","start_date":"1863-06-01","usage":"main"},"geometry":{"coordinates":[[-3.7125981,56.6950162],[-3.7129408,56.6954513],[-3.7133485,56.6959108],[-3.7138098,56.696335],[-3.7142712,56.6966884],[-3.71499,56.6971361],[-3.7156674,56.6974968]],"type":"LineString"}},{"id":"way/44055937","type":"Feature","properties":{"@id":"way/44055937","bridge":"yes","electrified":"no","gauge":"1435","layer":"1","maxspeed":"60 mph","name":"Highland Main Line","operator":"Network Rail","passenger_lines":"1","railway":"rail","railway:traffic_mode":"mixed","ref":"HGL2","source":"GPS","start_date":"1863-06-01","usage":"main"},"geometry":{"coordinates":[[-3.7242919,56.7003877],[-3.7246782,56.7004525]],"type":"LineString"}},{"id":"way/44055939","type":"Feature","properties":{"@id":"way/44055939","electrified":"no","gauge":"1435","maxspeed":"60 mph","name":"Highland Main Line","operator":"Network Rail","passenger_lines":"1","railway":"rail","railway:traffic_mode":"mixed","ref":"HGL2","source":"GPS","start_date":"1863-06-01","usage":"main"},"geometry":{"coordinates":[[-3.7246782,56.7004525],[-3.7275642,56.7009709],[-3.727838,56.7010092],[-3.7282723,56.7010946],[-3.7301957,56.7014276],[-3.7322848,56.7017942]],"type":"LineString"}},{"id":"way/44058154","type":"Feature","properties":{"@id":"way/44058154","bridge":"yes","electrified":"no","gauge":"1435","layer":"1","maxspeed":"55 mph","name":"Highland Main Line","operator":"Network Rail","passenger_lines":"1","railway":"rail","railway:traffic_mode":"mixed","ref":"HGL2","source":"GPS","start_date":"1856-04-07","usage":"main"},"geometry":{"coordinates":[[-3.5409349,56.5371868],[-3.5416664,56.537517]],"type":"LineString"}},{"id":"way/44058155","type":"Feature","properties":{"@id":"way/44058155","electrified":"no","gauge":"1435","maxspeed":"55 mph","name":"Highland Main Line","operator":"Network Rail","passenger_lines":"1","railway":"rail","railway:traffic_mode":"mixed","ref":"HGL2","source":"GPS","start_date":"1856-04-07","usage":"main"},"geometry":{"coordinates":[[-3.5416664,56.537517],[-3.5423309,56.5377594],[-3.5430711,56.5379605],[-3.54379,56.5381025],[-3.5447448,56.5382268],[-3.5454776,56.5383379],[-3.5464615,56.5385462],[-3.547383,56.5388495],[-3.5482091,56.5392068],[-3.5486951,56.5394516],[-3.5493613,56.5398367],[-3.5512166,56.5409393]],"type":"LineString"}},{"id":"way/53149430","type":"Feature","properties":{"@id":"way/53149430","electrified":"no","gauge":"1435","maxspeed":"70 mph","name":"Highland Main Line","operator":"Network Rail","passenger_lines":"1","railway":"rail","railway:traffic_mode":"mixed","ref":"HGL2","source":"GPS","start_date":"1863-06-01","usage":"main"},"geometry":{"coordinates":[[-3.586362,56.5593779],[-3.5869735,56.5594876],[-3.5891526,56.5598404],[-3.5904711,56.5600256],[-3.5912329,56.5601025],[-3.5919517,56.560138],[-3.5926598,56.5601557],[-3.5933787,56.5601439],[-3.5940438,56.5601025],[-3.5949987,56.5599902],[-3.5973591,56.5597182],[-3.5996658,56.5594108],[-3.6003095,56.5593457],[-3.6008567,56.5593221],[-3.6016935,56.559328],[-3.6025625,56.5593575],[-3.6032385,56.5594108],[-3.6040002,56.5594935],[-3.6047834,56.5596472],[-3.6056846,56.5598483],[-3.6064249,56.5600611]],"type":"LineString"}},{"id":"way/53149431","type":"Feature","properties":{"@id":"way/53149431","bridge":"yes","electrified":"no","gauge":"1435","layer":"1","maxspeed":"70 mph","name":"Highland Main Line","operator":"Network Rail","passenger_lines":"1","railway":"rail","railway:traffic_mode":"mixed","ref":"HGL2","source":"GPS","start_date":"1863-06-01","usage":"main"},"geometry":{"coordinates":[[-3.585973,56.5593069],[-3.586362,56.5593779]],"type":"LineString"}},{"id":"way/59313355","type":"Feature","properties":{"@id":"way/59313355","electrified":"no","gauge":"1435","maxspeed":"30 mph","name":"Highland Main Line","operator":"Network Rail","passenger_lines":"1","railway":"rail","railway:traffic_mode":"mixed","ref":"HGL2","source":"GPS","start_date":"1863-09-09","usage":"main"},"geometry":{"coordinates":[[-3.775485,56.743145],[-3.7763026,56.7433044],[-3.7770107,56.743475],[-3.7778261,56.7436986],[-3.7784708,56.7439004],[-3.7793497,56.7442205],[-3.7797716,56.7443914]],"type":"LineString"}},{"id":"way/59313356","type":"Feature","properties":{"@id":"way/59313356","electrified":"no","gauge":"1435","heritage":"yes","layer":"-1","maxspeed":"30 mph","name":"Highland Main Line","operator":"Network Rail","passenger_lines":"1","railway":"rail","railway:traffic_mode":"mixed","ref":"HGL2","source":"OS_OpenData_StreetView","start_date":"1863-09-09","tunnel":"yes","tunnel:name":"Killiecrankie Tunnel","usage":"main","wikidata":"Q17847799"},"geometry":{"coordinates":[[-3.7738145,56.7425854],[-3.7741968,56.7427464],[-3.7744961,56.7428641],[-3.7746711,56.7429289],[-3.7748777,56.7430013],[-3.775039,56.7430493],[-3.7752022,56.7430885],[-3.775485,56.743145]],"type":"LineString"}},{"id":"way/59313358","type":"Feature","properties":{"@id":"way/59313358","electrified":"no","gauge":"1435","maxspeed":"60 mph","name":"Highland Main Line","operator":"Network Rail","passenger_lines":"1","railway":"rail","railway:traffic_mode":"mixed","ref":"HGL2","source":"GPS","start_date":"1863-09-09","usage":"main"},"geometry":{"coordinates":[[-3.7635782,56.7147051],[-3.7638786,56.7153764],[-3.763945,56.7156537],[-3.7639966,56.7159652],[-3.7639926,56.7165293],[-3.7640581,56.717148],[-3.7641124,56.7175231],[-3.7641683,56.7178139],[-3.7643507,56.7181848],[-3.764576,56.7185204],[-3.7649837,56.7190032],[-3.7654249,56.7194441],[-3.7658988,56.719808],[-3.7662515,56.7200535],[-3.7666113,56.720268],[-3.7670544,56.7205075],[-3.7674973,56.7207189],[-3.7686813,56.7212305],[-3.7695719,56.7216797],[-3.7705141,56.7221918],[-3.7712975,56.7226981],[-3.7718931,56.7231654],[-3.772392,56.7236086],[-3.7727672,56.7239718],[-3.7730732,56.7243368],[-3.7738971,56.7254269],[-3.7742534,56.7260321],[-3.7744554,56.7263939],[-3.7745741,56.7267121]],"type":"LineString"}},{"id":"way/59313359","type":"Feature","properties":{"@id":"way/59313359","electrified":"no","gauge":"1435","layer":"-1","maxspeed":"60 mph","name":"Highland Main Line","operator":"Network Rail","passenger_lines":"1","railway":"rail","railway:traffic_mode":"mixed","ref":"HGL2","source":"OS_OpenData_StreetView","start_date":"1863-09-09","tunnel":"yes","usage":"main"},"geometry":{"coordinates":[[-3.7626761,56.7134282],[-3.7630632,56.7139279],[-3.7633851,56.714399],[-3.7635782,56.7147051]],"type":"LineString"}},{"id":"way/59384655","type":"Feature","properties":{"@id":"way/59384655","electrified":"no","gauge":"1435","maxspeed":"65 mph","name":"Highland Main Line","operator":"Network Rail","passenger_lines":"1","railway":"rail","railway:traffic_mode":"mixed","ref":"HGL2","source":"GPS","start_date":"1856-04-07","usage":"main"},"geometry":{"coordinates":[[-3.5371488,56.5347363],[-3.5375994,56.5349848],[-3.5383053,56.5354311],[-3.5387264,56.5357287]],"type":"LineString"}},{"id":"way/59384657","type":"Feature","properties":{"@id":"way/59384657","electrified":"no","gauge":"1435","image":"https://www.geograph.org.uk/photo/6224529","layer":"-1","maxspeed":"65 mph","name":"Highland Main Line","operator":"Network Rail","passenger_lines":"1","railway":"rail","railway:traffic_mode":"mixed","ref":"HGL2","source":"OS_OpenData_StreetView","start_date":"1856-04-07","tunnel":"yes","tunnel:name":"Kingswood Tunnel","usage":"main"},"geometry":{"coordinates":[[-3.533265,56.5334288],[-3.534221,56.5336427],[-3.5347348,56.5337897],[-3.5355073,56.5340441],[-3.5358936,56.5341921],[-3.5365373,56.5344524],[-3.5371488,56.5347363]],"type":"LineString"}},{"id":"way/59384706","type":"Feature","properties":{"@id":"way/59384706","electrified":"no","gauge":"1435","maxspeed":"55 mph","name":"Highland Main Line","operator":"Network Rail","passenger_lines":"1","railway":"rail","railway:traffic_mode":"mixed","ref":"HGL2","source":"GPS","start_date":"1863-06-01","usage":"main"},"geometry":{"coordinates":[[-3.613353,56.5622546],[-3.6134926,56.5622916]],"type":"LineString"}},{"id":"way/59384864","type":"Feature","properties":{"@id":"way/59384864","electrified":"no","gauge":"1435","maxspeed":"80 mph","name":"Highland Main Line","operator":"Network Rail","passenger_lines":"1","railway":"rail","railway:traffic_mode":"mixed","ref":"HGL2","source":"GPS","start_date":"1863-06-01","usage":"main"},"geometry":{"coordinates":[[-3.7080537,56.6891394],[-3.7086767,56.6896567],[-3.7091857,56.6901372],[-3.7095827,56.6905732],[-3.7099808,56.6910839],[-3.7103607,56.6916464]],"type":"LineString"}},{"id":"way/59384866","type":"Feature","properties":{"@id":"way/59384866","electrified":"no","gauge":"1435","layer":"-1","maxspeed":"80 mph","name":"Highland Main Line","operator":"Network Rail","passenger_lines":"1","railway":"rail","railway:traffic_mode":"mixed","ref":"HGL2","source":"OS_OpenData_StreetView","start_date":"1863-06-01","tunnel":"yes","usage":"main"},"geometry":{"coordinates":[[-3.7066355,56.6881948],[-3.7080537,56.6891394]],"type":"LineString"}},{"id":"way/63429443","type":"Feature","properties":{"@id":"way/63429443","electrified":"no","gauge":"1435","maxspeed":"60 mph","name":"Highland Main Line","operator":"Network Rail","passenger_lines":"1","railway":"rail","railway:traffic_mode":"mixed","ref":"HGL2","source":"GPS","start_date":"1863-06-01","usage":"main"},"geometry":{"coordinates":[[-3.7327342,56.7018675],[-3.7329705,56.7019073]],"type":"LineString"}},{"id":"way/66204115","type":"Feature","properties":{"@id":"way/66204115","bridge":"yes","bridge:ref":"213","electrified":"no","gauge":"1435","layer":"1","maxspeed":"40 mph","name":"Highland Main Line","operator":"Network Rail","passenger_lines":"1","railway":"rail","railway:traffic_mode":"mixed","ref":"HGL2","source":"GPS","start_date":"1863-09-09","usage":"main"},"geometry":{"coordinates":[[-3.830148,57.1844987],[-3.8300597,57.1845945]],"type":"LineString"}},{"id":"way/66204120","type":"Feature","properties":{"@id":"way/66204120","electrified":"no","gauge":"1435","maxspeed":"65 mph","name":"Highland Main Line","operator":"Network Rail","passenger_lines":"1","railway":"rail","railway:traffic_mode":"mixed","ref":"HGL2","source":"GPS","start_date":"1863-09-09","usage":"main"},"geometry":{"coordinates":[[-3.8335743,57.1770404],[-3.8332405,57.177331],[-3.8328972,57.1776624],[-3.8325968,57.1780346],[-3.832393,57.1783603],[-3.8321823,57.1787318],[-3.8320711,57.1790639],[-3.8319745,57.1793954],[-3.8319423,57.1797327],[-3.8319423,57.1800874],[-3.831996,57.1804189],[-3.8320934,57.1810537],[-3.8321033,57.1815121],[-3.8320389,57.1819365],[-3.8319316,57.1822215],[-3.8317492,57.1826285],[-3.8315561,57.1829541],[-3.8313523,57.1832332],[-3.8309768,57.1836228]],"type":"LineString"}},{"id":"way/66347801","type":"Feature","properties":{"@id":"way/66347801","bridge":"yes","bridge:ref":"HGL2 290/217","electrified":"no","gauge":"1435","layer":"1","maxspeed":"80 mph","name":"Highland Main Line","operator":"Network Rail","passenger_lines":"1","railway":"rail","railway:traffic_mode":"mixed","ref":"HGL2","start_date":"1897-07-08","usage":"main"},"geometry":{"coordinates":[[-3.8187259,57.2056191],[-3.8186676,57.2057086]],"type":"LineString"}},{"id":"way/66347803","type":"Feature","properties":{"@id":"way/66347803","electrified":"no","gauge":"1435","maxspeed":"80 mph","name":"Highland Main Line","operator":"Network Rail","passenger_lines":"1","railway":"rail","railway:traffic_mode":"mixed","ref":"HGL2","source":"GPS","start_date":"1897-07-08","usage":"main"},"geometry":{"coordinates":[[-3.8227326,57.1993913],[-3.821798,57.2008087],[-3.820205,57.203253],[-3.8187259,57.2056191]],"type":"LineString"}},{"id":"way/85445552","type":"Feature","properties":{"@id":"way/85445552","bridge":"yes","bridge:structure":"arch","electrified":"no","gauge":"1435","layer":"2","maxspeed":"75 mph","name":"Highland Main Line","operator":"Network Rail","passenger_lines":"2","railway":"rail","railway:traffic_mode":"mixed","ref":"HGL2","start_date":"1863-09-09","usage":"main","wikidata":"Q113869819"},"geometry":{"coordinates":[[-3.9612237,56.7673932],[-3.9623328,56.7673566]],"type":"LineString"}},{"id":"way/85445553","type":"Feature","properties":{"@id":"way/85445553","electrified":"no","gauge":"1435","maxspeed":"75 mph","name":"Highland Main Line","operator":"Network Rail","passenger_lines":"2","railway":"rail","railway:traffic_mode":"mixed","ref":"HGL2","start_date":"1863-09-09","usage":"main"},"geometry":{"coordinates":[[-3.9623328,56.7673566],[-3.9629601,56.7673383],[-3.9638492,56.7673397],[-3.9646374,56.7673621],[-3.9656671,56.7674482],[-3.9663405,56.7675289],[-3.9668571,56.7675963],[-3.967442,56.7676967],[-3.9680746,56.7678318],[-3.9691244,56.7680847],[-3.9703872,56.7684601],[-3.9755693,56.7702181],[-3.9793729,56.7714518],[-3.9804891,56.7718378],[-3.9814613,56.772234],[-3.9822319,56.7726403],[-3.9833155,56.7732459],[-3.9845922,56.7739278],[-3.9857724,56.7744687],[-3.9867702,56.7748273],[-3.9878431,56.77518],[-3.9891288,56.7755346],[-3.9923917,56.7764236],[-3.9959616,56.7773983],[-3.9990457,56.7782504],[-4.0006117,56.7787775],[-4.0017158,56.7792088],[-4.0025364,56.7795901]],"type":"LineString"}},{"id":"way/88739556","type":"Feature","properties":{"@id":"way/88739556","electrified":"no","gauge":"1435","maxspeed":"15 mph","name":"Highland Main Line","operator":"Network Rail","railway":"rail","railway:track_ref":"4","ref":"HGL2"},"geometry":{"coordinates":[[-4.2215837,57.4809426],[-4.2218212,57.4808352],[-4.2220358,57.4807292],[-4.2222986,57.4805778],[-4.2225548,57.4804012],[-4.2229155,57.4801438],[-4.2232746,57.4798847],[-4.223511,57.4797141]],"type":"LineString"}},{"id":"way/88739562","type":"Feature","properties":{"@id":"way/88739562","electrified":"no","gauge":"1435","maxspeed":"15 mph","name":"Highland Main Line","operator":"Network Rail","railway":"rail","railway:track_ref":"1","ref":"HGL2"},"geometry":{"coordinates":[[-4.2192451,57.4815633],[-4.2197975,57.4814177],[-4.220173,57.481293],[-4.2206531,57.4811106],[-4.2210688,57.480921],[-4.2213625,57.4807646],[-4.2217045,57.4805584],[-4.2222422,57.4801737],[-4.222356,57.4800837]],"type":"LineString"}},{"id":"way/88742142","type":"Feature","properties":{"@id":"way/88742142","bridge":"viaduct","bridge:name":"Culloden Viaduct","bridge:wikipedia":"en:Culloden Viaduct","electrified":"no","gauge":"1435","layer":"1","maxspeed":"70 mph","name":"Highland Main Line","operator":"Network Rail","passenger_lines":"1","railway":"rail","railway:traffic_mode":"mixed","ref":"HGL2","source":"NPE","start_date":"1898-11-01","usage":"main","wikidata":"Q11838929"},"geometry":{"coordinates":[[-4.0616854,57.4750606],[-4.0616793,57.475337],[-4.0616912,57.4755549],[-4.0617493,57.4759972],[-4.061826,57.4763047],[-4.0619213,57.4765866],[-4.0620695,57.4769411],[-4.0622365,57.4772796],[-4.06248,57.4777173],[-4.0630804,57.478749],[-4.0634778,57.4794337],[-4.0636929,57.4798018]],"type":"LineString"}},{"id":"way/92472362","type":"Feature","properties":{"@id":"way/92472362","bridge":"yes","electrified":"no","gauge":"1435","layer":"1","maxspeed":"75 mph","name":"Highland Main Line","operator":"Network Rail","passenger_lines":"1","railway":"rail","railway:traffic_mode":"mixed","ref":"HGL2","source":"GPS","start_date":"1863-09-09","usage":"main"},"geometry":{"coordinates":[[-4.0518726,57.0780165],[-4.0516556,57.0780629]],"type":"LineString"}},{"id":"way/93193459","type":"Feature","properties":{"@id":"way/93193459","bridge":"yes","bridge_ref":"HGL2/013","electrified":"no","gauge":"1435","layer":"1","maxspeed":"65 mph","name":"Highland Main Line","operator":"Network Rail","passenger_lines":"1","railway":"rail","railway:traffic_mode":"mixed","ref":"HGL2","source":"GPS","start_date":"1856-04-07","usage":"main"},"geometry":{"coordinates":[[-3.5613019,56.5461966],[-3.5614774,56.546339]],"type":"LineString"}},{"id":"way/93193461","type":"Feature","properties":{"@id":"way/93193461","electrified":"no","gauge":"1435","maxspeed":"65 mph","name":"Highland Main Line","operator":"Network Rail","passenger_lines":"1","railway":"rail","railway:traffic_mode":"mixed","ref":"HGL2","source":"GPS","start_date":"1856-04-07","usage":"main"},"geometry":{"coordinates":[[-3.5614774,56.546339],[-3.561794,56.5466308],[-3.5620888,56.5469259],[-3.5624582,56.5473831],[-3.5628455,56.548019],[-3.5630021,56.5483362],[-3.5631605,56.5486759],[-3.5634967,56.5493721],[-3.5637379,56.5500503],[-3.563865,56.5502965],[-3.5640757,56.5506488],[-3.5643625,56.5510636],[-3.5647005,56.5514282],[-3.5653086,56.5518706],[-3.5657628,56.5521963],[-3.5663849,56.5526168],[-3.5672218,56.5531742]],"type":"LineString"}},{"id":"way/102834474","type":"Feature","properties":{"@id":"way/102834474","electrified":"no","gauge":"1435","maxspeed":"70 mph","name":"Highland Main Line","operator":"Network Rail","passenger_lines":"1","railway":"rail","railway:traffic_mode":"mixed","ref":"HGL2","source":"GPS","start_date":"1863-09-09","usage":"main"},"geometry":{"coordinates":[[-4.1775213,56.9977153],[-4.1764506,56.9986947],[-4.1756245,56.9993959],[-4.1745087,57.0002783],[-4.1726633,57.0016397],[-4.171966,57.0021598],[-4.1715154,57.0025454],[-4.171054,57.0029661],[-4.1704639,57.0035737],[-4.1698738,57.0042924],[-4.1693589,57.0050578],[-4.1689297,57.0059049],[-4.1679427,57.0080783],[-4.1671058,57.0098425],[-4.1665694,57.0109232],[-4.1663226,57.0113789],[-4.1659685,57.0119221],[-4.1654643,57.0124888],[-4.1651129,57.0130087],[-4.1647588,57.0133124],[-4.1640615,57.0139199],[-4.1633855,57.0145741],[-4.1628491,57.01524],[-4.1624307,57.0159351],[-4.1621624,57.0166009],[-4.1620444,57.0170623],[-4.1618459,57.0178128],[-4.1618567,57.0184144],[-4.1617708,57.019016],[-4.1615992,57.0195825],[-4.1604941,57.0221988],[-4.1597538,57.0239449],[-4.1591959,57.0251186],[-4.1587346,57.0261931],[-4.1582089,57.0275302],[-4.1578655,57.0282893],[-4.1574819,57.0291404],[-4.1573598,57.0295187],[-4.1572888,57.0300117],[-4.1572749,57.0304846],[-4.157287,57.0311048],[-4.1573785,57.0318056],[-4.1573758,57.0323272],[-4.1572975,57.0328254],[-4.1571204,57.0334655],[-4.1568155,57.0341371],[-4.1564351,57.0347362],[-4.1561103,57.0351792],[-4.1554876,57.0358235]],"type":"LineString"}},{"id":"way/102834493","type":"Feature","properties":{"@id":"way/102834493","bridge":"yes","bridge:ref":"HGL2 290/181","electrified":"no","gauge":"1435","layer":"1","maxspeed":"65 mph","name":"Highland Main Line","operator":"Network Rail","passenger_lines":"1","railway":"rail","railway:traffic_mode":"mixed","ref":"HGL2","source":"GPS","start_date":"1863-09-09","usage":"main"},"geometry":{"coordinates":[[-4.1264191,57.0541376],[-4.1255507,57.0546911]],"type":"LineString"}},{"id":"way/111618689","type":"Feature","properties":{"@id":"way/111618689","bridge":"yes","electrified":"no","gauge":"1435","layer":"1","maxspeed":"80 mph","name":"Highland Main Line","operator":"Network Rail","passenger_lines":"1","railway":"rail","railway:traffic_mode":"mixed","ref":"HGL2","source":"GPS","start_date":"1863-09-09","usage":"main"},"geometry":{"coordinates":[[-4.1231038,57.0563337],[-4.1230134,57.0563923]],"type":"LineString"}},{"id":"way/111618700","type":"Feature","properties":{"@id":"way/111618700","electrified":"no","gauge":"1435","maxspeed":"65 mph","name":"Highland Main Line","operator":"Network Rail","passenger_lines":"1","railway":"rail","railway:traffic_mode":"mixed","ref":"HGL2","source":"GPS","start_date":"1863-09-09","usage":"main"},"geometry":{"coordinates":[[-4.1255507,57.0546911],[-4.1253325,57.0548376]],"type":"LineString"}},{"id":"way/111618705","type":"Feature","properties":{"@id":"way/111618705","electrified":"no","gauge":"1435","maxspeed":"80 mph","name":"Highland Main Line","operator":"Network Rail","passenger_lines":"1","railway":"rail","railway:traffic_mode":"mixed","ref":"HGL2","source":"GPS","start_date":"1863-09-09","usage":"main"},"geometry":{"coordinates":[[-4.1230134,57.0563923],[-4.1199296,57.058444],[-4.1198948,57.0584672],[-4.1187818,57.0591925],[-4.1166279,57.0606561],[-4.1157957,57.0611701],[-4.1143306,57.0621974],[-4.1121526,57.0636499],[-4.1106399,57.0646182],[-4.1095348,57.0652716],[-4.1082858,57.0659556],[-4.1072067,57.0665198],[-4.1058548,57.0671673],[-4.1044493,57.0677972],[-4.1033335,57.0682755],[-4.1018315,57.0688646],[-4.0997072,57.069617],[-4.0982695,57.0700835],[-4.0963598,57.0706609],[-4.0958654,57.0708032],[-4.0946488,57.0711356]],"type":"LineString"}},{"id":"way/111618722","type":"Feature","properties":{"@id":"way/111618722","bridge":"yes","electrified":"no","gauge":"1435","layer":"1","maxspeed":"80 mph","name":"Highland Main Line","operator":"Network Rail","passenger_lines":"1","railway":"rail","railway:traffic_mode":"mixed","ref":"HGL2","source":"GPS","start_date":"1863-09-09","usage":"main"},"geometry":{"coordinates":[[-4.0946488,57.0711356],[-4.0943706,57.0712072]],"type":"LineString"}},{"id":"way/119371954","type":"Feature","properties":{"@id":"way/119371954","bridge":"yes","electrified":"no","gauge":"1435","layer":"1","maxspeed":"75 mph","name":"Highland Main Line","operator":"Network Rail","passenger_lines":"1","railway":"rail","railway:traffic_mode":"mixed","ref":"HGL2","source":"survey","start_date":"1897-07-08","usage":"main"},"geometry":{"coordinates":[[-3.8558385,57.2936762],[-3.856176,57.2937273]],"type":"LineString"}},{"id":"way/119371955","type":"Feature","properties":{"@id":"way/119371955","electrified":"no","gauge":"1435","maxspeed":"75 mph","name":"Highland Main Line","operator":"Network Rail","passenger_lines":"1","railway":"rail","railway:traffic_mode":"mixed","ref":"HGL2","source":"GPS","start_date":"1897-07-08","usage":"main"},"geometry":{"coordinates":[[-3.8405321,57.2869441],[-3.8416335,57.2878728],[-3.842685,57.2886729],[-3.8436291,57.2893106],[-3.8445732,57.289902],[-3.8452492,57.2902963],[-3.8462684,57.2907949],[-3.8473842,57.291305],[-3.8486609,57.2918152],[-3.8499377,57.2922732],[-3.8516972,57.2927776],[-3.8529417,57.2930848],[-3.8558385,57.2936762]],"type":"LineString"}},{"id":"way/120284798","type":"Feature","properties":{"@id":"way/120284798","bridge":"yes","electrified":"no","gauge":"1435","layer":"1","maxspeed":"80 mph","name":"Highland Main Line","operator":"Network Rail","passenger_lines":"1","railway":"rail","railway:traffic_mode":"mixed","ref":"HGL2","source":"GPS","start_date":"1863-09-09","usage":"main"},"geometry":{"coordinates":[[-4.0443178,57.080039],[-4.0441116,57.0800965]],"type":"LineString"}},{"id":"way/120284799","type":"Feature","properties":{"@id":"way/120284799","electrified":"no","gauge":"1435","maxspeed":"80 mph","name":"Highland Main Line","operator":"Network Rail","passenger_lines":"1","railway":"rail","railway:traffic_mode":"mixed","ref":"HGL2","source":"GPS","start_date":"1863-09-09","usage":"main"},"geometry":{"coordinates":[[-4.0493627,57.0786021],[-4.0484002,57.0788678],[-4.0474605,57.0791492],[-4.0443178,57.080039]],"type":"LineString"}},{"id":"way/120940846","type":"Feature","properties":{"@id":"way/120940846","bridge":"yes","electrified":"no","gauge":"1435","layer":"1","maxspeed":"75 mph","name":"Highland Main Line","operator":"Network Rail","passenger_lines":"1","railway":"rail","railway:traffic_mode":"mixed","ref":"HGL2","start_date":"1863-09-09","usage":"main"},"geometry":{"coordinates":[[-3.9310947,57.1266159],[-3.9310237,57.1267089]],"type":"LineString"}},{"id":"way/120940847","type":"Feature","properties":{"@id":"way/120940847","electrified":"no","gauge":"1435","maxspeed":"75 mph","name":"Highland Main Line","operator":"Network Rail","passenger_lines":"1","railway":"rail","railway:traffic_mode":"mixed","ref":"HGL2","start_date":"1863-09-09","usage":"main"},"geometry":{"coordinates":[[-3.9323482,57.1249673],[-3.9317677,57.1258106],[-3.9310947,57.1266159]],"type":"LineString"}},{"id":"way/126115005","type":"Feature","properties":{"@id":"way/126115005","electrified":"no","gauge":"1435","maxspeed":"75 mph","name":"Highland Main Line","operator":"Network Rail","passenger_lines":"2","railway":"rail","railway:traffic_mode":"mixed","ref":"HGL2","start_date":"1863-09-09","usage":"main"},"geometry":{"coordinates":[[-3.9314258,56.771842],[-3.9320282,56.7716656],[-3.9326372,56.771457],[-3.9334132,56.7711488],[-3.9345637,56.7706459],[-3.9363085,56.7699829],[-3.9373171,56.7696762],[-3.9384122,56.7693937]],"type":"LineString"}},{"id":"way/126115009","type":"Feature","properties":{"@id":"way/126115009","bridge":"yes","electrified":"no","gauge":"1435","layer":"1","maxspeed":"75 mph","name":"Highland Main Line","operator":"Network Rail","passenger_lines":"2","railway":"rail","railway:traffic_mode":"mixed","ref":"HGL2","start_date":"1863-09-09","usage":"main","wikidata":"Q114077650"},"geometry":{"coordinates":[[-3.9310307,56.7719486],[-3.9314258,56.771842]],"type":"LineString"}},{"id":"way/130287096","type":"Feature","properties":{"@id":"way/130287096","electrified":"no","gauge":"1435","maxspeed":"85 mph","name":"Highland Main Line","operator":"Network Rail","passenger_lines":"1","railway":"rail","railway:traffic_mode":"mixed","ref":"HGL2","source":"GPS","start_date":"1863-09-09","usage":"main"},"geometry":{"coordinates":[[-3.8656111,57.1610666],[-3.8616612,57.1631327],[-3.8580134,57.1650641],[-3.8558569,57.1661985],[-3.8552132,57.1665475],[-3.85443,57.1670013],[-3.8535931,57.1675015],[-3.8529494,57.1679552],[-3.8521984,57.1685253],[-3.850235,57.1701191],[-3.8495484,57.17066],[-3.8488295,57.1711777],[-3.8479149,57.1717959],[-3.8472247,57.1721929]],"type":"LineString"}},{"id":"way/130287097","type":"Feature","properties":{"@id":"way/130287097","electrified":"no","gauge":"1435","maxspeed":"85 mph","name":"Highland Main Line","operator":"Network Rail","passenger_lines":"1","railway":"rail","railway:traffic_mode":"mixed","ref":"HGL2","source":"GPS","start_date":"1863-09-09","usage":"main"},"geometry":{"coordinates":[[-3.8958004,57.1443775],[-3.8951305,57.1448818],[-3.8920131,57.1470782],[-3.8882687,57.1497437],[-3.8868331,57.1507866],[-3.8848677,57.1521298],[-3.8827541,57.153637],[-3.8818958,57.1542073],[-3.8812843,57.154568],[-3.8806727,57.1548997],[-3.8798788,57.1552838],[-3.87916,57.1556155],[-3.8784304,57.1559122],[-3.8776472,57.1561915],[-3.8760057,57.1567676],[-3.8739457,57.1574891],[-3.8716069,57.1583095],[-3.8705662,57.1587168],[-3.8693323,57.1592172],[-3.8682916,57.1596884],[-3.8674359,57.1600968]],"type":"LineString"}},{"id":"way/130287098","type":"Feature","properties":{"@id":"way/130287098","bridge":"yes","electrified":"no","gauge":"1435","layer":"1","maxspeed":"85 mph","name":"Highland Main Line","operator":"Network Rail","passenger_lines":"1","railway":"rail","railway:traffic_mode":"mixed","ref":"HGL2","source":"GPS","start_date":"1863-09-09","usage":"main"},"geometry":{"coordinates":[[-3.8660439,57.1608321],[-3.8656111,57.1610666]],"type":"LineString"}},{"id":"way/130287099","type":"Feature","properties":{"@id":"way/130287099","electrified":"no","gauge":"1435","maxspeed":"85 mph","name":"Highland Main Line","operator":"Network Rail","passenger_lines":"1","railway":"rail","railway:traffic_mode":"mixed","ref":"HGL2","source":"GPS","start_date":"1863-09-09","usage":"main"},"geometry":{"coordinates":[[-3.867228,57.160197],[-3.8660439,57.1608321]],"type":"LineString"}},{"id":"way/130287100","type":"Feature","properties":{"@id":"way/130287100","bridge":"yes","bridge:ref":"207","electrified":"no","gauge":"1435","layer":"1","maxspeed":"85 mph","name":"Highland Main Line","operator":"Network Rail","passenger_lines":"1","railway":"rail","railway:traffic_mode":"mixed","ref":"HGL2","source":"GPS","start_date":"1863-09-09","usage":"main"},"geometry":{"coordinates":[[-3.8674359,57.1600968],[-3.867228,57.160197]],"type":"LineString"}},{"id":"way/130287101","type":"Feature","properties":{"@id":"way/130287101","bridge":"yes","electrified":"no","gauge":"1435","layer":"1","maxspeed":"85 mph","name":"Highland Main Line","operator":"Network Rail","passenger_lines":"1","railway":"rail","railway:traffic_mode":"mixed","ref":"HGL2","source":"GPS","start_date":"1863-09-09","usage":"main"},"geometry":{"coordinates":[[-3.8472247,57.1721929],[-3.8470275,57.1722876]],"type":"LineString"}},{"id":"way/130906784","type":"Feature","properties":{"@id":"way/130906784","electrified":"no","gauge":"1435","maxspeed":"75 mph","name":"Highland Main Line","operator":"Network Rail","passenger_lines":"1","railway":"rail","railway:traffic_mode":"mixed","ref":"HGL2","source":"GPS","start_date":"1897-07-08","usage":"main"},"geometry":{"coordinates":[[-3.8304111,57.280565],[-3.831155,57.2809466]],"type":"LineString"}},{"id":"way/130906785","type":"Feature","properties":{"@id":"way/130906785","bridge":"yes","electrified":"no","gauge":"1435","layer":"1","maxspeed":"75 mph","name":"Highland Main Line","operator":"Network Rail","passenger_lines":"1","railway":"rail","railway:traffic_mode":"mixed","ref":"HGL2","source":"GPS","start_date":"1897-07-08","usage":"main"},"geometry":{"coordinates":[[-3.8353425,57.2831255],[-3.8355406,57.2832471]],"type":"LineString"}},{"id":"way/130906786","type":"Feature","properties":{"@id":"way/130906786","bridge":"yes","electrified":"no","gauge":"1435","layer":"1","maxspeed":"75 mph","name":"Highland Main Line","operator":"Network Rail","passenger_lines":"1","railway":"rail","railway:traffic_mode":"mixed","ref":"HGL2","source":"GPS","start_date":"1897-07-08","usage":"main"},"geometry":{"coordinates":[[-3.831155,57.2809466],[-3.8319732,57.2813592]],"type":"LineString"}},{"id":"way/130906787","type":"Feature","properties":{"@id":"way/130906787","electrified":"no","gauge":"1435","maxspeed":"75 mph","name":"Highland Main Line","operator":"Network Rail","passenger_lines":"1","railway":"rail","railway:traffic_mode":"mixed","ref":"HGL2","source":"GPS","start_date":"1897-07-08","usage":"main"},"geometry":{"coordinates":[[-3.8319732,57.2813592],[-3.8336298,57.2821322],[-3.8353425,57.2831255]],"type":"LineString"}},{"id":"way/131190086","type":"Feature","properties":{"@id":"way/131190086","electrified":"no","gauge":"1435","maxspeed":"50 mph","name":"Highland Main Line","operator":"Network Rail","passenger_lines":"1","railway":"rail","railway:traffic_mode":"mixed","ref":"HGL2","source":"GPS","start_date":"1897-07-08","usage":"main"},"geometry":{"coordinates":[[-3.927159,57.2991237],[-3.9272186,57.2994826],[-3.9274867,57.3003983],[-3.9277003,57.3009103],[-3.9280972,57.3015015],[-3.9286337,57.3021274],[-3.929095,57.3026027],[-3.9297387,57.3031301],[-3.9305971,57.3037154],[-3.9315893,57.3042246]],"type":"LineString"}},{"id":"way/131190087","type":"Feature","properties":{"@id":"way/131190087","electrified":"no","gauge":"1435","maxspeed":"65 mph","name":"Highland Main Line","operator":"Network Rail","passenger_lines":"1","railway":"rail","railway:traffic_mode":"mixed","ref":"HGL2","source":"GPS","start_date":"1897-07-08","usage":"main"},"geometry":{"coordinates":[[-3.9165957,57.290115],[-3.9177583,57.290285],[-3.9185057,57.2904122],[-3.9194391,57.2906325],[-3.9203081,57.2908818],[-3.9212093,57.2911833],[-3.9221535,57.2915717],[-3.9228508,57.291908],[-3.9237628,57.2924471],[-3.9244494,57.2928993],[-3.9249966,57.2933515],[-3.9255545,57.2939312],[-3.926048,57.2944935],[-3.9263806,57.2949863],[-3.9266488,57.2955196],[-3.9267942,57.2958501],[-3.9268982,57.2961906],[-3.9269927,57.2966066],[-3.9270265,57.2970475]],"type":"LineString"}},{"id":"way/131190088","type":"Feature","properties":{"@id":"way/131190088","bridge":"yes","electrified":"no","gauge":"1435","layer":"1","maxspeed":"65 mph","name":"Highland Main Line","operator":"Network Rail","passenger_lines":"1","railway":"rail","railway:traffic_mode":"mixed","ref":"HGL2","source":"GPS","start_date":"1897-07-08","usage":"main"},"geometry":{"coordinates":[[-3.9270265,57.2970475],[-3.9270348,57.2971552]],"type":"LineString"}},{"id":"way/131190089","type":"Feature","properties":{"@id":"way/131190089","bridge":"viaduct","bridge:name":"Tomatin Viaduct","electrified":"no","gauge":"1435","layer":"1","maxspeed":"60 mph","name":"Highland Main Line","operator":"Network Rail","passenger_lines":"1","railway":"rail","railway:traffic_mode":"mixed","ref":"HGL2","source":"GPS","start_date":"1897-07-08","usage":"main","wikidata":"Q17828125"},"geometry":{"coordinates":[[-3.9900389,57.3361384],[-3.992589,57.3366537]],"type":"LineString"}},{"id":"way/131190090","type":"Feature","properties":{"@id":"way/131190090","bridge":"yes","electrified":"no","gauge":"1435","layer":"1","maxspeed":"75 mph","name":"Highland Main Line","operator":"Network Rail","passenger_lines":"1","railway":"rail","railway:traffic_mode":"mixed","ref":"HGL2","source":"GPS","start_date":"1897-07-08","usage":"main"},"geometry":{"coordinates":[[-3.8403161,57.2867716],[-3.8405321,57.2869441]],"type":"LineString"}},{"id":"way/131190091","type":"Feature","properties":{"@id":"way/131190091","bridge":"yes","electrified":"no","gauge":"1435","layer":"1","maxspeed":"60 mph","name":"Highland Main Line","operator":"Network Rail","passenger_lines":"1","railway":"rail","railway:traffic_mode":"mixed","ref":"HGL2","source":"GPS","start_date":"1897-07-08","usage":"main"},"geometry":{"coordinates":[[-3.9770718,57.3224565],[-3.9771709,57.322552]],"type":"LineString"}},{"id":"way/131190092","type":"Feature","properties":{"@id":"way/131190092","bridge":"yes","electrified":"no","gauge":"1435","layer":"1","maxspeed":"75 mph","name":"Highland Main Line","operator":"Network Rail","passenger_lines":"1","railway":"rail","railway:traffic_mode":"mixed","ref":"HGL2","source":"GPS","start_date":"1897-07-08","usage":"main"},"geometry":{"coordinates":[[-3.9315893,57.3042246],[-3.9319666,57.3044052]],"type":"LineString"}},{"id":"way/131190093","type":"Feature","properties":{"@id":"way/131190093","electrified":"no","gauge":"1435","maxspeed":"60 mph","name":"Highland Main Line","operator":"Network Rail","passenger_lines":"1","railway":"rail","railway:traffic_mode":"mixed","ref":"HGL2","source":"GPS","start_date":"1897-07-08","usage":"main"},"geometry":{"coordinates":[[-3.9858985,57.3352675],[-3.9869449,57.3355193],[-3.9900389,57.3361384]],"type":"LineString"}},{"id":"way/131190094","type":"Feature","properties":{"@id":"way/131190094","bridge":"viaduct","electrified":"no","gauge":"1435","layer":"1","maxspeed":"65 mph","name":"Highland Main Line","operator":"Network Rail","passenger_lines":"1","railway":"rail","railway:traffic_mode":"mixed","ref":"HGL2","source":"GPS","start_date":"1897-07-08","usage":"main","wikidata":"Q17827616"},"geometry":{"coordinates":[[-3.914662,57.2899351],[-3.9155623,57.2900006],[-3.9165957,57.290115]],"type":"LineString"}},{"id":"way/131190095","type":"Feature","properties":{"@id":"way/131190095","electrified":"no","gauge":"1435","maxspeed":"75 mph","name":"Highland Main Line","operator":"Network Rail","passenger_lines":"1","railway":"rail","railway:traffic_mode":"mixed","ref":"HGL2","source":"GPS","start_date":"1897-07-08","usage":"main"},"geometry":{"coordinates":[[-3.9397859,57.3081347],[-3.9404575,57.3084531],[-3.9411213,57.308756],[-3.9425812,57.3093193],[-3.9439115,57.3098003],[-3.9451024,57.3101885],[-3.9464865,57.310571],[-3.9479992,57.3109244],[-3.9494369,57.3112547],[-3.9509497,57.3115792],[-3.9519474,57.3117936],[-3.9537284,57.3122108],[-3.9555201,57.3126975],[-3.9568612,57.3130741],[-3.9582238,57.3134681],[-3.9606271,57.3141981],[-3.9616356,57.3145516],[-3.9631591,57.3150846],[-3.9647577,57.3156929],[-3.9660666,57.3161912],[-3.9679227,57.3169791],[-3.9696607,57.3178249],[-3.9721391,57.31914],[-3.973609,57.3200032],[-3.974714,57.3206636],[-3.9754221,57.3211444],[-3.9761088,57.3216368],[-3.9766238,57.322048],[-3.9770718,57.3224565]],"type":"LineString"}},{"id":"way/131190096","type":"Feature","properties":{"@id":"way/131190096","electrified":"no","gauge":"1435","maxspeed":"75 mph","name":"Highland Main Line","operator":"Network Rail","passenger_lines":"1","railway":"rail","railway:traffic_mode":"mixed","ref":"HGL2","source":"GPS","start_date":"1897-07-08","usage":"main"},"geometry":{"coordinates":[[-3.8873115,57.2967953],[-3.8877568,57.2967311],[-3.8890228,57.2965051],[-3.8904068,57.296221],[-3.8916406,57.295908],[-3.8930247,57.2955254],[-3.8947627,57.2949747],[-3.896415,57.2944008],[-3.9010606,57.2928182],[-3.9047191,57.2915659],[-3.9056471,57.291247]],"type":"LineString"}},{"id":"way/131190097","type":"Feature","properties":{"@id":"way/131190097","electrified":"no","gauge":"1435","maxspeed":"75 mph","name":"Highland Main Line","operator":"Network Rail","passenger_lines":"1","railway":"rail","railway:traffic_mode":"mixed","ref":"HGL2","source":"GPS","start_date":"1897-07-08","usage":"main"},"geometry":{"coordinates":[[-3.8355406,57.2832471],[-3.8366446,57.2839473],[-3.8375137,57.2845561],[-3.8389621,57.2856636],[-3.8403161,57.2867716]],"type":"LineString"}},{"id":"way/131192685","type":"Feature","properties":{"@id":"way/131192685","bridge":"viaduct","bridge:name":"Findhorn Viaduct","electrified":"no","gauge":"1435","height":"44'","heritage":"2","heritage:operator":"hs","heritage:website":"http://portal.historicenvironment.scot/designation/LB14893","layer":"1","maxspeed":"60 mph","name":"Highland Main Line","operator":"Network Rail","passenger_lines":"1","railway":"rail","railway:traffic_mode":"mixed","ref":"HGL2","ref:hs":"LB14893","source":"GPS","start_date":"1897-07-08","usage":"main","wikidata":"Q17828120"},"geometry":{"coordinates":[[-3.9808295,57.3328556],[-3.9812399,57.3331629],[-3.9815068,57.3333434],[-3.9818123,57.3335401],[-3.9821956,57.3337726],[-3.9825954,57.3339794],[-3.9829656,57.3341591],[-3.9833994,57.3343822],[-3.9838389,57.33456],[-3.984222,57.3347057],[-3.9845283,57.3348225],[-3.9848997,57.3349571],[-3.9853192,57.3350972],[-3.9858985,57.3352675]],"type":"LineString"}},{"id":"way/131192686","type":"Feature","properties":{"@id":"way/131192686","electrified":"no","gauge":"1435","maxspeed":"60 mph","name":"Highland Main Line","operator":"Network Rail","passenger_lines":"1","railway":"rail","railway:traffic_mode":"mixed","ref":"HGL2","source":"GPS","start_date":"1897-07-08","usage":"main"},"geometry":{"coordinates":[[-3.9786193,57.3288306],[-3.9786301,57.3292998],[-3.9787266,57.3298557],[-3.9789519,57.330487],[-3.9792094,57.3309677],[-3.9794991,57.3314426],[-3.9798531,57.3319116],[-3.9802608,57.332346],[-3.9808295,57.3328556]],"type":"LineString"}},{"id":"way/131307437","type":"Feature","properties":{"@id":"way/131307437","bridge":"yes","electrified":"no","gauge":"1435","layer":"1","maxspeed":"75 mph","name":"Highland Main Line","operator":"Network Rail","passenger_lines":"1","railway":"rail","railway:traffic_mode":"mixed","ref":"HGL2","source":"GPS","start_date":"1897-07-08","usage":"main"},"geometry":{"coordinates":[[-4.0684786,57.3942334],[-4.0685067,57.3943541]],"type":"LineString"}},{"id":"way/131307438","type":"Feature","properties":{"@id":"way/131307438","electrified":"no","gauge":"1435","maxspeed":"75 mph","name":"Highland Main Line","operator":"Network Rail","passenger_lines":"1","railway":"rail","railway:traffic_mode":"mixed","ref":"HGL2","source":"GPS","start_date":"1897-07-08","usage":"main"},"geometry":{"coordinates":[[-4.0665625,57.390162],[-4.0672502,57.3912111],[-4.0677867,57.3921998],[-4.0681407,57.3930901],[-4.0684786,57.3942334]],"type":"LineString"}},{"id":"way/131994438","type":"Feature","properties":{"@id":"way/131994438","electrified":"no","gauge":"1435","layer":"-1","maxspeed":"55 mph","name":"Highland Main Line","operator":"Network Rail","passenger_lines":"1","railway":"rail","railway:traffic_mode":"mixed","ref":"HGL2","source":"GPS","start_date":"1863-06-01","tunnel":"yes","usage":"main"},"geometry":{"coordinates":[[-3.6134926,56.5622916],[-3.6142896,56.5625202]],"type":"LineString"}},{"id":"way/131994440","type":"Feature","properties":{"@id":"way/131994440","electrified":"no","gauge":"1435","maxspeed":"70 mph","name":"Highland Main Line","operator":"Network Rail","passenger_lines":"1","railway":"rail","railway:traffic_mode":"mixed","ref":"HGL2","source":"GPS","start_date":"1863-06-01","usage":"main"},"geometry":{"coordinates":[[-3.6176983,56.5636182],[-3.618397,56.5638461],[-3.6191362,56.5641239],[-3.6194134,56.5642578],[-3.6195397,56.5643212],[-3.6198687,56.5644935],[-3.6202857,56.5647248],[-3.6206638,56.5649673],[-3.6210844,56.5652728],[-3.6215848,56.5657246],[-3.6220032,56.566233],[-3.6223465,56.5667],[-3.622604,56.567167],[-3.6227457,56.5675867],[-3.6228287,56.5680076],[-3.6228265,56.5686183],[-3.6227373,56.569466]],"type":"LineString"}},{"id":"way/136618811","type":"Feature","properties":{"@id":"way/136618811","electrified":"no","gauge":"1435","maxspeed":"80 mph","name":"Highland Main Line","operator":"Network Rail","passenger_lines":"1","railway":"rail","railway:traffic_mode":"mixed","ref":"HGL2","source":"GPS","start_date":"1863-06-01","usage":"main"},"geometry":{"coordinates":[[-3.6226142,56.5745446],[-3.6227971,56.5750398],[-3.6230975,56.5757963],[-3.6237735,56.5772678],[-3.6241275,56.5779769],[-3.6246937,56.5792087],[-3.624854,56.5795579]],"type":"LineString"}},{"id":"way/136618813","type":"Feature","properties":{"@id":"way/136618813","covered":"yes","electrified":"no","gauge":"1435","maxspeed":"80 mph","name":"Highland Main Line","operator":"Network Rail","passenger_lines":"1","railway":"rail","railway:traffic_mode":"mixed","ref":"HGL2","source":"GPS","start_date":"1863-06-01","usage":"main"},"geometry":{"coordinates":[[-3.622435,56.5737763],[-3.6226142,56.5745446]],"type":"LineString"}},{"id":"way/136618814","type":"Feature","properties":{"@id":"way/136618814","bridge":"yes","electrified":"no","gauge":"1435","layer":"1","maxspeed":"55 mph","name":"Highland Main Line","operator":"Network Rail","passenger_lines":"1","railway":"rail","railway:traffic_mode":"mixed","ref":"HGL2","source":"GPS","start_date":"1863-06-01","usage":"main"},"geometry":{"coordinates":[[-3.6084052,56.5607012],[-3.6086106,56.5607698]],"type":"LineString"}},{"id":"way/136720742","type":"Feature","properties":{"@id":"way/136720742","electrified":"no","gauge":"1435","maxspeed":"65 mph","name":"Highland Main Line","operator":"Network Rail","passenger_lines":"1","railway":"rail","railway:traffic_mode":"mixed","ref":"HGL2","source":"GPS","start_date":"1863-09-09","usage":"main"},"geometry":{"coordinates":[[-3.8443697,56.7646889],[-3.8450423,56.7648322],[-3.8456558,56.7649439]],"type":"LineString"}},{"id":"way/136720743","type":"Feature","properties":{"@id":"way/136720743","bridge":"yes","bridge:name":"Tilt Viaduct","electrified":"no","gauge":"1435","layer":"1","maxspeed":"65 mph","name":"Highland Main Line","operator":"Network Rail","passenger_lines":"1","railway":"rail","railway:traffic_mode":"mixed","ref":"HGL2","source":"GPS","start_date":"1863-09-09","usage":"main","wikidata":"Q17830786"},"geometry":{"coordinates":[[-3.8436328,56.764523],[-3.8443697,56.7646889]],"type":"LineString"}},{"id":"way/137032533","type":"Feature","properties":{"@id":"way/137032533","electrified":"no","gauge":"1435","maxspeed":"75 mph","name":"Highland Main Line","operator":"Network Rail","passenger_lines":"1","railway":"rail","railway:traffic_mode":"mixed","ref":"HGL2","source":"GPS","start_date":"1897-07-08","usage":"main"},"geometry":{"coordinates":[[-4.0073561,57.3405572],[-4.0081044,57.3410316],[-4.0086061,57.3414067]],"type":"LineString"}},{"id":"way/137032537","type":"Feature","properties":{"@id":"way/137032537","bridge":"yes","electrified":"no","gauge":"1435","layer":"1","maxspeed":"75 mph","name":"Highland Main Line","operator":"Network Rail","passenger_lines":"1","railway":"rail","railway:traffic_mode":"mixed","ref":"HGL2","source":"GPS","start_date":"1897-07-08","usage":"main","wikidata":"Q114077297"},"geometry":{"coordinates":[[-4.0086061,57.3414067],[-4.0089282,57.3416697]],"type":"LineString"}},{"id":"way/143769467","type":"Feature","properties":{"@id":"way/143769467","electrified":"no","gauge":"1435","maxspeed":"65 mph","name":"Highland Main Line","operator":"Network Rail","passenger_lines":"1","railway":"rail","railway:traffic_mode":"mixed","ref":"HGL2","source":"GPS","start_date":"1863-09-09","usage":"main"},"geometry":{"coordinates":[[-3.7808299,56.7448325],[-3.782071,56.7452555],[-3.785319,56.7463729],[-3.7894999,56.747766],[-3.7904647,56.7480875],[-3.7942519,56.7493346],[-3.7957433,56.7498229],[-3.7971595,56.7502641],[-3.798801,56.7506817],[-3.8022757,56.7514838]],"type":"LineString"}},{"id":"way/143769468","type":"Feature","properties":{"@id":"way/143769468","bridge":"yes","electrified":"no","gauge":"1435","layer":"1","maxspeed":"75 mph","name":"Highland Main Line","operator":"Network Rail","passenger_lines":"2","railway":"rail","railway:traffic_mode":"mixed","ref":"HGL2","start_date":"1863-09-09","usage":"main"},"geometry":{"coordinates":[[-4.131675,56.8149897],[-4.1322073,56.8152367]],"type":"LineString"}},{"id":"way/143769469","type":"Feature","properties":{"@id":"way/143769469","bridge":"yes","electrified":"no","gauge":"1435","layer":"1","maxspeed":"65 mph","name":"Highland Main Line","operator":"Network Rail","passenger_lines":"1","railway":"rail","railway:traffic_mode":"mixed","ref":"HGL2","source":"GPS","start_date":"1863-09-09","usage":"main"},"geometry":{"coordinates":[[-3.7807109,56.744785],[-3.7808299,56.7448325]],"type":"LineString"}},{"id":"way/143769470","type":"Feature","properties":{"@id":"way/143769470","electrified":"no","gauge":"1435","layer":"1","maxspeed":"80 mph","name":"Highland Main Line","operator":"Network Rail","passenger_lines":"1","railway":"rail","railway:traffic_mode":"mixed","ref":"HGL2","source":"GPS","start_date":"1863-09-09","usage":"main"},"geometry":{"coordinates":[[-4.2429434,56.9388781],[-4.2428671,56.9389425],[-4.2424433,56.93929],[-4.2415984,56.9399477],[-4.2411384,56.9402769],[-4.240673,56.9405974],[-4.2401916,56.9409171],[-4.2396927,56.9412265]],"type":"LineString"}},{"id":"way/143769471","type":"Feature","properties":{"@id":"way/143769471","electrified":"no","gauge":"1435","maxspeed":"75 mph","name":"Highland Main Line","operator":"Network Rail","passenger_lines":"2","railway":"rail","railway:traffic_mode":"mixed","ref":"HGL2","start_date":"1863-09-09","usage":"main"},"geometry":{"coordinates":[[-4.1322073,56.8152367],[-4.1330346,56.8156076],[-4.1339646,56.8159682],[-4.1346558,56.816206],[-4.1353302,56.8164134],[-4.1359355,56.8165852],[-4.1365171,56.8167391],[-4.1371642,56.8168849],[-4.1378046,56.8170081],[-4.1390834,56.8172242],[-4.1401643,56.8173717],[-4.140915,56.8174489],[-4.1414907,56.8174938],[-4.1427859,56.8175718],[-4.1433782,56.8175917],[-4.1439357,56.8175941],[-4.1446683,56.817592],[-4.1454282,56.8175604],[-4.1476695,56.8173979],[-4.148332,56.817365],[-4.1497295,56.8173092],[-4.1511617,56.817289],[-4.1521673,56.8172852],[-4.1533997,56.8173],[-4.1545902,56.8173447],[-4.1555912,56.8173545],[-4.1567402,56.8173278],[-4.157697,56.8172593],[-4.1588899,56.8171365],[-4.1600623,56.8170358],[-4.1610768,56.8169862],[-4.1621302,56.8169803],[-4.1627522,56.8169999],[-4.1633697,56.8170381],[-4.1645712,56.8171293],[-4.1655759,56.8171912],[-4.1661241,56.8172115],[-4.1666692,56.8172148],[-4.1676374,56.8171868],[-4.1686364,56.8171387],[-4.1694298,56.8170929],[-4.1703047,56.8170622],[-4.170911,56.8170638],[-4.1717562,56.8170947],[-4.1726954,56.8171657],[-4.1735236,56.8172641],[-4.1743841,56.8174005],[-4.1753567,56.8175574],[-4.1762921,56.8176898],[-4.1772596,56.8178008],[-4.1793007,56.8179361],[-4.1802797,56.8180073],[-4.1809112,56.818073],[-4.181532,56.818158],[-4.1821203,56.8182481],[-4.1827071,56.818366],[-4.1830137,56.8184317],[-4.1836955,56.8185886],[-4.1846543,56.818862]],"type":"LineString"}},{"id":"way/143769472","type":"Feature","properties":{"@id":"way/143769472","electrified":"no","gauge":"1435","maxspeed":"75 mph","name":"Highland Main Line","operator":"Network Rail","passenger_lines":"2","railway":"rail","railway:traffic_mode":"mixed","ref":"HGL2","start_date":"1863-09-09","usage":"main"},"geometry":{"coordinates":[[-4.2553448,56.8835443],[-4.2553177,56.8836314],[-4.2551999,56.884024],[-4.2550017,56.8849191],[-4.2549256,56.8855761],[-4.2549051,56.8862288],[-4.2548834,56.8867826],[-4.2548421,56.8873682],[-4.2547459,56.8878408],[-4.2546177,56.8883031],[-4.2544515,56.8887393],[-4.2542516,56.8891609],[-4.2538975,56.8898278],[-4.2530714,56.891292],[-4.2517468,56.8936718],[-4.2507977,56.8953525],[-4.250234,56.8962724],[-4.2496461,56.8971046],[-4.2491868,56.8976778],[-4.2486678,56.8982391],[-4.2481246,56.8987969],[-4.2462841,56.9007037],[-4.2451486,56.9018869],[-4.2441032,56.9031149],[-4.2433586,56.904054],[-4.2426851,56.9050072],[-4.242209,56.9057208],[-4.2417786,56.9064235],[-4.2413976,56.9071278],[-4.2407469,56.9084745],[-4.2402651,56.9096466],[-4.2398798,56.9107312],[-4.2394429,56.9121993],[-4.2390196,56.9137006]],"type":"LineString"}},{"id":"way/149801294","type":"Feature","properties":{"@id":"way/149801294","electrified":"no","gauge":"1435","maxspeed":"75 mph","name":"Highland Main Line","operator":"Network Rail","passenger_lines":"1","railway":"rail","railway:traffic_mode":"mixed","ref":"HGL2","source":"GPS","start_date":"1863-09-09","usage":"main"},"geometry":{"coordinates":[[-4.0596745,57.0768029],[-4.0583036,57.0770037],[-4.0579208,57.0770597],[-4.0564863,57.0772699],[-4.053274,57.0777625],[-4.0521984,57.0779489],[-4.0518726,57.0780165]],"type":"LineString"}},{"id":"way/149801304","type":"Feature","properties":{"@id":"way/149801304","electrified":"no","gauge":"1435","maxspeed":"75 mph","name":"Highland Main Line","operator":"Network Rail","passenger_lines":"1","railway":"rail","railway:traffic_mode":"mixed","ref":"HGL2","source":"GPS","start_date":"1863-09-09","usage":"main"},"geometry":{"coordinates":[[-4.0516556,57.0780629],[-4.0510824,57.0781855],[-4.0504158,57.0783363],[-4.0498459,57.0784757],[-4.0494319,57.0785821]],"type":"LineString"}},{"id":"way/149801306","type":"Feature","properties":{"@id":"way/149801306","electrified":"no","gauge":"1435","maxspeed":"100 mph","name":"Highland Main Line","operator":"Network Rail","passenger_lines":"1","railway":"rail","railway:traffic_mode":"mixed","ref":"HGL2","source":"GPS","start_date":"1863-09-09","usage":"main"},"geometry":{"coordinates":[[-3.9993037,57.093175],[-3.9987757,57.093371],[-3.9975285,57.0938664],[-3.9957063,57.0946255],[-3.9943528,57.0951894],[-3.9889722,57.0974392],[-3.9854854,57.0989252],[-3.9832913,57.0998547],[-3.9816122,57.1005482],[-3.9798366,57.1013291],[-3.9773529,57.1023577],[-3.9768369,57.1025661],[-3.9750516,57.1033337],[-3.9728575,57.1042428],[-3.970744,57.1051488],[-3.9706905,57.1051715],[-3.9686518,57.1060374],[-3.9608465,57.1092972],[-3.9550193,57.1117727],[-3.9512062,57.1133817],[-3.9498777,57.1139352]],"type":"LineString"}},{"id":"way/149801308","type":"Feature","properties":{"@id":"way/149801308","electrified":"no","gauge":"1435","maxspeed":"75 mph","name":"Highland Main Line","operator":"Network Rail","passenger_lines":"1","railway":"rail","railway:traffic_mode":"mixed","ref":"HGL2","start_date":"1863-09-09","usage":"main"},"geometry":{"coordinates":[[-3.9310237,57.1267089],[-3.9307757,57.1270328],[-3.9303314,57.1276131],[-3.9300384,57.1279811],[-3.9297411,57.1283109],[-3.9294388,57.1286385],[-3.929151,57.1289314],[-3.9287615,57.1293117],[-3.9283441,57.1296617],[-3.928028,57.1299191],[-3.9277225,57.1301619],[-3.9275032,57.1303233],[-3.9272265,57.1305093]],"type":"LineString"}},{"id":"way/150691054","type":"Feature","properties":{"@id":"way/150691054","electrified":"no","gauge":"1435","maxspeed":"75 mph","name":"Highland Main Line","operator":"Network Rail","passenger_lines":"2","railway":"rail","railway:traffic_mode":"mixed","ref":"HGL2","start_date":"1863-09-09","usage":"main"},"geometry":{"coordinates":[[-3.8534728,56.7656473],[-3.8558286,56.765968],[-3.8565456,56.7660656],[-3.8592278,56.7664347],[-3.860372,56.7665957],[-3.8615243,56.7667402],[-3.8630787,56.766891],[-3.8640775,56.7669502],[-3.8650872,56.7669916],[-3.8678365,56.7671081],[-3.8692811,56.767172],[-3.8698746,56.7672103],[-3.8704574,56.767267],[-3.8716921,56.7674028],[-3.871958,56.767432],[-3.8916563,56.769794]],"type":"LineString"}},{"id":"way/150691055","type":"Feature","properties":{"@id":"way/150691055","electrified":"no","gauge":"1435","maxspeed":"40 mph","name":"Highland Main Line","operator":"Network Rail","passenger_lines":"1","railway":"rail","railway:track_ref":"1","railway:traffic_mode":"mixed","ref":"HGL2","source":"GPS","start_date":"1863-09-09","usage":"main"},"geometry":{"coordinates":[[-3.7377431,56.70285],[-3.7386061,56.7031175],[-3.7396548,56.7035169]],"type":"LineString"}},{"id":"way/150691056","type":"Feature","properties":{"@id":"way/150691056","bridge":"yes","electrified":"no","gauge":"1435","layer":"1","maxspeed":"65 mph","name":"Highland Main Line","operator":"Network Rail","passenger_lines":"2","railway":"rail","railway:traffic_mode":"mixed","ref":"HGL2","start_date":"1863-09-09","usage":"main"},"geometry":{"coordinates":[[-3.8469368,56.7651008],[-3.8470365,56.7651093]],"type":"LineString"}},{"id":"way/150691057","type":"Feature","properties":{"@id":"way/150691057","bridge":"yes","electrified":"no","gauge":"1435","layer":"1","maxspeed":"75 mph","name":"Highland Main Line","operator":"Network Rail","passenger_lines":"2","railway":"rail","railway:traffic_mode":"mixed","ref":"HGL2","start_date":"1863-09-09","usage":"main"},"geometry":{"coordinates":[[-3.8532729,56.7656199],[-3.8534728,56.7656473]],"type":"LineString"}},{"id":"way/150691061","type":"Feature","properties":{"@id":"way/150691061","electrified":"no","gauge":"1435","maxspeed":"70 mph","name":"Highland Main Line","operator":"Network Rail","passenger_lines":"1","railway":"rail","railway:traffic_mode":"mixed","ref":"HGL2","source":"GPS","start_date":"1863-06-01","usage":"main"},"geometry":{"coordinates":[[-3.5816614,56.5580945],[-3.5819309,56.5581908],[-3.5827475,56.5584608],[-3.5837941,56.5587795],[-3.5847312,56.5590324],[-3.5854179,56.559192],[-3.585973,56.5593069]],"type":"LineString"}},{"id":"way/150691062","type":"Feature","properties":{"@id":"way/150691062","electrified":"no","gauge":"1435","maxspeed":"75 mph","name":"Highland Main Line","operator":"Network Rail","passenger_lines":"2","railway":"rail","railway:traffic_mode":"mixed","ref":"HGL2","start_date":"1863-09-09","usage":"main"},"geometry":{"coordinates":[[-3.8470365,56.7651093],[-3.8476975,56.7651551],[-3.8482973,56.7651958],[-3.8506851,56.765357],[-3.8518516,56.7654469],[-3.8528314,56.7655665],[-3.8532729,56.7656199]],"type":"LineString"}},{"id":"way/150904536","type":"Feature","properties":{"@id":"way/150904536","electrified":"no","gauge":"1435","maxspeed":"60 mph","name":"Highland Main Line","operator":"Network Rail","passenger_lines":"1","railway":"rail","railway:traffic_mode":"mixed","ref":"HGL2","source":"GPS","start_date":"1897-07-08","usage":"main"},"geometry":{"coordinates":[[-3.9945167,57.3370505],[-3.9958367,57.3373068],[-3.9970802,57.3375495]],"type":"LineString"}},{"id":"way/150904538","type":"Feature","properties":{"@id":"way/150904538","electrified":"no","gauge":"1435","maxspeed":"75 mph","name":"Highland Main Line","operator":"Network Rail","passenger_lines":"1","railway":"rail","railway:traffic_mode":"mixed","ref":"HGL2","source":"GPS","start_date":"1897-07-08","usage":"main"},"geometry":{"coordinates":[[-3.9319666,57.3044052],[-3.9322021,57.3045322],[-3.9332492,57.3050308],[-3.9344327,57.3055927],[-3.935612,57.3061528],[-3.9366901,57.3066639],[-3.9377771,57.3071834],[-3.9386423,57.3075947],[-3.939506,57.308009],[-3.9397859,57.3081347]],"type":"LineString"}},{"id":"way/150904547","type":"Feature","properties":{"@id":"way/150904547","electrified":"no","gauge":"1435","maxspeed":"80 mph","name":"Highland Main Line","operator":"Network Rail","passenger_lines":"1","railway":"rail","railway:traffic_mode":"mixed","ref":"HGL2","source":"GPS","start_date":"1897-07-08","usage":"main"},"geometry":{"coordinates":[[-3.8057575,57.2469192],[-3.8057318,57.2474048],[-3.8057425,57.2482232],[-3.8057747,57.2489255],[-3.8058605,57.2496452],[-3.8059893,57.2503185],[-3.8061073,57.2508582],[-3.8062575,57.2513864],[-3.8071158,57.2537949],[-3.8078239,57.2557912],[-3.808532,57.2576946],[-3.8087037,57.2582691],[-3.8094011,57.2602187],[-3.8101628,57.2623772],[-3.8109589,57.2645634],[-3.8114524,57.2658525],[-3.8117914,57.2667041],[-3.8120811,57.2673086],[-3.8125339,57.2681208],[-3.813124,57.2690374],[-3.8135639,57.2696233],[-3.8141325,57.2703136],[-3.8145724,57.2708298],[-3.8151088,57.2714099],[-3.815774,57.272055],[-3.8163941,57.2726187],[-3.816907,57.2730653],[-3.817658,57.2736547],[-3.8184584,57.2742185],[-3.8191708,57.274708],[-3.8197908,57.2751337],[-3.8205698,57.2756093],[-3.8212672,57.2760211],[-3.8220513,57.2764866]],"type":"LineString"}},{"id":"way/150904565","type":"Feature","properties":{"@id":"way/150904565","electrified":"no","gauge":"1435","maxspeed":"60 mph","name":"Highland Main Line","operator":"Network Rail","passenger_lines":"1","railway":"rail","railway:traffic_mode":"mixed","ref":"HGL2","source":"GPS","start_date":"1897-07-08","usage":"main"},"geometry":{"coordinates":[[-3.9970802,57.3375495],[-3.9978891,57.3377045],[-3.9986908,57.337864],[-4.0015871,57.3384404],[-4.0026817,57.3386789],[-4.003284,57.3388315],[-4.0038428,57.3389935],[-4.0043731,57.3391638],[-4.004905,57.3393467],[-4.0058062,57.3397115],[-4.0065465,57.340077]],"type":"LineString"}},{"id":"way/152264935","type":"Feature","properties":{"@id":"way/152264935","bridge":"yes","electrified":"no","gauge":"1435","layer":"1","maxspeed":"100 mph","name":"Highland Main Line","operator":"Network Rail","passenger_lines":"1","railway":"rail","railway:traffic_mode":"mixed","ref":"HGL2","source":"GPS","start_date":"1863-09-09","usage":"main"},"geometry":{"coordinates":[[-3.9993918,57.0931434],[-3.9993037,57.093175]],"type":"LineString"}},{"id":"way/152264938","type":"Feature","properties":{"@id":"way/152264938","electrified":"no","gauge":"1435","maxspeed":"80 mph","name":"Highland Main Line","operator":"Network Rail","passenger_lines":"1","railway":"rail","railway:traffic_mode":"mixed","ref":"HGL2","source":"GPS","start_date":"1863-09-09","usage":"main"},"geometry":{"coordinates":[[-4.0441116,57.0800965],[-4.0395935,57.0813955],[-4.0321183,57.0835247],[-4.0268456,57.0850454],[-4.0256138,57.0853775],[-4.0232515,57.0860562]],"type":"LineString"}},{"id":"way/173078376","type":"Feature","properties":{"@id":"way/173078376","electrified":"no","gauge":"1435","maxspeed":"55 mph","name":"Highland Main Line","operator":"Network Rail","passenger_lines":"2","railway":"rail","railway:traffic_mode":"mixed","ref":"HGL2","usage":"main"},"geometry":{"coordinates":[[-4.2004271,57.4834514],[-4.2010897,57.4833735],[-4.2018701,57.4832596],[-4.2029565,57.4830894],[-4.2035546,57.4829986],[-4.2042251,57.4828977],[-4.2046604,57.4828473]],"type":"LineString"}},{"id":"way/173078377","type":"Feature","properties":{"@id":"way/173078377","electrified":"no","gauge":"1435","maxspeed":"55 mph","name":"Highland Main Line","operator":"Network Rail","passenger_lines":"2","railway":"rail","railway:traffic_mode":"mixed","ref":"HGL2","usage":"main"},"geometry":{"coordinates":[[-4.1981312,57.4835552],[-4.199019,57.4835422],[-4.1997163,57.4835076],[-4.2000436,57.483486]],"type":"LineString"}},{"id":"way/173078379","type":"Feature","properties":{"@id":"way/173078379","electrified":"no","gauge":"1435","maxspeed":"55 mph","name":"Highland Main Line","operator":"Network Rail","passenger_lines":"2","railway":"rail","railway:traffic_mode":"mixed","ref":"HGL2","usage":"main"},"geometry":{"coordinates":[[-4.1941534,57.4832409],[-4.1947087,57.4833288],[-4.1952639,57.4834009],[-4.1956474,57.4834442]],"type":"LineString"}},{"id":"way/173078380","type":"Feature","properties":{"@id":"way/173078380","electrified":"no","gauge":"1435","maxspeed":"80 mph","name":"Highland Main Line","operator":"Network Rail","passenger_lines":"2","railway":"rail","railway:traffic_mode":"mixed","ref":"HGL2","usage":"main"},"geometry":{"coordinates":[[-4.0734245,57.4903699],[-4.0739422,57.4905818],[-4.0744438,57.4907764],[-4.0752297,57.4910647],[-4.0761765,57.4913689],[-4.0765474,57.4914784],[-4.0772636,57.4916759],[-4.077877,57.4918287],[-4.0784161,57.4919628],[-4.0791036,57.4921026],[-4.080104,57.4922914],[-4.0807692,57.4923995],[-4.0813451,57.4924889],[-4.0821184,57.4925869],[-4.0827085,57.4926576],[-4.0835453,57.4927325],[-4.0842883,57.4927902]],"type":"LineString"}},{"id":"way/173078383","type":"Feature","properties":{"@id":"way/173078383","electrified":"no","gauge":"1435","maxspeed":"55 mph","name":"Highland Main Line","operator":"Network Rail","passenger_lines":"2","railway":"rail","railway:traffic_mode":"mixed","ref":"HGL2","usage":"main"},"geometry":{"coordinates":[[-4.1901382,57.4821249],[-4.1907148,57.4823513]],"type":"LineString"}},{"id":"way/173078385","type":"Feature","properties":{"@id":"way/173078385","electrified":"no","gauge":"1435","maxspeed":"55 mph","name":"Highland Main Line","operator":"Network Rail","passenger_lines":"2","railway":"rail","railway:traffic_mode":"mixed","ref":"HGL2","usage":"main"},"geometry":{"coordinates":[[-4.1907148,57.4823513],[-4.1912862,57.4825445],[-4.1919487,57.4827391],[-4.1923161,57.4828415],[-4.1928606,57.4829712],[-4.1935768,57.4831327]],"type":"LineString"}},{"id":"way/173078388","type":"Feature","properties":{"@id":"way/173078388","bridge":"yes","electrified":"no","gauge":"1435","layer":"1","maxspeed":"55 mph","name":"Highland Main Line","operator":"Network Rail","passenger_lines":"2","railway":"rail","railway:traffic_mode":"mixed","ref":"HGL2","usage":"main"},"geometry":{"coordinates":[[-4.1935768,57.4831327],[-4.1941534,57.4832409]],"type":"LineString"}},{"id":"way/173078392","type":"Feature","properties":{"@id":"way/173078392","electrified":"no","gauge":"1435","layer":"-1","maxspeed":"55 mph","name":"Highland Main Line","operator":"Network Rail","passenger_lines":"2","railway":"rail","railway:traffic_mode":"mixed","ref":"HGL2","tunnel":"yes","usage":"main"},"geometry":{"coordinates":[[-4.1956474,57.4834442],[-4.1968759,57.4835436],[-4.1981312,57.4835552]],"type":"LineString"}},{"id":"way/173078393","type":"Feature","properties":{"@id":"way/173078393","bridge":"yes","electrified":"no","gauge":"1435","layer":"1","maxspeed":"55 mph","name":"Highland Main Line","operator":"Network Rail","passenger_lines":"2","railway":"rail","railway:traffic_mode":"mixed","ref":"HGL2","usage":"main"},"geometry":{"coordinates":[[-4.2000436,57.483486],[-4.2004271,57.4834514]],"type":"LineString"}},{"id":"way/173080284","type":"Feature","properties":{"@id":"way/173080284","electrified":"no","gauge":"1435","maxspeed":"80 mph","name":"Highland Main Line","operator":"Network Rail","passenger_lines":"2","railway":"rail","railway:traffic_mode":"mixed","ref":"HGL2","usage":"main"},"geometry":{"coordinates":[[-4.1075771,57.4910557],[-4.1079902,57.4909696],[-4.1089423,57.4907707],[-4.1099267,57.4905458],[-4.1105141,57.4904074],[-4.1113563,57.4901926],[-4.1123648,57.4899245],[-4.1135504,57.4895886],[-4.1150041,57.4891619],[-4.1156425,57.4889803],[-4.1166269,57.4886862],[-4.1174744,57.4884339],[-4.1184669,57.4881355],[-4.1192769,57.4878947],[-4.1203176,57.4875862],[-4.1209801,57.4873844],[-4.121876,57.4871134],[-4.1242524,57.4863839],[-4.1253655,57.4860422],[-4.1258349,57.4858879],[-4.1263832,57.4857148]],"type":"LineString"}},{"id":"way/173080285","type":"Feature","properties":{"@id":"way/173080285","bridge":"yes","bridge:ref":"HGL2/323","electrified":"no","gauge":"1435","layer":"1","maxspeed":"80 mph","name":"Highland Main Line","operator":"Network Rail","passenger_lines":"2","railway":"rail","railway:traffic_mode":"mixed","ref":"HGL2","usage":"main"},"geometry":{"coordinates":[[-4.0842883,57.4927902],[-4.0845369,57.4928031]],"type":"LineString"}},{"id":"way/173080286","type":"Feature","properties":{"@id":"way/173080286","electrified":"no","gauge":"1435","maxspeed":"80 mph","name":"Highland Main Line","operator":"Network Rail","passenger_lines":"2","railway":"rail","railway:traffic_mode":"mixed","ref":"HGL2","usage":"main"},"geometry":{"coordinates":[[-4.0845369,57.4928031],[-4.0851466,57.4928349],[-4.0859156,57.4928666],[-4.0868203,57.4928781],[-4.087633,57.4928738],[-4.0889875,57.4928565],[-4.0902991,57.4928291],[-4.0917958,57.4927858],[-4.0930511,57.492734],[-4.0949286,57.4926374],[-4.0961115,57.492561],[-4.0971353,57.4924889],[-4.0978085,57.4924356],[-4.0987741,57.4923477],[-4.0994339,57.4922828],[-4.1001401,57.4922035],[-4.1007589,57.4921343],[-4.1013713,57.4920622],[-4.1021081,57.4919642],[-4.102817,57.4918676],[-4.1040259,57.4916875],[-4.1051604,57.4915044],[-4.1061,57.4913372],[-4.1071951,57.491135]],"type":"LineString"}},{"id":"way/173080288","type":"Feature","properties":{"@id":"way/173080288","bridge":"yes","electrified":"no","gauge":"1435","layer":"1","maxspeed":"80 mph","name":"Highland Main Line","operator":"Network Rail","passenger_lines":"2","railway":"rail","railway:traffic_mode":"mixed","ref":"HGL2","usage":"main"},"geometry":{"coordinates":[[-4.1263832,57.4857148],[-4.1265828,57.4856503]],"type":"LineString"}},{"id":"way/173080291","type":"Feature","properties":{"@id":"way/173080291","bridge":"yes","electrified":"no","gauge":"1435","layer":"1","maxspeed":"80 mph","name":"Highland Main Line","operator":"Network Rail","passenger_lines":"2","railway":"rail","railway:traffic_mode":"mixed","ref":"HGL2","usage":"main"},"geometry":{"coordinates":[[-4.162218,57.4759825],[-4.1624588,57.4759812]],"type":"LineString"}},{"id":"way/173080294","type":"Feature","properties":{"@id":"way/173080294","bridge":"yes","electrified":"no","gauge":"1435","layer":"1","maxspeed":"80 mph","name":"Highland Main Line","operator":"Network Rail","passenger_lines":"2","railway":"rail","railway:traffic_mode":"mixed","ref":"HGL2","usage":"main"},"geometry":{"coordinates":[[-4.1325124,57.4834416],[-4.1326155,57.4833966]],"type":"LineString"}},{"id":"way/173080295","type":"Feature","properties":{"@id":"way/173080295","bridge":"yes","electrified":"no","gauge":"1435","height":"3.4","layer":"1","maxspeed":"80 mph","name":"Highland Main Line","operator":"Network Rail","passenger_lines":"2","railway":"rail","railway:traffic_mode":"mixed","ref":"HGL2","usage":"main"},"geometry":{"coordinates":[[-4.1071951,57.491135],[-4.1075771,57.4910557]],"type":"LineString"}},{"id":"way/173080296","type":"Feature","properties":{"@id":"way/173080296","electrified":"no","gauge":"1435","maxspeed":"80 mph","name":"Highland Main Line","operator":"Network Rail","passenger_lines":"2","railway":"rail","railway:traffic_mode":"mixed","ref":"HGL2","usage":"main"},"geometry":{"coordinates":[[-4.1265828,57.4856503],[-4.1269266,57.4855405],[-4.1274979,57.4853574],[-4.1281738,57.4851339],[-4.1288953,57.4848859],[-4.1294559,57.4846783],[-4.1299467,57.4844967],[-4.130577,57.4842559],[-4.1318269,57.4837412],[-4.1325124,57.4834416]],"type":"LineString"}},{"id":"way/173080297","type":"Feature","properties":{"@id":"way/173080297","electrified":"no","gauge":"1435","maxspeed":"80 mph","name":"Highland Main Line","operator":"Network Rail","passenger_lines":"2","railway":"rail","railway:traffic_mode":"mixed","ref":"HGL2","usage":"main"},"geometry":{"coordinates":[[-4.1624588,57.4759812],[-4.1638659,57.4759792],[-4.164963,57.4760008],[-4.1662316,57.4760397],[-4.1677417,57.4761147],[-4.1686242,57.4761739],[-4.1694878,57.4762402],[-4.1706063,57.4763411],[-4.1715236,57.4764334],[-4.1731517,57.4766281],[-4.1747879,57.4768632],[-4.1762095,57.4771083],[-4.1778268,57.47744],[-4.1789762,57.4777147],[-4.1796997,57.4779073],[-4.1803347,57.4780846],[-4.1815055,57.478448],[-4.1821787,57.4786786],[-4.1826502,57.4788446],[-4.1831054,57.4790161],[-4.1835822,57.4792051],[-4.1840468,57.4793939],[-4.1843949,57.4795418],[-4.1847416,57.4796938],[-4.1856106,57.4800904],[-4.1864072,57.4804566],[-4.1870288,57.4807378]],"type":"LineString"}},{"id":"way/173080298","type":"Feature","properties":{"@id":"way/173080298","electrified":"no","gauge":"1435","maxspeed":"80 mph","name":"Highland Main Line","operator":"Network Rail","passenger_lines":"2","railway":"rail","railway:traffic_mode":"mixed","ref":"HGL2","usage":"main"},"geometry":{"coordinates":[[-4.1326155,57.4833966],[-4.1335006,57.4829467],[-4.1341712,57.4826079],[-4.1345708,57.4824133],[-4.1364028,57.4815193],[-4.1372316,57.4811343],[-4.1388007,57.4804523],[-4.1399433,57.4800211],[-4.141263,57.4795641],[-4.142073,57.4792959],[-4.1432263,57.478931],[-4.144656,57.4785114],[-4.1452755,57.4783312],[-4.1466569,57.4779793],[-4.1473328,57.4778236],[-4.1483547,57.4775828],[-4.149154,57.4774126],[-4.1499506,57.4772554],[-4.1507365,57.4771054],[-4.1516029,57.476954],[-4.1527723,57.4767666],[-4.1537916,57.4766195],[-4.1547116,57.4764998],[-4.1560741,57.4763411],[-4.1573857,57.4762171],[-4.1586222,57.4761248],[-4.1599109,57.4760513]],"type":"LineString"}},{"id":"way/173080299","type":"Feature","properties":{"@id":"way/173080299","electrified":"no","gauge":"1435","maxspeed":"80 mph","name":"Highland Main Line","operator":"Network Rail","passenger_lines":"2","railway":"rail","railway:traffic_mode":"mixed","ref":"HGL2","usage":"main"},"geometry":{"coordinates":[[-4.1601867,57.4760399],[-4.1609799,57.4760095],[-4.162218,57.4759825]],"type":"LineString"}},{"id":"way/173080301","type":"Feature","properties":{"@id":"way/173080301","bridge":"yes","electrified":"no","gauge":"1435","layer":"1","maxspeed":"80 mph","name":"Highland Main Line","operator":"Network Rail","passenger_lines":"2","railway":"rail","railway:traffic_mode":"mixed","ref":"HGL2","usage":"main"},"geometry":{"coordinates":[[-4.1599109,57.4760513],[-4.1601867,57.4760399]],"type":"LineString"}},{"id":"way/173349274","type":"Feature","properties":{"@id":"way/173349274","electrified":"no","gauge":"1435","maxspeed":"40 mph","name":"Aviemore Loop","operator":"Network Rail","railway":"rail","railway:track_ref":"2","ref":"HGL2","start_date":"1863-09-09","usage":"main"},"geometry":{"coordinates":[[-3.8299125,57.1847908],[-3.8296836,57.1850705],[-3.8294211,57.1855008],[-3.8292886,57.1857945],[-3.82914,57.1861375],[-3.8290379,57.1864158],[-3.8289673,57.1866395],[-3.8289121,57.1868632],[-3.8288724,57.1871155],[-3.8288547,57.1873774],[-3.8288503,57.1878678],[-3.8288547,57.1882852],[-3.8288238,57.1887432],[-3.8287676,57.189145],[-3.8287113,57.1894548],[-3.828623,57.1897777],[-3.8285391,57.1900252],[-3.8284641,57.1902094],[-3.8283912,57.190378],[-3.8282544,57.1906614],[-3.828133,57.1908953],[-3.8280152,57.1911196],[-3.82793,57.1912737],[-3.8278475,57.1914242],[-3.8276518,57.1917381],[-3.826643,57.1933111],[-3.8261925,57.1940223],[-3.8258935,57.1945201],[-3.8258626,57.1945906]],"type":"LineString"}},{"id":"way/173349933","type":"Feature","properties":{"@id":"way/173349933","electrified":"no","gauge":"1435","maxspeed":"40 mph","name":"Kincraig Loop","railway":"rail","ref":"HGL2","usage":"main"},"geometry":{"coordinates":[[-3.930964,57.1266982],[-3.9302817,57.1276034],[-3.9299721,57.1279728],[-3.9296838,57.1283007],[-3.9293863,57.1286277],[-3.9290995,57.1289217],[-3.9287059,57.1293034],[-3.9282929,57.1296479],[-3.9279851,57.1299082],[-3.9277034,57.1301554],[-3.9274831,57.1303175],[-3.9272265,57.1305093]],"type":"LineString"}},{"id":"way/173349938","type":"Feature","properties":{"@id":"way/173349938","bridge":"yes","electrified":"no","gauge":"1435","layer":"1","maxspeed":"40 mph","name":"Kincraig Loop","railway":"rail","ref":"HGL2","usage":"main"},"geometry":{"coordinates":[[-3.9310366,57.1265987],[-3.930964,57.1266982]],"type":"LineString"}},{"id":"way/173349940","type":"Feature","properties":{"@id":"way/173349940","electrified":"no","gauge":"1435","maxspeed":"40 mph","name":"Kincraig Loop","railway":"rail","ref":"HGL2","usage":"main"},"geometry":{"coordinates":[[-3.9323482,57.1249673],[-3.9317095,57.125796],[-3.9310366,57.1265987]],"type":"LineString"}},{"id":"way/185196036","type":"Feature","properties":{"@id":"way/185196036","bridge":"yes","electrified":"no","gauge":"1435","layer":"1","maxspeed":"75 mph","name":"Highland Main Line","operator":"Network Rail","passenger_lines":"2","railway":"rail","railway:traffic_mode":"mixed","ref":"HGL2","start_date":"1863-09-09","usage":"main"},"geometry":{"coordinates":[[-4.2452303,56.9279766],[-4.2453429,56.9281049]],"type":"LineString"}},{"id":"way/185196037","type":"Feature","properties":{"@id":"way/185196037","electrified":"no","gauge":"1435","maxspeed":"75 mph","name":"Highland Main Line","operator":"Network Rail","passenger_lines":"2","railway":"rail","railway:traffic_mode":"mixed","ref":"HGL2","start_date":"1863-09-09","usage":"main"},"geometry":{"coordinates":[[-4.2388513,56.920599],[-4.2392152,56.9211337],[-4.2395352,56.9216144],[-4.2398968,56.9220933],[-4.2410398,56.9234076],[-4.2452303,56.9279766]],"type":"LineString"}},{"id":"way/200900814","type":"Feature","properties":{"@id":"way/200900814","bridge":"yes","electrified":"no","gauge":"1435","layer":"1","maxspeed":"90 mph","name":"Highland Main Line","operator":"Network Rail","passenger_lines":"1","railway":"rail","railway:traffic_mode":"mixed","ref":"HGL2","source":"GPS","start_date":"1863-09-09","usage":"main"},"geometry":{"coordinates":[[-4.2206318,56.9528252],[-4.2202678,56.9530444]],"type":"LineString"}},{"id":"way/200900815","type":"Feature","properties":{"@id":"way/200900815","electrified":"no","gauge":"1435","maxspeed":"80 mph","name":"Highland Main Line","operator":"Network Rail","passenger_lines":"1","railway":"rail","railway:traffic_mode":"mixed","ref":"HGL2","source":"GPS","start_date":"1863-09-09","usage":"main"},"geometry":{"coordinates":[[-4.2395986,56.9412883],[-4.2387526,56.9418169],[-4.2378795,56.9423436],[-4.2361298,56.9434],[-4.233351,56.9451088],[-4.2307117,56.9467005]],"type":"LineString"}},{"id":"way/201024530","type":"Feature","properties":{"@id":"way/201024530","bridge":"yes","electrified":"no","gauge":"1435","layer":"1","maxspeed":"90 mph","name":"Highland Main Line","operator":"Network Rail","passenger_lines":"1","railway":"rail","railway:traffic_mode":"mixed","ref":"HGL2","source":"GPS","start_date":"1863-09-09","usage":"main"},"geometry":{"coordinates":[[-4.2124104,56.9578117],[-4.2121474,56.9579733]],"type":"LineString"}},{"id":"way/201024533","type":"Feature","properties":{"@id":"way/201024533","electrified":"no","gauge":"1435","maxspeed":"90 mph","name":"Highland Main Line","operator":"Network Rail","passenger_lines":"1","railway":"rail","railway:traffic_mode":"mixed","ref":"HGL2","source":"GPS","start_date":"1863-09-09","usage":"main"},"geometry":{"coordinates":[[-4.2202678,56.9530444],[-4.2182902,56.9542427],[-4.2138698,56.9569244],[-4.2138264,56.9569502],[-4.2137621,56.9569885],[-4.2124104,56.9578117]],"type":"LineString"}},{"id":"way/201571212","type":"Feature","properties":{"@id":"way/201571212","bridge":"yes","electrified":"no","gauge":"1435","layer":"1","maxspeed":"75 mph","name":"Highland Main Line","operator":"Network Rail","passenger_lines":"2","railway":"rail","railway:traffic_mode":"mixed","ref":"HGL2","start_date":"1863-09-09","usage":"main"},"geometry":{"coordinates":[[-4.2553935,56.8833921],[-4.2553448,56.8835443]],"type":"LineString"}},{"id":"way/201571213","type":"Feature","properties":{"@id":"way/201571213","electrified":"no","gauge":"1435","maxspeed":"75 mph","name":"Highland Main Line","operator":"Network Rail","passenger_lines":"2","railway":"rail","railway:traffic_mode":"mixed","ref":"HGL2","start_date":"1863-09-09","usage":"main"},"geometry":{"coordinates":[[-4.2575187,56.8777136],[-4.2573736,56.8785196],[-4.2572441,56.8790754],[-4.2570551,56.8797261],[-4.2567839,56.8804314],[-4.2564724,56.8810981],[-4.255891,56.8822037],[-4.2555424,56.8829607],[-4.2553935,56.8833921]],"type":"LineString"}},{"id":"way/218478675","type":"Feature","properties":{"@id":"way/218478675","electrified":"no","gauge":"1435","maxspeed":"80 mph","name":"Highland Main Line","operator":"Network Rail","passenger_lines":"1","railway":"rail","railway:traffic_mode":"mixed","ref":"HGL2","source":"GPS","start_date":"1863-06-01","usage":"main"},"geometry":{"coordinates":[[-3.6416182,56.6295391],[-3.6420687,56.6299614],[-3.6427635,56.6305936],[-3.643846,56.631459],[-3.6458963,56.6330956],[-3.6497553,56.636143],[-3.6544879,56.639908],[-3.6557911,56.6409199],[-3.6569182,56.6418253],[-3.6593684,56.6437671],[-3.6622792,56.6460659],[-3.6650509,56.6482746],[-3.665908,56.6489572],[-3.6665917,56.649484],[-3.6679374,56.6505406],[-3.669012,56.6514055],[-3.6697985,56.6520713],[-3.6703073,56.6525842]],"type":"LineString"}},{"id":"way/218478710","type":"Feature","properties":{"@id":"way/218478710","bridge":"yes","electrified":"no","gauge":"1435","layer":"1","maxspeed":"80 mph","name":"Highland Main Line","operator":"Network Rail","passenger_lines":"1","railway":"rail","railway:traffic_mode":"mixed","ref":"HGL2","source":"GPS","start_date":"1863-06-01","usage":"main"},"geometry":{"coordinates":[[-3.6414487,56.6293588],[-3.6416182,56.6295391]],"type":"LineString"}},{"id":"way/218481321","type":"Feature","properties":{"@id":"way/218481321","bridge":"yes","electrified":"no","gauge":"1435","layer":"1","maxspeed":"60 mph","name":"Highland Main Line","operator":"Network Rail","passenger_lines":"1","railway":"rail","railway:traffic_mode":"mixed","ref":"HGL2","source":"GPS","start_date":"1863-06-01","usage":"main"},"geometry":{"coordinates":[[-3.7202748,56.6994109],[-3.7205683,56.6994896]],"type":"LineString"}},{"id":"way/218481322","type":"Feature","properties":{"@id":"way/218481322","electrified":"no","gauge":"1435","maxspeed":"60 mph","name":"Highland Main Line","operator":"Network Rail","passenger_lines":"1","railway":"rail","railway:traffic_mode":"mixed","ref":"HGL2","source":"GPS","start_date":"1863-06-01","usage":"main"},"geometry":{"coordinates":[[-3.7205683,56.6994896],[-3.7210625,56.699622],[-3.7222856,56.6999519],[-3.7233692,56.7001992],[-3.7242919,56.7003877]],"type":"LineString"}},{"id":"way/218481328","type":"Feature","properties":{"@id":"way/218481328","bridge":"yes","electrified":"no","gauge":"1435","layer":"1","maxspeed":"60 mph","name":"Highland Main Line","operator":"Network Rail","passenger_lines":"1","railway":"rail","railway:traffic_mode":"mixed","ref":"HGL2","source":"GPS","start_date":"1863-06-01","usage":"main"},"geometry":{"coordinates":[[-3.7156674,56.6974968],[-3.7159827,56.6976752]],"type":"LineString"}},{"id":"way/218481329","type":"Feature","properties":{"@id":"way/218481329","electrified":"no","gauge":"1435","maxspeed":"60 mph","name":"Highland Main Line","operator":"Network Rail","passenger_lines":"1","railway":"rail","railway:traffic_mode":"mixed","ref":"HGL2","source":"GPS","start_date":"1863-06-01","usage":"main"},"geometry":{"coordinates":[[-3.7159827,56.6976752],[-3.716353,56.697851]],"type":"LineString"}},{"id":"way/218481332","type":"Feature","properties":{"@id":"way/218481332","electrified":"no","gauge":"1435","maxspeed":"60 mph","name":"Highland Main Line","operator":"Network Rail","passenger_lines":"1","railway":"rail","railway:traffic_mode":"mixed","ref":"HGL2","source":"GPS","start_date":"1863-06-01","usage":"main"},"geometry":{"coordinates":[[-3.7165713,56.6979546],[-3.7169319,56.6981258],[-3.7178761,56.6985499],[-3.7187236,56.6988739],[-3.719421,56.6991154],[-3.7202748,56.6994109]],"type":"LineString"}},{"id":"way/218481337","type":"Feature","properties":{"@id":"way/218481337","bridge":"yes","electrified":"no","gauge":"1435","layer":"1","maxspeed":"60 mph","name":"Highland Main Line","operator":"Network Rail","passenger_lines":"1","railway":"rail","railway:traffic_mode":"mixed","ref":"HGL2","source":"GPS","start_date":"1863-06-01","usage":"main"},"geometry":{"coordinates":[[-3.716353,56.697851],[-3.7165713,56.6979546]],"type":"LineString"}},{"id":"way/218610458","type":"Feature","properties":{"@id":"way/218610458","electrified":"no","gauge":"1435","maxspeed":"30 mph","name":"Highland Main Line","operator":"Network Rail","passenger_lines":"1","railway":"rail","railway:traffic_mode":"mixed","ref":"HGL2","source":"GPS","start_date":"1863-09-09","usage":"main"},"geometry":{"coordinates":[[-3.7735547,56.7424714],[-3.7738145,56.7425854]],"type":"LineString"}},{"id":"way/218610464","type":"Feature","properties":{"@id":"way/218610464","electrified":"no","gauge":"1435","maxspeed":"65 mph","name":"Highland Main Line","operator":"Network Rail","passenger_lines":"1","railway":"rail","railway:traffic_mode":"mixed","ref":"HGL2","source":"GPS","start_date":"1863-09-09","usage":"main"},"geometry":{"coordinates":[[-3.8025134,56.7515396],[-3.8034144,56.7517876],[-3.80438,56.7521288],[-3.8051954,56.7524876],[-3.8069012,56.7534052],[-3.8075664,56.7537346],[-3.808102,56.7539881],[-3.8088217,56.7543287]],"type":"LineString"}},{"id":"way/218610466","type":"Feature","properties":{"@id":"way/218610466","bridge":"viaduct","bridge:name":"Killiecrankie Viaduct","electrified":"no","gauge":"1435","heritage":"yes","layer":"1","maxspeed":"30 mph","name":"Highland Main Line","operator":"Network Rail","passenger_lines":"1","railway":"rail","railway:traffic_mode":"mixed","ref":"HGL2","source":"GPS","start_date":"1863-09-09","usage":"main","wikidata":"Q17847786"},"geometry":{"coordinates":[[-3.7721796,56.7415094],[-3.7722773,56.7416027],[-3.772368,56.7416857],[-3.7724618,56.7417629],[-3.7725574,56.7418398],[-3.7726566,56.7419192],[-3.7727806,56.7420047],[-3.7728837,56.742074],[-3.7730169,56.7421589],[-3.7731119,56.7422213],[-3.7731959,56.7422691],[-3.7732836,56.7423217],[-3.7733705,56.7423709],[-3.7735547,56.7424714]],"type":"LineString"}},{"id":"way/218610472","type":"Feature","properties":{"@id":"way/218610472","bridge":"yes","electrified":"no","gauge":"1435","layer":"1","maxspeed":"65 mph","name":"Highland Main Line","operator":"Network Rail","passenger_lines":"1","railway":"rail","railway:traffic_mode":"mixed","ref":"HGL2","source":"GPS","start_date":"1863-09-09","usage":"main"},"geometry":{"coordinates":[[-3.8022757,56.7514838],[-3.8025134,56.7515396]],"type":"LineString"}},{"id":"way/227138072","type":"Feature","properties":{"@id":"way/227138072","bridge":"yes","electrified":"no","gauge":"1435","layer":"1","maxspeed":"80 mph","name":"Highland Main Line","operator":"Network Rail","passenger_lines":"1","railway":"rail","railway:traffic_mode":"mixed","ref":"HGL2","source":"GPS","start_date":"1863-06-01","usage":"main"},"geometry":{"coordinates":[[-3.6344191,56.5979292],[-3.6344857,56.5980533]],"type":"LineString"}},{"id":"way/227138073","type":"Feature","properties":{"@id":"way/227138073","electrified":"no","gauge":"1435","maxspeed":"65 mph","name":"Highland Main Line","operator":"Network Rail","passenger_lines":"1","railway":"rail","railway:traffic_mode":"mixed","ref":"HGL2","source":"GPS","start_date":"1863-06-01","usage":"main"},"geometry":{"coordinates":[[-3.6399096,56.6082035],[-3.6401671,56.6089062],[-3.6402637,56.6094022],[-3.6402959,56.6098982],[-3.6402637,56.6103469],[-3.6401456,56.6107412],[-3.639974,56.6111765]],"type":"LineString"}},{"id":"way/239295496","type":"Feature","properties":{"@id":"way/239295496","bridge":"yes","electrified":"no","gauge":"1435","layer":"1","maxspeed":"80 mph","name":"Highland Main Line","operator":"Network Rail","passenger_lines":"1","railway":"rail","railway:traffic_mode":"mixed","ref":"HGL2","source":"GPS","start_date":"1897-07-08","usage":"main"},"geometry":{"coordinates":[[-3.8075315,57.2336912],[-3.8075323,57.2341369]],"type":"LineString"}},{"id":"way/239295497","type":"Feature","properties":{"@id":"way/239295497","electrified":"no","gauge":"1435","maxspeed":"80 mph","name":"Highland Main Line","operator":"Network Rail","passenger_lines":"1","railway":"rail","railway:traffic_mode":"mixed","ref":"HGL2","source":"GPS","start_date":"1897-07-08","usage":"main"},"geometry":{"coordinates":[[-3.8186676,57.2057086],[-3.8171736,57.2079065],[-3.8153679,57.2107185],[-3.8150046,57.2112842],[-3.8141711,57.2125822],[-3.8138857,57.2130265],[-3.8105598,57.2181795],[-3.8098624,57.219318],[-3.8093796,57.2201719],[-3.8088754,57.2211884],[-3.8085857,57.221961],[-3.8082745,57.2227451],[-3.8079849,57.2236744],[-3.8077917,57.2244643],[-3.8076308,57.2252949],[-3.8075405,57.2259991]],"type":"LineString"}},{"id":"way/239990593","type":"Feature","properties":{"@id":"way/239990593","bridge":"yes","electrified":"no","gauge":"1435","layer":"1","maxspeed":"75 mph","name":"Highland Main Line","operator":"Network Rail","passenger_lines":"2","railway":"rail","railway:traffic_mode":"mixed","ref":"HGL2","start_date":"1863-09-09","usage":"main"},"geometry":{"coordinates":[[-4.0725657,56.7997904],[-4.0729844,56.7998758]],"type":"LineString"}},{"id":"way/239990594","type":"Feature","properties":{"@id":"way/239990594","electrified":"no","gauge":"1435","maxspeed":"75 mph","name":"Highland Main Line","operator":"Network Rail","passenger_lines":"2","railway":"rail","railway:traffic_mode":"mixed","ref":"HGL2","start_date":"1863-09-09","usage":"main"},"geometry":{"coordinates":[[-4.0729844,56.7998758],[-4.0744975,56.8002063],[-4.077315,56.8008591],[-4.0775052,56.8009032]],"type":"LineString"}},{"id":"way/245985040","type":"Feature","properties":{"@id":"way/245985040","electrified":"no","gauge":"1435","maxspeed":"75 mph","name":"Highland Main Line","operator":"Network Rail","passenger_lines":"1","railway":"rail","railway:traffic_mode":"mixed","ref":"HGL2","source":"GPS","start_date":"1897-07-08","usage":"main"},"geometry":{"coordinates":[[-4.0089282,57.3416697],[-4.0094969,57.3421779],[-4.0099368,57.3426642],[-4.0102694,57.3431331],[-4.010602,57.3436599],[-4.0108917,57.3442447],[-4.011008,57.3445568],[-4.0110955,57.3448699],[-4.011166,57.3451688],[-4.0112073,57.3454662],[-4.011235,57.3460971],[-4.0112185,57.3463314]],"type":"LineString"}},{"id":"way/245985041","type":"Feature","properties":{"@id":"way/245985041","bridge":"yes","electrified":"no","gauge":"1435","layer":"1","maxspeed":"75 mph","name":"Highland Main Line","operator":"Network Rail","passenger_lines":"1","railway":"rail","railway:traffic_mode":"mixed","ref":"HGL2","source":"GPS","start_date":"1897-07-08","usage":"main"},"geometry":{"coordinates":[[-4.0112185,57.3463314],[-4.0112148,57.3463827]],"type":"LineString"}},{"id":"way/247276715","type":"Feature","properties":{"@id":"way/247276715","electrified":"no","gauge":"1435","layer":"-1","maxspeed":"60 mph","name":"Highland Main Line","operator":"Network Rail","passenger_lines":"1","railway":"rail","railway:traffic_mode":"mixed","ref":"HGL2","source":"GPS","start_date":"1863-09-09","tunnel":"yes","usage":"main"},"geometry":{"coordinates":[[-3.7745741,56.7267121],[-3.7746814,56.7270448]],"type":"LineString"}},{"id":"way/247276716","type":"Feature","properties":{"@id":"way/247276716","electrified":"no","gauge":"1435","maxspeed":"60 mph","name":"Highland Main Line","operator":"Network Rail","passenger_lines":"1","railway":"rail","railway:traffic_mode":"mixed","ref":"HGL2","source":"GPS","start_date":"1863-09-09","usage":"main"},"geometry":{"coordinates":[[-3.773962,56.7317546],[-3.7737954,56.7320179],[-3.7735882,56.7323299],[-3.7727192,56.7335835],[-3.772148,56.7344541],[-3.7718514,56.7350194],[-3.7716473,56.735583],[-3.7715632,56.7359763],[-3.7715349,56.7367103],[-3.7715497,56.7373144],[-3.7716034,56.7379382],[-3.7715819,56.7384443],[-3.7715175,56.7388915],[-3.7714245,56.739259],[-3.7713781,56.7395681],[-3.7713673,56.73998],[-3.77146,56.7403867]],"type":"LineString"}},{"id":"way/247536467","type":"Feature","properties":{"@id":"way/247536467","covered":"yes","electrified":"no","gauge":"1435","maxspeed":"75 mph","name":"Highland Main Line","operator":"Network Rail","passenger_lines":"2","railway":"rail","railway:traffic_mode":"mixed","ref":"HGL2","start_date":"1863-09-09","usage":"main"},"geometry":{"coordinates":[[-3.9445968,56.7685701],[-3.946293,56.7684063]],"type":"LineString"}},{"id":"way/247536468","type":"Feature","properties":{"@id":"way/247536468","electrified":"no","gauge":"1435","maxspeed":"75 mph","name":"Highland Main Line","operator":"Network Rail","passenger_lines":"2","railway":"rail","railway:traffic_mode":"mixed","ref":"HGL2","start_date":"1863-09-09","usage":"main"},"geometry":{"coordinates":[[-3.946293,56.7684063],[-3.9505819,56.7679593]],"type":"LineString"}},{"id":"way/295640798","type":"Feature","properties":{"@id":"way/295640798","bridge":"yes","electrified":"no","gauge":"1435","layer":"1","maxspeed":"75 mph","name":"Highland Main Line","operator":"Network Rail","passenger_lines":"2","railway":"rail","railway:traffic_mode":"mixed","ref":"HGL2","start_date":"1863-09-09","usage":"main"},"geometry":{"coordinates":[[-3.9198435,56.7720419],[-3.9200273,56.7720587]],"type":"LineString"}},{"id":"way/295640804","type":"Feature","properties":{"@id":"way/295640804","electrified":"no","gauge":"1435","maxspeed":"75 mph","name":"Highland Main Line","operator":"Network Rail","passenger_lines":"2","railway":"rail","railway:traffic_mode":"mixed","ref":"HGL2","start_date":"1863-09-09","usage":"main"},"geometry":{"coordinates":[[-3.9200273,56.7720587],[-3.9227062,56.7723241],[-3.9242474,56.7724626],[-3.9251946,56.7725208],[-3.9261336,56.7725341],[-3.9270875,56.772516],[-3.9276405,56.7724878],[-3.9282004,56.7724385],[-3.9291904,56.7723236],[-3.9300409,56.7721782],[-3.9306672,56.7720372],[-3.9310307,56.7719486]],"type":"LineString"}},{"id":"way/320513414","type":"Feature","properties":{"@id":"way/320513414","bridge":"yes","electrified":"no","gauge":"1435","layer":"1","maxspeed":"75 mph","name":"Highland Main Line","operator":"Network Rail","passenger_lines":"2","railway":"rail","railway:traffic_mode":"mixed","ref":"HGL2","start_date":"1863-09-09","usage":"main"},"geometry":{"coordinates":[[-4.2424995,56.8470645],[-4.2426233,56.8472149]],"type":"LineString"}},{"id":"way/320515084","type":"Feature","properties":{"@id":"way/320515084","electrified":"no","gauge":"1435","maxspeed":"75 mph","name":"Highland Main Line","operator":"Network Rail","passenger_lines":"2","railway":"rail","railway:traffic_mode":"mixed","ref":"HGL2","start_date":"1863-09-09","usage":"main"},"geometry":{"coordinates":[[-4.2426233,56.8472149],[-4.2428881,56.8474906],[-4.2435126,56.848049],[-4.2449152,56.8491832],[-4.2454908,56.849699],[-4.2456186,56.849827]],"type":"LineString"}},{"id":"way/320515088","type":"Feature","properties":{"@id":"way/320515088","bridge":"yes","electrified":"no","gauge":"1435","layer":"1","maxspeed":"75 mph","name":"Highland Main Line","operator":"Network Rail","passenger_lines":"2","railway":"rail","railway:traffic_mode":"mixed","ref":"HGL2","start_date":"1863-09-09","usage":"main"},"geometry":{"coordinates":[[-4.2456186,56.849827],[-4.2457136,56.8499314]],"type":"LineString"}},{"id":"way/320515108","type":"Feature","properties":{"@id":"way/320515108","bridge":"yes","electrified":"no","gauge":"1435","layer":"1","maxspeed":"75 mph","name":"Highland Main Line","operator":"Network Rail","passenger_lines":"2","railway":"rail","railway:traffic_mode":"mixed","ref":"HGL2","start_date":"1863-09-09","usage":"main"},"geometry":{"coordinates":[[-4.2469463,56.8517472],[-4.2469903,56.8518499]],"type":"LineString"}},{"id":"way/320515109","type":"Feature","properties":{"@id":"way/320515109","electrified":"no","gauge":"1435","maxspeed":"75 mph","name":"Highland Main Line","operator":"Network Rail","passenger_lines":"2","railway":"rail","railway:traffic_mode":"mixed","ref":"HGL2","start_date":"1863-09-09","usage":"main"},"geometry":{"coordinates":[[-4.2457136,56.8499314],[-4.2460408,56.8502932],[-4.2462507,56.8505543],[-4.2464474,56.8508381],[-4.2469463,56.8517472]],"type":"LineString"}},{"id":"way/361965413","type":"Feature","properties":{"@id":"way/361965413","electrified":"no","gauge":"1435","maxspeed":"65 mph","name":"Highland Main Line","operator":"Network Rail","passenger_lines":"1","railway":"rail","railway:traffic_mode":"mixed","ref":"HGL2","source":"GPS","start_date":"1863-09-09","usage":"main"},"geometry":{"coordinates":[[-3.8382738,57.1751195],[-3.837457,57.1753246],[-3.8370041,57.1754436],[-3.8363948,57.1756037],[-3.8358262,57.1758015],[-3.8352468,57.1760399],[-3.8346353,57.1763423],[-3.8340345,57.1766971],[-3.8337348,57.176919]],"type":"LineString"}},{"id":"way/361965414","type":"Feature","properties":{"@id":"way/361965414","bridge":"yes","electrified":"no","gauge":"1435","layer":"1","maxspeed":"65 mph","name":"Highland Main Line","operator":"Network Rail","passenger_lines":"1","railway":"rail","railway:traffic_mode":"mixed","ref":"HGL2","source":"GPS","start_date":"1863-09-09","usage":"main"},"geometry":{"coordinates":[[-3.8337348,57.176919],[-3.8335743,57.1770404]],"type":"LineString"}},{"id":"way/368597685","type":"Feature","properties":{"@id":"way/368597685","bridge":"yes","electrified":"no","gauge":"1435","layer":"1","maxspeed":"55 mph","name":"Highland Main Line","operator":"Network Rail","passenger_lines":"1","railway":"rail","railway:traffic_mode":"mixed","ref":"HGL2","source":"GPS","start_date":"1856-04-07","usage":"main"},"geometry":{"coordinates":[[-3.5389871,56.5359108],[-3.539075,56.535978]],"type":"LineString"}},{"id":"way/368597695","type":"Feature","properties":{"@id":"way/368597695","electrified":"no","gauge":"1435","maxspeed":"55 mph","name":"Highland Main Line","operator":"Network Rail","passenger_lines":"1","railway":"rail","railway:traffic_mode":"mixed","ref":"HGL2","source":"GPS","start_date":"1856-04-07","usage":"main"},"geometry":{"coordinates":[[-3.539075,56.535978],[-3.5394052,56.5362152],[-3.5402602,56.5367951],[-3.5409349,56.5371868]],"type":"LineString"}},{"id":"way/368611086","type":"Feature","properties":{"@id":"way/368611086","bridge":"yes","electrified":"no","gauge":"1435","layer":"1","maxspeed":"65 mph","name":"Highland Main Line","operator":"Network Rail","passenger_lines":"2","railway":"rail","railway:traffic_mode":"mixed","ref":"HGL2","usage":"main"},"geometry":{"coordinates":[[-3.8469426,56.7650761],[-3.8470407,56.7650845]],"type":"LineString"}},{"id":"way/368713178","type":"Feature","properties":{"@id":"way/368713178","electrified":"no","gauge":"1435","maxspeed":"70 mph","name":"Highland Main Line","operator":"Network Rail","passenger_lines":"2","railway":"rail","railway:traffic_mode":"mixed","ref":"HGL2","start_date":"1863-09-09","usage":"main"},"geometry":{"coordinates":[[-4.2466127,56.9343786],[-4.2465721,56.9344723],[-4.2464418,56.9347139],[-4.2462008,56.9351479],[-4.2459234,56.9356099],[-4.2457448,56.9358946],[-4.24546,56.9362948],[-4.2451295,56.9367183],[-4.2447729,56.9371287],[-4.2444624,56.937459],[-4.244172,56.9377565],[-4.2438894,56.9380335],[-4.2432835,56.9385912]],"type":"LineString"}},{"id":"way/368713181","type":"Feature","properties":{"@id":"way/368713181","electrified":"no","gauge":"1435","maxspeed":"75 mph","name":"Highland Main Line","operator":"Network Rail","passenger_lines":"2","railway":"rail","railway:traffic_mode":"mixed","ref":"HGL2","start_date":"1863-09-09","usage":"main"},"geometry":{"coordinates":[[-4.1848132,56.8189103],[-4.1854902,56.8191455],[-4.1861427,56.819399],[-4.1868802,56.8197412],[-4.1879236,56.8202831],[-4.1890764,56.8208633],[-4.1900656,56.8212881],[-4.1910311,56.8216602],[-4.1919725,56.8219742],[-4.1931621,56.822321],[-4.1942869,56.8225889],[-4.1956772,56.8228621],[-4.196656,56.8230314],[-4.1977774,56.8231984],[-4.2007636,56.8236457],[-4.2015296,56.8237569],[-4.202322,56.8238934],[-4.2031744,56.8240673]],"type":"LineString"}},{"id":"way/368713186","type":"Feature","properties":{"@id":"way/368713186","bridge":"yes","electrified":"no","gauge":"1435","layer":"1","maxspeed":"75 mph","name":"Highland Main Line","operator":"Network Rail","passenger_lines":"2","railway":"rail","railway:traffic_mode":"mixed","ref":"HGL2","start_date":"1863-09-09","usage":"main"},"geometry":{"coordinates":[[-4.0901958,56.8035051],[-4.0906767,56.8035708]],"type":"LineString"}},{"id":"way/368713193","type":"Feature","properties":{"@id":"way/368713193","bridge":"yes","electrified":"no","gauge":"1435","layer":"1","maxspeed":"75 mph","name":"Highland Main Line","operator":"Network Rail","passenger_lines":"2","railway":"rail","railway:traffic_mode":"mixed","ref":"HGL2","usage":"main"},"geometry":{"coordinates":[[-4.2452968,56.9279588],[-4.2454095,56.9280872]],"type":"LineString"}},{"id":"way/368713197","type":"Feature","properties":{"@id":"way/368713197","bridge":"yes","electrified":"no","gauge":"1435","layer":"1","maxspeed":"75 mph","name":"Highland Main Line","operator":"Network Rail","passenger_lines":"2","railway":"rail","railway:traffic_mode":"mixed","ref":"HGL2","start_date":"1863-09-09","usage":"main"},"geometry":{"coordinates":[[-4.2031744,56.8240673],[-4.2033285,56.8241058]],"type":"LineString"}},{"id":"way/368713198","type":"Feature","properties":{"@id":"way/368713198","bridge":"yes","electrified":"no","gauge":"1435","layer":"1","maxspeed":"75 mph","name":"Highland Main Line","operator":"Network Rail","passenger_lines":"2","railway":"rail","railway:traffic_mode":"mixed","ref":"HGL2","start_date":"1863-09-09","usage":"main"},"geometry":{"coordinates":[[-4.2575427,56.877478],[-4.2575187,56.8777136]],"type":"LineString"}},{"id":"way/368713203","type":"Feature","properties":{"@id":"way/368713203","electrified":"no","gauge":"1435","maxspeed":"75 mph","name":"Highland Main Line","operator":"Network Rail","passenger_lines":"2","railway":"rail","railway:traffic_mode":"mixed","ref":"HGL2","start_date":"1863-09-09","usage":"main"},"geometry":{"coordinates":[[-4.2469903,56.8518499],[-4.2471236,56.8521155],[-4.2476678,56.8532127],[-4.2482421,56.8543133],[-4.2484542,56.8546682],[-4.2490853,56.8557239],[-4.2502967,56.8577777],[-4.2515128,56.8597871],[-4.2542029,56.8642951],[-4.255002,56.865678],[-4.2553852,56.8663951],[-4.2555824,56.8668078]],"type":"LineString"}},{"id":"way/368713208","type":"Feature","properties":{"@id":"way/368713208","electrified":"no","gauge":"1435","maxspeed":"75 mph","name":"Highland Main Line","operator":"Network Rail","passenger_lines":"2","railway":"rail","railway:traffic_mode":"mixed","ref":"HGL2","start_date":"1863-09-09","usage":"main"},"geometry":{"coordinates":[[-4.2220082,56.8307],[-4.2223605,56.8308675],[-4.2231417,56.8312725],[-4.2239385,56.8316665],[-4.225503,56.8324617],[-4.22789,56.8337087],[-4.2300966,56.8350535],[-4.2316915,56.8359685],[-4.2333476,56.8369353],[-4.2346631,56.8377153],[-4.2351378,56.8379811],[-4.2355418,56.8382539],[-4.2362786,56.8387898],[-4.236604,56.8390525],[-4.2368715,56.8393018],[-4.2373678,56.8398358],[-4.2379381,56.8405533],[-4.2385313,56.8414219],[-4.2392404,56.8424445],[-4.2403991,56.8440986],[-4.2412274,56.8452595],[-4.2418994,56.846273],[-4.2424995,56.8470645]],"type":"LineString"}},{"id":"way/368713210","type":"Feature","properties":{"@id":"way/368713210","electrified":"no","gauge":"1435","maxspeed":"75 mph","name":"Highland Main Line","operator":"Network Rail","passenger_lines":"2","railway":"rail","railway:traffic_mode":"mixed","ref":"HGL2","start_date":"1863-09-09","usage":"main"},"geometry":{"coordinates":[[-4.1046998,56.8068949],[-4.1053478,56.8071863],[-4.1062658,56.8075528],[-4.106901,56.8077572],[-4.107515,56.807941],[-4.1080375,56.8080859],[-4.1086005,56.8082246],[-4.1096911,56.8084323],[-4.1107915,56.8085919],[-4.1117903,56.8087325],[-4.1126859,56.8088835],[-4.113625,56.8090748],[-4.1142192,56.8092251],[-4.1146043,56.8093368],[-4.1157972,56.8096605],[-4.1165576,56.8098448],[-4.1173037,56.8099954]],"type":"LineString"}},{"id":"way/368713667","type":"Feature","properties":{"@id":"way/368713667","electrified":"no","gauge":"1435","maxspeed":"90 mph","name":"Highland Main Line","operator":"Network Rail","passenger_lines":"1","railway":"rail","railway:traffic_mode":"mixed","ref":"HGL2","source":"GPS","start_date":"1863-09-09","usage":"main"},"geometry":{"coordinates":[[-4.2121474,56.9579733],[-4.2079988,56.9604846],[-4.2034712,56.963222],[-4.2011322,56.9646697],[-4.1996675,56.9655518],[-4.1982543,56.9664009],[-4.1952694,56.9682139],[-4.1950624,56.9683481],[-4.1943766,56.9687926],[-4.1932212,56.9695949],[-4.1914767,56.9708722],[-4.1904926,56.9716573],[-4.1893735,56.9726087],[-4.1885045,56.9733981],[-4.1867986,56.9750822],[-4.1852227,56.976655],[-4.1836314,56.9782435]],"type":"LineString"}},{"id":"way/368713668","type":"Feature","properties":{"@id":"way/368713668","electrified":"no","gauge":"1435","maxspeed":"70 mph","name":"Highland Main Line","operator":"Network Rail","passenger_lines":"1","railway":"rail","railway:traffic_mode":"mixed","ref":"HGL2","source":"GPS","start_date":"1863-09-09","usage":"main"},"geometry":{"coordinates":[[-4.1801189,56.9825206],[-4.1800185,56.9829552],[-4.1799805,56.9834289],[-4.1800079,56.9840318],[-4.1800801,56.9846529],[-4.1800801,56.9852742],[-4.1799771,56.9858347],[-4.1797868,56.9863665],[-4.1795587,56.9868192],[-4.1791933,56.9874257],[-4.1788831,56.9879457],[-4.1786737,56.9884497],[-4.1785589,56.9887827],[-4.1784881,56.9891484],[-4.178437,56.9897566],[-4.1784846,56.990308],[-4.1787998,56.9916399]],"type":"LineString"}},{"id":"way/368713669","type":"Feature","properties":{"@id":"way/368713669","bridge":"yes","electrified":"no","gauge":"1435","layer":"1","maxspeed":"70 mph","name":"Highland Main Line","operator":"Network Rail","passenger_lines":"1","railway":"rail","railway:traffic_mode":"mixed","ref":"HGL2","source":"GPS","start_date":"1863-09-09","usage":"main"},"geometry":{"coordinates":[[-4.1811746,56.9807122],[-4.1810621,56.9808461]],"type":"LineString"}},{"id":"way/368713670","type":"Feature","properties":{"@id":"way/368713670","bridge":"yes","electrified":"no","gauge":"1435","layer":"1","maxspeed":"90 mph","name":"Highland Main Line","operator":"Network Rail","passenger_lines":"1","railway":"rail","railway:traffic_mode":"mixed","ref":"HGL2","source":"GPS","start_date":"1863-09-09","usage":"main"},"geometry":{"coordinates":[[-4.1836314,56.9782435],[-4.1835315,56.9783466]],"type":"LineString"}},{"id":"way/368713671","type":"Feature","properties":{"@id":"way/368713671","bridge":"yes","electrified":"no","gauge":"1435","layer":"1","maxspeed":"70 mph","name":"Highland Main Line","operator":"Network Rail","passenger_lines":"1","railway":"rail","railway:traffic_mode":"mixed","ref":"HGL2","source":"GPS","start_date":"1863-09-09","usage":"main"},"geometry":{"coordinates":[[-4.1787998,56.9916399],[-4.178842,56.9918234]],"type":"LineString"}},{"id":"way/368713672","type":"Feature","properties":{"@id":"way/368713672","electrified":"no","gauge":"1435","maxspeed":"90 mph","name":"Highland Main Line","operator":"Network Rail","passenger_lines":"1","railway":"rail","railway:traffic_mode":"mixed","ref":"HGL2","source":"GPS","start_date":"1863-09-09","usage":"main"},"geometry":{"coordinates":[[-4.1835315,56.9783466],[-4.1824465,56.9794237],[-4.1821432,56.9797304]],"type":"LineString"}},{"id":"way/368722433","type":"Feature","properties":{"@id":"way/368722433","electrified":"no","embankment":"yes","gauge":"1435","maxspeed":"80 mph","name":"Highland Main Line","operator":"Network Rail","passenger_lines":"1","railway":"rail","railway:traffic_mode":"mixed","ref":"HGL2","source":"GPS","start_date":"1863-09-09","usage":"main"},"geometry":{"coordinates":[[-4.0902758,57.072142],[-4.0889891,57.0723726],[-4.0867682,57.0727255],[-4.0840502,57.0731399],[-4.0832492,57.073262],[-4.0763438,57.0743005],[-4.0716672,57.0749908],[-4.0678882,57.075563],[-4.0624487,57.0763852]],"type":"LineString"}},{"id":"way/369736251","type":"Feature","properties":{"@id":"way/369736251","electrified":"no","gauge":"1435","maxspeed":"80 mph","name":"Highland Main Line","operator":"Network Rail","passenger_lines":"1","railway":"rail","railway:traffic_mode":"mixed","ref":"HGL2","source":"GPS","start_date":"1856-04-07","usage":"main"},"geometry":{"coordinates":[[-3.4428383,56.4958027],[-3.4433245,56.4967615],[-3.4446826,56.4993976],[-3.4457549,56.5014632],[-3.4465545,56.5030536],[-3.4475821,56.5050289],[-3.448876,56.5075384],[-3.4500061,56.5097404],[-3.45038,56.51049],[-3.4509534,56.511591],[-3.451238,56.5122593],[-3.4513931,56.5128022],[-3.451426,56.5129123],[-3.4515197,56.5135042],[-3.4515688,56.5141778],[-3.4515587,56.514771],[-3.4514305,56.5162602],[-3.4513622,56.517124],[-3.4513503,56.5176701],[-3.4513503,56.5181141],[-3.451404,56.5185461],[-3.4515005,56.5190255],[-3.4516349,56.5195086],[-3.4518105,56.5199834],[-3.4520104,56.5204052],[-3.4523267,56.5209727],[-3.4526344,56.5214521],[-3.4531516,56.5221277],[-3.4533971,56.5224052],[-3.453665,56.522689],[-3.4541381,56.5231525],[-3.4548101,56.523731],[-3.4557136,56.5244011],[-3.4562017,56.5247234],[-3.4565177,56.5249229],[-3.4585494,56.5260734],[-3.4612655,56.5275886],[-3.4627533,56.5284247],[-3.4634688,56.5288179],[-3.4645525,56.5293955],[-3.4653515,56.5297546],[-3.4661036,56.5301021],[-3.4667247,56.5303226],[-3.4674114,56.5305593],[-3.4682213,56.5308155]],"type":"LineString"}},{"id":"way/369914528","type":"Feature","properties":{"@id":"way/369914528","electrified":"no","gauge":"1435","maxspeed":"75 mph","name":"Highland Main Line","operator":"Network Rail","passenger_lines":"1","railway":"rail","railway:traffic_mode":"mixed","ref":"HGL2","source":"GPS","start_date":"1897-07-08","usage":"main"},"geometry":{"coordinates":[[-4.0685067,57.3943541],[-4.0688059,57.3959403],[-4.06916,57.3978653],[-4.0698173,57.4013047],[-4.0704045,57.4043796],[-4.0707152,57.4060399],[-4.0710053,57.4076855],[-4.0714447,57.4098341],[-4.0716667,57.4109663],[-4.0718636,57.4116844],[-4.0722549,57.4125475],[-4.072682,57.4132328],[-4.0730975,57.4137935],[-4.0737535,57.4144939],[-4.0743189,57.4150134],[-4.075158,57.4156888],[-4.0759293,57.4162322],[-4.0766176,57.4166351],[-4.0776787,57.417191],[-4.078891,57.4177341],[-4.0812621,57.418722],[-4.0820825,57.4190776],[-4.0829058,57.4194652],[-4.0837449,57.4199052],[-4.0847648,57.4204869],[-4.0860257,57.4212987],[-4.0867016,57.4218359],[-4.0888084,57.4235349],[-4.0897333,57.4242104],[-4.0904556,57.4246605],[-4.0913291,57.4251439],[-4.0922247,57.4255628],[-4.0931067,57.4259386],[-4.0940558,57.4262977],[-4.0949153,57.4265793],[-4.0957737,57.4268403],[-4.0975304,57.4273616],[-4.0992431,57.4278584],[-4.1006491,57.4282892],[-4.1017732,57.428722],[-4.1026886,57.4291446],[-4.103739,57.4297148],[-4.1044578,57.4302],[-4.1049892,57.4306043],[-4.1055279,57.4311055],[-4.1060841,57.4317043]],"type":"LineString"}},{"id":"way/430047910","type":"Feature","properties":{"@id":"way/430047910","electrified":"no","gauge":"1435","maxspeed":"60 mph","name":"Highland Main Line","operator":"Network Rail","passenger_lines":"1","railway":"rail","railway:traffic_mode":"mixed","ref":"HGL2","source":"GPS","start_date":"1863-09-09","usage":"main"},"geometry":{"coordinates":[[-3.7399496,56.7036482],[-3.7401558,56.70374],[-3.7405935,56.7039579],[-3.7424712,56.7050119],[-3.7448302,56.7063391],[-3.7452157,56.7065512],[-3.7453332,56.7066183],[-3.746304,56.707191],[-3.7472489,56.7077212],[-3.7479286,56.7080774],[-3.7487188,56.7084338],[-3.7496168,56.7087788],[-3.7504765,56.7090707]],"type":"LineString"}},{"id":"way/430047912","type":"Feature","properties":{"@id":"way/430047912","bridge":"yes","electrified":"no","gauge":"1435","layer":"1","maxspeed":"60 mph","name":"Highland Main Line","operator":"Network Rail","passenger_lines":"1","railway":"rail","railway:traffic_mode":"mixed","ref":"HGL2","start_date":"1863-09-09","usage":"main"},"geometry":{"coordinates":[[-3.7397679,56.7035672],[-3.7399496,56.7036482]],"type":"LineString"}},{"id":"way/430300334","type":"Feature","properties":{"@id":"way/430300334","electrified":"no","gauge":"1435","maxspeed":"40 mph","name":"Highland Main Line","operator":"Network Rail","passenger_lines":"1","railway":"rail","railway:traffic_mode":"mixed","ref":"HGL2","start_date":"1863-09-09","usage":"main"},"geometry":{"coordinates":[[-3.8300597,57.1845945],[-3.8299125,57.1847908]],"type":"LineString"}},{"id":"way/430300336","type":"Feature","properties":{"@id":"way/430300336","electrified":"no","gauge":"1435","maxspeed":"70 mph","name":"Highland Main Line","operator":"Network Rail","passenger_lines":"1","railway":"rail","railway:traffic_mode":"mixed","ref":"HGL2","source":"GPS","start_date":"1898-11-01","usage":"main"},"geometry":{"coordinates":[[-4.0649096,57.481914],[-4.0654538,57.4828548]],"type":"LineString"}},{"id":"way/430300337","type":"Feature","properties":{"@id":"way/430300337","electrified":"no","gauge":"1435","maxspeed":"60 mph","name":"Highland Main Line","operator":"Network Rail","passenger_lines":"1","railway":"rail","railway:traffic_mode":"mixed","ref":"HGL2","source":"GPS","start_date":"1863-09-09","usage":"main"},"geometry":{"coordinates":[[-3.7396548,56.7035169],[-3.7397679,56.7035672]],"type":"LineString"}},{"id":"way/430300338","type":"Feature","properties":{"@id":"way/430300338","electrified":"no","gauge":"1435","maxspeed":"65 mph","name":"Highland Main Line","operator":"Network Rail","passenger_lines":"2","railway":"rail","railway:traffic_mode":"mixed","ref":"HGL2","start_date":"1863-09-09","usage":"main"},"geometry":{"coordinates":[[-3.8456558,56.7649439],[-3.8463143,56.765044],[-3.8469368,56.7651008]],"type":"LineString"}},{"id":"way/430300340","type":"Feature","properties":{"@id":"way/430300340","electrified":"no","gauge":"1435","maxspeed":"40 mph","name":"Highland Main Line","operator":"Network Rail","passenger_lines":"1","railway":"rail","railway:track_ref":"1","railway:traffic_mode":"mixed","ref":"HGL2","source":"GPS","start_date":"1856-04-07","usage":"main"},"geometry":{"coordinates":[[-3.5727578,56.5550472],[-3.5734702,56.5552382],[-3.5741227,56.555432],[-3.5747728,56.5556635],[-3.5765157,56.556265]],"type":"LineString"}},{"id":"way/430300341","type":"Feature","properties":{"@id":"way/430300341","electrified":"no","gauge":"1435","maxspeed":"40 mph","name":"Highland Main Line","operator":"Network Rail","passenger_lines":"2","railway":"rail","railway:traffic_mode":"mixed","ref":"HGL2","usage":"main"},"geometry":{"coordinates":[[-4.2104728,57.4824336],[-4.2105828,57.4824278],[-4.2124924,57.4823088],[-4.2128893,57.4822827],[-4.2143989,57.4821863],[-4.2146459,57.4821711]],"type":"LineString"}},{"id":"way/439928597","type":"Feature","properties":{"@id":"way/439928597","bridge":"yes","electrified":"no","gauge":"1435","layer":"1","maxspeed":"75 mph","name":"Highland Main Line","operator":"Network Rail","passenger_lines":"1","railway":"rail","railway:traffic_mode":"mixed","ref":"HGL2","source":"GPS","start_date":"1897-07-08","usage":"main"},"geometry":{"coordinates":[[-4.0194614,57.3640001],[-4.0196802,57.3640943]],"type":"LineString"}},{"id":"way/439928598","type":"Feature","properties":{"@id":"way/439928598","electrified":"no","gauge":"1435","maxspeed":"75 mph","name":"Highland Main Line","operator":"Network Rail","passenger_lines":"1","railway":"rail","railway:traffic_mode":"mixed","ref":"HGL2","source":"GPS","start_date":"1897-07-08","usage":"main"},"geometry":{"coordinates":[[-4.0112148,57.3463827],[-4.0112022,57.3465616],[-4.0110926,57.3471536],[-4.0109346,57.347637],[-4.0107736,57.3480422],[-4.0105913,57.3483953],[-4.0103338,57.3488178],[-4.0099797,57.3492983],[-4.0096149,57.3497382],[-4.0091107,57.3502533],[-4.0082095,57.3511852],[-4.0076945,57.3517004],[-4.0072439,57.3521692],[-4.0068254,57.3527075],[-4.0066001,57.3530547],[-4.0062675,57.3536798],[-4.0060613,57.3542346],[-4.0059457,57.3547158],[-4.005892,57.3551556],[-4.0059028,57.3557286],[-4.0059564,57.3561916],[-4.0060744,57.3566719],[-4.006289,57.3572101],[-4.0065679,57.3577483],[-4.0068898,57.3582171],[-4.0072224,57.3586337],[-4.0075979,57.3590041],[-4.00807,57.3594439],[-4.0085313,57.3598142],[-4.0089712,57.3601209],[-4.0095613,57.3604855],[-4.0103016,57.3608848],[-4.0111062,57.3612551],[-4.0119753,57.3616023],[-4.0129409,57.3619321],[-4.0141103,57.3622735],[-4.0162239,57.3628464],[-4.0173504,57.3631993],[-4.0179727,57.3634134],[-4.0188846,57.3637548],[-4.0194614,57.3640001]],"type":"LineString"}},{"id":"way/450547367","type":"Feature","properties":{"@id":"way/450547367","bridge":"yes","electrified":"no","gauge":"1435","layer":"1","maxspeed":"75 mph","name":"Highland Main Line","operator":"Network Rail","passenger_lines":"1","railway":"rail","railway:traffic_mode":"mixed","ref":"HGL2","source":"GPS","start_date":"1897-07-08","usage":"main"},"geometry":{"coordinates":[[-4.0476416,57.3807382],[-4.0478606,57.380807]],"type":"LineString"}},{"id":"way/450547376","type":"Feature","properties":{"@id":"way/450547376","electrified":"no","gauge":"1435","maxspeed":"75 mph","name":"Highland Main Line","operator":"Network Rail","passenger_lines":"1","railway":"rail","railway:traffic_mode":"mixed","ref":"HGL2","source":"GPS","start_date":"1897-07-08","usage":"main"},"geometry":{"coordinates":[[-4.0196802,57.3640943],[-4.0205154,57.364478],[-4.0215132,57.3650277],[-4.0222857,57.3654964],[-4.0228972,57.3659014],[-4.0237663,57.3665725],[-4.0250537,57.3676428],[-4.0272961,57.3694999],[-4.029238,57.3710966],[-4.030858,57.3724503],[-4.0318129,57.3732717],[-4.0325746,57.3739138],[-4.0334973,57.374712],[-4.0343878,57.3754351],[-4.0349672,57.3758515],[-4.0357826,57.3763663],[-4.0366087,57.3768348],[-4.0374241,57.3772513],[-4.0382931,57.3776446],[-4.0392532,57.3780376],[-4.0402028,57.3783965],[-4.0427563,57.379212],[-4.0462432,57.3802993],[-4.0476416,57.3807382]],"type":"LineString"}},{"id":"way/475192032","type":"Feature","properties":{"@id":"way/475192032","electrified":"no","gauge":"1435","maxspeed":"75 mph","name":"Highland Main Line","operator":"Network Rail","passenger_lines":"1","railway":"rail","railway:traffic_mode":"mixed","ref":"HGL2","source":"GPS","start_date":"1897-07-08","usage":"main"},"geometry":{"coordinates":[[-4.0478606,57.380807],[-4.0497622,57.3814039],[-4.0517982,57.3820002]],"type":"LineString"}},{"id":"way/514897708","type":"Feature","properties":{"@id":"way/514897708","electrified":"no","gauge":"1435","maxspeed":"80 mph","name":"Highland Main Line","operator":"Network Rail","passenger_lines":"1","railway":"rail","railway:traffic_mode":"mixed","ref":"HGL2","source":"GPS","start_date":"1863-06-01","usage":"main"},"geometry":{"coordinates":[[-3.6313864,56.5921799],[-3.6336447,56.5964612]],"type":"LineString"}},{"id":"way/514897709","type":"Feature","properties":{"@id":"way/514897709","bridge":"yes","electrified":"no","gauge":"1435","layer":"1","maxspeed":"80 mph","name":"Highland Main Line","operator":"Network Rail","passenger_lines":"1","railway":"rail","railway:traffic_mode":"mixed","ref":"HGL2","source":"GPS","start_date":"1863-06-01","usage":"main"},"geometry":{"coordinates":[[-3.6313013,56.592021],[-3.6313864,56.5921799]],"type":"LineString"}},{"id":"way/617452082","type":"Feature","properties":{"@id":"way/617452082","electrified":"no","embankment":"yes","gauge":"1435","maxspeed":"80 mph","name":"Highland Main Line","operator":"Network Rail","passenger_lines":"1","railway":"rail","railway:traffic_mode":"mixed","ref":"HGL2","source":"GPS","start_date":"1863-09-09","usage":"main"},"geometry":{"coordinates":[[-4.0943706,57.0712072],[-4.0926011,57.0716442],[-4.0915112,57.071874],[-4.0903627,57.0721209]],"type":"LineString"}},{"id":"way/617452087","type":"Feature","properties":{"@id":"way/617452087","bridge":"yes","electrified":"no","gauge":"1435","layer":"1","maxspeed":"80 mph","name":"Highland Main Line","operator":"Network Rail","passenger_lines":"1","railway":"rail","railway:traffic_mode":"mixed","ref":"HGL2","source":"GPS","start_date":"1863-09-09","usage":"main"},"geometry":{"coordinates":[[-4.0903627,57.0721209],[-4.0902758,57.072142]],"type":"LineString"}},{"id":"way/626389112","type":"Feature","properties":{"@id":"way/626389112","electrified":"no","gauge":"1435","maxspeed":"30 mph","name":"Highland Main Line","operator":"Network Rail","passenger_lines":"1","railway":"rail","railway:traffic_mode":"mixed","ref":"HGL2","source":"GPS","start_date":"1863-09-09","usage":"main"},"geometry":{"coordinates":[[-3.7718559,56.7411404],[-3.7719932,56.7413172],[-3.7721796,56.7415094]],"type":"LineString"}},{"id":"way/626389113","type":"Feature","properties":{"@id":"way/626389113","bridge":"yes","electrified":"no","gauge":"1435","layer":"1","maxspeed":"30 mph","name":"Highland Main Line","operator":"Network Rail","passenger_lines":"1","railway":"rail","railway:traffic_mode":"mixed","ref":"HGL2","source":"GPS","start_date":"1863-09-09","usage":"main"},"geometry":{"coordinates":[[-3.7717572,56.7409877],[-3.7718559,56.7411404]],"type":"LineString"}},{"id":"way/626389115","type":"Feature","properties":{"@id":"way/626389115","bridge":"yes","electrified":"no","gauge":"1435","layer":"1","maxspeed":"60 mph","name":"Highland Main Line","operator":"Network Rail","passenger_lines":"1","railway":"rail","railway:traffic_mode":"mixed","ref":"HGL2","source":"GPS","start_date":"1863-09-09","usage":"main"},"geometry":{"coordinates":[[-3.7740245,56.7316388],[-3.773962,56.7317546]],"type":"LineString"}},{"id":"way/626389116","type":"Feature","properties":{"@id":"way/626389116","electrified":"no","gauge":"1435","maxspeed":"60 mph","name":"Highland Main Line","operator":"Network Rail","passenger_lines":"1","railway":"rail","railway:traffic_mode":"mixed","ref":"HGL2","source":"GPS","start_date":"1863-09-09","usage":"main"},"geometry":{"coordinates":[[-3.7746814,56.7270448],[-3.7747898,56.7275684],[-3.7748542,56.7282158],[-3.7748421,56.7284679],[-3.7748006,56.7287338],[-3.774664,56.7294448],[-3.7745002,56.7301876],[-3.7743714,56.7307644],[-3.7743241,56.7309674],[-3.7742534,56.7311646],[-3.774147,56.731403],[-3.7740245,56.7316388]],"type":"LineString"}},{"id":"way/636610167","type":"Feature","properties":{"@id":"way/636610167","electrified":"no","gauge":"1435","maxspeed":"75 mph","name":"Highland Main Line","operator":"Network Rail","passenger_lines":"1","railway":"rail","railway:traffic_mode":"mixed","ref":"HGL2","source":"GPS","start_date":"1897-07-08","usage":"main"},"geometry":{"coordinates":[[-3.8258626,57.1945906],[-3.8257582,57.1947481]],"type":"LineString"}},{"id":"way/636610168","type":"Feature","properties":{"@id":"way/636610168","electrified":"no","gauge":"1435","maxspeed":"60 mph","name":"Highland Main Line","operator":"Network Rail","passenger_lines":"1","railway":"rail","railway:traffic_mode":"mixed","ref":"HGL2","source":"GPS","start_date":"1897-07-08","usage":"main"},"geometry":{"coordinates":[[-3.8220513,57.2764866],[-3.8229038,57.2769343],[-3.8231885,57.2770756],[-3.82347,57.2772217]],"type":"LineString"}},{"id":"way/636610169","type":"Feature","properties":{"@id":"way/636610169","electrified":"no","gauge":"1435","maxspeed":"60 mph","name":"Highland Main Line","operator":"Network Rail","passenger_lines":"1","railway":"rail","railway:traffic_mode":"mixed","ref":"HGL2","source":"GPS","start_date":"1897-07-08","usage":"main"},"geometry":{"coordinates":[[-3.82347,57.2772217],[-3.8255311,57.2781825],[-3.8257336,57.2782758],[-3.8260108,57.2784176]],"type":"LineString"}},{"id":"way/636610170","type":"Feature","properties":{"@id":"way/636610170","electrified":"no","gauge":"1435","maxspeed":"65 mph","name":"Highland Main Line","operator":"Network Rail","passenger_lines":"1","railway":"rail","railway:traffic_mode":"mixed","ref":"HGL2","source":"GPS","start_date":"1897-07-08","usage":"main"},"geometry":{"coordinates":[[-3.9056471,57.291247],[-3.9065296,57.2909804],[-3.9069668,57.2908398],[-3.9077124,57.290605],[-3.9085869,57.2904151],[-3.9093888,57.2902238],[-3.9103732,57.2900586],[-3.9112315,57.2899658],[-3.9121542,57.2898962],[-3.9132995,57.2898933],[-3.914662,57.2899351]],"type":"LineString"}},{"id":"way/636610171","type":"Feature","properties":{"@id":"way/636610171","electrified":"no","gauge":"1435","maxspeed":"65 mph","name":"Highland Main Line","operator":"Network Rail","passenger_lines":"1","railway":"rail","railway:traffic_mode":"mixed","ref":"HGL2","source":"GPS","start_date":"1897-07-08","usage":"main"},"geometry":{"coordinates":[[-3.9270348,57.2971552],[-3.9270973,57.297926],[-3.9271188,57.2983339],[-3.9271451,57.2986954],[-3.927159,57.2991237]],"type":"LineString"}},{"id":"way/636610173","type":"Feature","properties":{"@id":"way/636610173","electrified":"no","gauge":"1435","maxspeed":"70 mph","name":"Highland Main Line","operator":"Network Rail","passenger_lines":"2","railway":"rail","railway:traffic_mode":"mixed","ref":"HGL2","start_date":"1898-11-01","usage":"main"},"geometry":{"coordinates":[[-4.0654538,57.4828548],[-4.0657192,57.4833981],[-4.0660332,57.4839734],[-4.0661953,57.4842574],[-4.0663422,57.4845147],[-4.0664059,57.4846236],[-4.0664722,57.4847389],[-4.0669854,57.4855794],[-4.0672187,57.4859009],[-4.0675612,57.4863376],[-4.0678563,57.4866634],[-4.0683847,57.4871767],[-4.0690203,57.4877448],[-4.0696453,57.4882277],[-4.0703936,57.4887453],[-4.0710186,57.4891446],[-4.0719842,57.4896809],[-4.0724214,57.4899028],[-4.0734245,57.4903699]],"type":"LineString"}},{"id":"way/636610176","type":"Feature","properties":{"@id":"way/636610176","electrified":"no","gauge":"1435","maxspeed":"55 mph","name":"Highland Main Line","operator":"Network Rail","passenger_lines":"2","railway":"rail","railway:traffic_mode":"mixed","ref":"HGL2","usage":"main"},"geometry":{"coordinates":[[-4.1870288,57.4807378],[-4.1876316,57.4810134],[-4.1879173,57.4811285],[-4.1887944,57.4815424],[-4.1901382,57.4821249]],"type":"LineString"}},{"id":"way/636610182","type":"Feature","properties":{"@id":"way/636610182","electrified":"no","gauge":"1435","maxspeed":"55 mph","name":"Highland Main Line","operator":"Network Rail","passenger_lines":"2","railway":"rail","railway:traffic_mode":"mixed","ref":"HGL2","usage":"main"},"geometry":{"coordinates":[[-4.2046604,57.4828473],[-4.2051325,57.4827939],[-4.2060203,57.4827276],[-4.2082009,57.4825864],[-4.2104728,57.4824336]],"type":"LineString"}},{"id":"way/636610183","type":"Feature","properties":{"@id":"way/636610183","electrified":"no","gauge":"1435","maxspeed":"40 mph","name":"Highland Main Line","operator":"Network Rail","passenger_lines":"2","railway":"rail","railway:traffic_mode":"mixed","ref":"HGL2","start_date":"1855-11-06","usage":"main"},"geometry":{"coordinates":[[-4.2163846,57.4820328],[-4.2172101,57.4819512],[-4.2175237,57.481911]],"type":"LineString"}},{"id":"way/692617431","type":"Feature","properties":{"@id":"way/692617431","electrified":"no","gauge":"1435","maxspeed":"75 mph","name":"Highland Main Line","operator":"Network Rail","passenger_lines":"2","railway":"rail","railway:traffic_mode":"mixed","ref":"HGL2","start_date":"1863-09-09","usage":"main"},"geometry":{"coordinates":[[-4.1175517,56.8100444],[-4.1180807,56.8101489],[-4.1187796,56.8103006],[-4.1197774,56.8105469],[-4.1206113,56.8108015],[-4.1215858,56.8111571],[-4.1237347,56.8121036],[-4.1249738,56.8125716],[-4.1256074,56.8127837],[-4.1262774,56.8129948],[-4.1269129,56.8131851],[-4.1276338,56.8133856],[-4.1288139,56.8137506],[-4.1297068,56.8140926],[-4.1310707,56.81471],[-4.131675,56.8149897]],"type":"LineString"}},{"id":"way/692617438","type":"Feature","properties":{"@id":"way/692617438","bridge":"yes","electrified":"no","gauge":"1435","layer":"1","maxspeed":"75 mph","name":"Highland Main Line","operator":"Network Rail","passenger_lines":"2","railway":"rail","railway:traffic_mode":"mixed","ref":"HGL2","start_date":"1863-09-09","usage":"main"},"geometry":{"coordinates":[[-4.1173037,56.8099954],[-4.1175517,56.8100444]],"type":"LineString"}},{"id":"way/692617594","type":"Feature","properties":{"@id":"way/692617594","bridge":"yes","electrified":"no","gauge":"1435","layer":"1","maxspeed":"75 mph","name":"Highland Main Line","operator":"Network Rail","passenger_lines":"2","railway":"rail","railway:traffic_mode":"mixed","ref":"HGL2","start_date":"1863-09-09","usage":"main"},"geometry":{"coordinates":[[-4.1044668,56.8067842],[-4.1046998,56.8068949]],"type":"LineString"}},{"id":"way/692617599","type":"Feature","properties":{"@id":"way/692617599","electrified":"no","gauge":"1435","maxspeed":"75 mph","name":"Highland Main Line","operator":"Network Rail","passenger_lines":"2","railway":"rail","railway:traffic_mode":"mixed","ref":"HGL2","start_date":"1863-09-09","usage":"main"},"geometry":{"coordinates":[[-4.0906767,56.8035708],[-4.0949915,56.8041322],[-4.0974223,56.8044436],[-4.0980806,56.8045572],[-4.0987365,56.8046797],[-4.0995389,56.8048581],[-4.1000661,56.8049935],[-4.1006302,56.8051611],[-4.101106,56.8053135],[-4.1019505,56.8056228],[-4.1025709,56.8058753],[-4.1033162,56.8062331],[-4.1044668,56.8067842]],"type":"LineString"}},{"id":"way/707911774","type":"Feature","properties":{"@id":"way/707911774","bridge":"yes","electrified":"no","gauge":"1435","layer":"1","maxspeed":"80 mph","name":"Highland Main Line","operator":"Network Rail","passenger_lines":"1","railway":"rail","railway:traffic_mode":"mixed","ref":"HGL2","source":"GPS","start_date":"1897-07-08","usage":"main"},"geometry":{"coordinates":[[-3.8075405,57.2259991],[-3.8075329,57.2260579]],"type":"LineString"}},{"id":"way/707911775","type":"Feature","properties":{"@id":"way/707911775","electrified":"no","gauge":"1435","maxspeed":"80 mph","name":"Highland Main Line","operator":"Network Rail","passenger_lines":"1","railway":"rail","railway:traffic_mode":"mixed","ref":"HGL2","source":"GPS","start_date":"1897-07-08","usage":"main"},"geometry":{"coordinates":[[-3.8075329,57.2260579],[-3.8073894,57.2271533],[-3.807384,57.2275657],[-3.8074055,57.2291801],[-3.8074699,57.2326702],[-3.8075315,57.2336912]],"type":"LineString"}},{"id":"way/708950669","type":"Feature","properties":{"@id":"way/708950669","bridge":"yes","electrified":"no","gauge":"1435","layer":"1","maxspeed":"70 mph","name":"Highland Main Line","operator":"Network Rail","passenger_lines":"1","railway":"rail","railway:traffic_mode":"mixed","ref":"HGL2","source":"GPS","start_date":"1863-09-09","usage":"main"},"geometry":{"coordinates":[[-4.1775821,56.9976487],[-4.1775213,56.9977153]],"type":"LineString"}},{"id":"way/708950670","type":"Feature","properties":{"@id":"way/708950670","electrified":"no","gauge":"1435","maxspeed":"70 mph","name":"Highland Main Line","operator":"Network Rail","passenger_lines":"1","railway":"rail","railway:traffic_mode":"mixed","ref":"HGL2","source":"GPS","start_date":"1863-09-09","usage":"main"},"geometry":{"coordinates":[[-4.178842,56.9918234],[-4.1791686,56.9931212],[-4.179287,56.9938925],[-4.1792948,56.9943997],[-4.1792399,56.9948047],[-4.1790622,56.9954439],[-4.1787765,56.9960667],[-4.1784925,56.9965466],[-4.1780374,56.997157],[-4.1775821,56.9976487]],"type":"LineString"}},{"id":"way/721199016","type":"Feature","properties":{"@id":"way/721199016","electrified":"no","gauge":"1435","maxspeed":"15 mph","name":"Highland Main Line","operator":"Network Rail","railway":"rail","ref":"HGL2","usage":"main"},"geometry":{"coordinates":[[-4.2182471,57.4818394],[-4.2189499,57.4817263],[-4.2192865,57.4816693],[-4.2196124,57.4816015],[-4.2199906,57.4815049],[-4.2203607,57.4814004],[-4.2206276,57.4813175],[-4.2209508,57.4812123]],"type":"LineString"}},{"id":"way/721199017","type":"Feature","properties":{"@id":"way/721199017","electrified":"no","gauge":"1435","maxspeed":"40 mph","name":"Highland Main Line","operator":"Network Rail","passenger_lines":"2","railway":"rail","railway:traffic_mode":"mixed","ref":"HGL2","usage":"main"},"geometry":{"coordinates":[[-4.2146459,57.4821711],[-4.2158506,57.4820962],[-4.2164748,57.4820558],[-4.2170453,57.4819925],[-4.2178582,57.4819022],[-4.2182471,57.4818394]],"type":"LineString"}},{"id":"way/777326052","type":"Feature","properties":{"@id":"way/777326052","electrified":"no","gauge":"1435","maxspeed":"85 mph","name":"Highland Main Line","operator":"Network Rail","passenger_lines":"1","railway":"rail","railway:traffic_mode":"mixed","ref":"HGL2","source":"GPS","start_date":"1863-09-09","usage":"main"},"geometry":{"coordinates":[[-3.8470275,57.1722876],[-3.8459435,57.172783],[-3.8451174,57.173132],[-3.8442698,57.1734635]],"type":"LineString"}},{"id":"way/777326053","type":"Feature","properties":{"@id":"way/777326053","electrified":"no","gauge":"1435","maxspeed":"75 mph","name":"Highland Main Line","operator":"Network Rail","passenger_lines":"1","railway":"rail","railway:traffic_mode":"mixed","ref":"HGL2","source":"GPS","start_date":"1863-09-09","usage":"main"},"geometry":{"coordinates":[[-3.8442698,57.1734635],[-3.8434222,57.1737543],[-3.8426605,57.1739869],[-3.8415339,57.174301],[-3.8382738,57.1751195]],"type":"LineString"}},{"id":"way/777326054","type":"Feature","properties":{"@id":"way/777326054","electrified":"no","gauge":"1435","maxspeed":"40 mph","name":"Highland Main Line","operator":"Network Rail","passenger_lines":"1","railway":"rail","railway:traffic_mode":"mixed","ref":"HGL2","source":"GPS","start_date":"1863-09-09","usage":"main"},"geometry":{"coordinates":[[-3.8309768,57.1836228],[-3.8304296,57.1841344],[-3.830148,57.1844987]],"type":"LineString"}},{"id":"way/777326057","type":"Feature","properties":{"@id":"way/777326057","electrified":"no","gauge":"1435","maxspeed":"60 mph","name":"Highland Main Line","operator":"Network Rail","passenger_lines":"1","railway":"rail","railway:traffic_mode":"mixed","ref":"HGL2","source":"GPS","start_date":"1897-07-08","usage":"main"},"geometry":{"coordinates":[[-4.0065465,57.340077],[-4.0073561,57.3405572]],"type":"LineString"}},{"id":"way/777526130","type":"Feature","properties":{"@id":"way/777526130","electrified":"no","gauge":"1435","maxspeed":"75 mph","name":"Highland Main Line","operator":"Network Rail","passenger_lines":"1","railway":"rail","railway:traffic_mode":"mixed","ref":"HGL2","source":"GPS","start_date":"1856-04-07","usage":"main"},"geometry":{"coordinates":[[-3.4413037,56.4902832],[-3.4412923,56.4904182],[-3.4412759,56.4910199],[-3.4413296,56.4917662],[-3.4414465,56.4924963],[-3.4416204,56.4931624],[-3.4418609,56.493823],[-3.4421128,56.4943722],[-3.4428383,56.4958027]],"type":"LineString"}},{"id":"way/777526131","type":"Feature","properties":{"@id":"way/777526131","electrified":"no","gauge":"1435","maxspeed":"45 mph","name":"Highland Main Line","operator":"Network Rail","passenger_lines":"1","railway":"rail","railway:traffic_mode":"mixed","ref":"HGL2","source":"GPS","start_date":"1856-04-07","usage":"main"},"geometry":{"coordinates":[[-3.4443446,56.4868188],[-3.4438929,56.4870166],[-3.4435243,56.4871913],[-3.443206,56.4873721],[-3.4427607,56.4876648],[-3.4423082,56.488023],[-3.4420298,56.488326],[-3.4417718,56.4887046],[-3.4416114,56.4890228],[-3.4414702,56.4893782],[-3.4413438,56.4898874],[-3.4413037,56.4902832]],"type":"LineString"}},{"id":"way/777526132","type":"Feature","properties":{"@id":"way/777526132","electrified":"no","gauge":"1435","maxspeed":"65 mph","name":"Highland Main Line","operator":"Network Rail","passenger_lines":"1","railway":"rail","railway:traffic_mode":"mixed","ref":"HGL2","source":"GPS","start_date":"1856-04-07","usage":"main"},"geometry":{"coordinates":[[-3.5203582,56.5330265],[-3.5213774,56.5328135],[-3.5221499,56.5326952],[-3.5229224,56.5326242],[-3.5238665,56.532571],[-3.5246317,56.5325773],[-3.5257482,56.532643],[-3.5268282,56.5327299],[-3.5291267,56.5329501],[-3.5306841,56.5330951],[-3.5317929,56.5332022],[-3.532577,56.5333051],[-3.533265,56.5334288]],"type":"LineString"}},{"id":"way/777526133","type":"Feature","properties":{"@id":"way/777526133","electrified":"no","gauge":"1435","maxspeed":"55 mph","name":"Highland Main Line","operator":"Network Rail","passenger_lines":"1","railway":"rail","railway:traffic_mode":"mixed","ref":"HGL2","source":"GPS","start_date":"1856-04-07","usage":"main"},"geometry":{"coordinates":[[-3.5387264,56.5357287],[-3.5389871,56.5359108]],"type":"LineString"}},{"id":"way/777526134","type":"Feature","properties":{"@id":"way/777526134","electrified":"no","gauge":"1435","maxspeed":"65 mph","name":"Highland Main Line","operator":"Network Rail","passenger_lines":"1","railway":"rail","railway:traffic_mode":"mixed","ref":"HGL2","source":"GPS","start_date":"1856-04-07","usage":"main"},"geometry":{"coordinates":[[-3.5512166,56.5409393],[-3.5528355,56.5419052],[-3.5536411,56.5423745],[-3.5541239,56.5426128],[-3.5549493,56.5430003],[-3.5580349,56.5443193],[-3.5589184,56.5447387]],"type":"LineString"}},{"id":"way/777526135","type":"Feature","properties":{"@id":"way/777526135","electrified":"no","gauge":"1435","maxspeed":"55 mph","name":"Highland Main Line","operator":"Network Rail","passenger_lines":"1","railway":"rail","railway:traffic_mode":"mixed","ref":"HGL2","source":"GPS","start_date":"1856-04-07","usage":"main"},"geometry":{"coordinates":[[-3.5672218,56.5531742],[-3.5680038,56.553684],[-3.5684443,56.5539421],[-3.5689565,56.5541711],[-3.5695618,56.5543812],[-3.5701372,56.5545493],[-3.570655,56.5546747],[-3.5716313,56.5548757],[-3.5722545,56.5549681]],"type":"LineString"}},{"id":"way/777526136","type":"Feature","properties":{"@id":"way/777526136","electrified":"no","gauge":"1435","maxspeed":"40 mph","name":"Highland Main Line","operator":"Network Rail","passenger_lines":"1","railway":"rail","railway:traffic_mode":"mixed","ref":"HGL2","source":"GPS","start_date":"1856-04-07","usage":"main"},"geometry":{"coordinates":[[-3.5722545,56.5549681],[-3.5727578,56.5550472]],"type":"LineString"}},{"id":"way/777526138","type":"Feature","properties":{"@id":"way/777526138","electrified":"no","gauge":"1435","maxspeed":"55 mph","name":"Highland Main Line","operator":"Network Rail","passenger_lines":"1","railway":"rail","railway:track_ref":"1","railway:traffic_mode":"mixed","ref":"HGL2","source":"GPS","start_date":"1856-04-07","usage":"main"},"geometry":{"coordinates":[[-3.5765157,56.556265],[-3.5784012,56.5569157],[-3.5791654,56.557192]],"type":"LineString"}},{"id":"way/777526139","type":"Feature","properties":{"@id":"way/777526139","electrified":"no","gauge":"1435","maxspeed":"55 mph","name":"Highland Main Line","operator":"Network Rail","passenger_lines":"1","railway":"rail","railway:traffic_mode":"mixed","ref":"HGL2","source":"GPS","start_date":"1863-06-01","usage":"main"},"geometry":{"coordinates":[[-3.5811108,56.5578978],[-3.5816614,56.5580945]],"type":"LineString"}},{"id":"way/777526140","type":"Feature","properties":{"@id":"way/777526140","electrified":"no","gauge":"1435","maxspeed":"55 mph","name":"Highland Main Line","operator":"Network Rail","passenger_lines":"1","railway":"rail","railway:traffic_mode":"mixed","ref":"HGL2","source":"GPS","start_date":"1863-06-01","usage":"main"},"geometry":{"coordinates":[[-3.6064249,56.5600611],[-3.6071991,56.5603072]],"type":"LineString"}},{"id":"way/777526141","type":"Feature","properties":{"@id":"way/777526141","electrified":"no","gauge":"1435","maxspeed":"55 mph","name":"Highland Main Line","operator":"Network Rail","passenger_lines":"1","railway":"rail","railway:traffic_mode":"mixed","ref":"HGL2","source":"GPS","start_date":"1863-06-01","usage":"main"},"geometry":{"coordinates":[[-3.6142896,56.5625202],[-3.6153084,56.5628516],[-3.6176983,56.5636182]],"type":"LineString"}},{"id":"way/777526142","type":"Feature","properties":{"@id":"way/777526142","electrified":"no","gauge":"1435","maxspeed":"80 mph","name":"Highland Main Line","operator":"Network Rail","passenger_lines":"1","railway":"rail","railway:traffic_mode":"mixed","ref":"HGL2","source":"GPS","start_date":"1863-06-01","usage":"main"},"geometry":{"coordinates":[[-3.6227373,56.569466],[-3.6226583,56.5702958],[-3.6226495,56.5703674],[-3.62239,56.5724788],[-3.6223725,56.5730388],[-3.6223929,56.5734899],[-3.622435,56.5737763]],"type":"LineString"}},{"id":"way/777526143","type":"Feature","properties":{"@id":"way/777526143","electrified":"no","gauge":"1435","maxspeed":"80 mph","name":"Highland Main Line","operator":"Network Rail","passenger_lines":"1","railway":"rail","railway:traffic_mode":"mixed","ref":"HGL2","source":"GPS","start_date":"1863-06-01","usage":"main"},"geometry":{"coordinates":[[-3.6344857,56.5980533],[-3.637356,56.6034534],[-3.6387265,56.6060319],[-3.6388145,56.6061975],[-3.6388447,56.6062529],[-3.6399096,56.6082035]],"type":"LineString"}},{"id":"way/777526144","type":"Feature","properties":{"@id":"way/777526144","electrified":"no","gauge":"1435","maxspeed":"65 mph","name":"Highland Main Line","operator":"Network Rail","passenger_lines":"1","railway":"rail","railway:traffic_mode":"mixed","ref":"HGL2","source":"GPS","start_date":"1863-06-01","usage":"main"},"geometry":{"coordinates":[[-3.6383867,56.6133183],[-3.6383055,56.6134145]],"type":"LineString"}},{"id":"way/777526145","type":"Feature","properties":{"@id":"way/777526145","electrified":"no","gauge":"1435","maxspeed":"80 mph","name":"Highland Main Line","operator":"Network Rail","passenger_lines":"1","railway":"rail","railway:traffic_mode":"mixed","ref":"HGL2","source":"GPS","start_date":"1863-06-01","usage":"main"},"geometry":{"coordinates":[[-3.7104491,56.6917865],[-3.710813,56.6924318],[-3.7111526,56.6930517],[-3.7116319,56.6937539],[-3.7121147,56.6944027],[-3.7125981,56.6950162]],"type":"LineString"}},{"id":"way/777526146","type":"Feature","properties":{"@id":"way/777526146","electrified":"no","gauge":"1435","maxspeed":"60 mph","name":"Highland Main Line","operator":"Network Rail","passenger_lines":"1","railway":"rail","railway:track_ref":"1","railway:traffic_mode":"mixed","ref":"HGL2","source":"GPS","start_date":"1863-06-01","usage":"main"},"geometry":{"coordinates":[[-3.7329705,56.7019073],[-3.7343604,56.7021519]],"type":"LineString"}},{"id":"way/777526148","type":"Feature","properties":{"@id":"way/777526148","electrified":"no","gauge":"1435","maxspeed":"30 mph","name":"Highland Main Line","operator":"Network Rail","passenger_lines":"1","railway":"rail","railway:traffic_mode":"mixed","ref":"HGL2","source":"GPS","start_date":"1863-09-09","usage":"main"},"geometry":{"coordinates":[[-3.77146,56.7403867],[-3.7716369,56.7407869],[-3.7717572,56.7409877]],"type":"LineString"}},{"id":"way/777526149","type":"Feature","properties":{"@id":"way/777526149","electrified":"no","gauge":"1435","maxspeed":"65 mph","name":"Highland Main Line","operator":"Network Rail","passenger_lines":"1","railway":"rail","railway:traffic_mode":"mixed","ref":"HGL2","source":"GPS","start_date":"1863-09-09","usage":"main"},"geometry":{"coordinates":[[-3.7797716,56.7443914],[-3.7799303,56.7444598],[-3.7801435,56.7445517],[-3.7807109,56.744785]],"type":"LineString"}},{"id":"way/777526150","type":"Feature","properties":{"@id":"way/777526150","electrified":"no","gauge":"1435","maxspeed":"15 mph","name":"Highland Main Line","operator":"Network Rail","railway":"rail","ref":"HGL2","service":"crossover"},"geometry":{"coordinates":[[-3.8558286,56.765968],[-3.8566736,56.7660413]],"type":"LineString"}},{"id":"way/777526151","type":"Feature","properties":{"@id":"way/777526151","electrified":"no","gauge":"1435","maxspeed":"70 mph","name":"Highland Main Line","operator":"Network Rail","passenger_lines":"2","railway":"rail","railway:traffic_mode":"mixed","ref":"HGL2","start_date":"1863-09-09","usage":"main"},"geometry":{"coordinates":[[-4.0109208,56.785231],[-4.0125087,56.7860421],[-4.0131738,56.7864476],[-4.0136917,56.7868906],[-4.0142057,56.7873831],[-4.0147188,56.787999],[-4.0149956,56.7885473],[-4.015261,56.7891522],[-4.0154698,56.7896033],[-4.01582,56.7901227],[-4.0162344,56.7905655],[-4.016768,56.7910249],[-4.0172508,56.7913642],[-4.0179053,56.7917557],[-4.0185381,56.7920715],[-4.0193915,56.7924155],[-4.0203882,56.7927242],[-4.0214029,56.7929703],[-4.0223205,56.7931597]],"type":"LineString"}},{"id":"way/777526153","type":"Feature","properties":{"@id":"way/777526153","electrified":"no","gauge":"1435","maxspeed":"75 mph","name":"Highland Main Line","operator":"Network Rail","passenger_lines":"2","railway":"rail","railway:traffic_mode":"mixed","ref":"HGL2","start_date":"1863-09-09","usage":"main"},"geometry":{"coordinates":[[-4.0230777,56.793316],[-4.0273667,56.7942015],[-4.0290633,56.7946214],[-4.0306992,56.7950888],[-4.03179,56.7953798],[-4.0336416,56.7957762],[-4.0396201,56.7969505],[-4.0424089,56.7975028],[-4.0450902,56.7980166],[-4.046441,56.7982096],[-4.0474749,56.7983096],[-4.048533,56.7983609],[-4.0495883,56.7983631],[-4.0541648,56.7982777],[-4.0580201,56.7981981],[-4.0593921,56.7981701],[-4.061105,56.7982081],[-4.0623177,56.798269],[-4.0634615,56.7983657],[-4.064235,56.7984315],[-4.0655018,56.7985884],[-4.0671124,56.7988374],[-4.0689877,56.7991547],[-4.0708193,56.7994543],[-4.0725657,56.7997904]],"type":"LineString"}},{"id":"way/777526157","type":"Feature","properties":{"@id":"way/777526157","electrified":"no","gauge":"1435","maxspeed":"75 mph","name":"Highland Main Line","operator":"Network Rail","passenger_lines":"2","railway":"rail","railway:traffic_mode":"mixed","ref":"HGL2","start_date":"1863-09-09","usage":"main"},"geometry":{"coordinates":[[-4.2453429,56.9281049],[-4.24574,56.9285433],[-4.2461108,56.928992],[-4.2464465,56.9294912],[-4.2467629,56.9300504],[-4.2470132,56.9306551],[-4.2471387,56.93119],[-4.2472118,56.9317306],[-4.2471837,56.9326294],[-4.2470527,56.9332445],[-4.2469519,56.933527],[-4.2468146,56.9339119],[-4.2466127,56.9343786]],"type":"LineString"}},{"id":"way/777526165","type":"Feature","properties":{"@id":"way/777526165","bridge":"yes","electrified":"no","gauge":"1435","layer":"1","maxspeed":"80 mph","name":"Highland Main Line","operator":"Network Rail","passenger_lines":"1","railway":"rail","railway:traffic_mode":"mixed","ref":"HGL2","source":"GPS","start_date":"1863-09-09","usage":"main"},"geometry":{"coordinates":[[-4.2430081,56.9388236],[-4.2429434,56.9388781]],"type":"LineString"}},{"id":"way/777526166","type":"Feature","properties":{"@id":"way/777526166","electrified":"no","gauge":"1435","layer":"1","maxspeed":"80 mph","name":"Highland Main Line","operator":"Network Rail","passenger_lines":"1","railway":"rail","railway:traffic_mode":"mixed","ref":"HGL2","source":"GPS","start_date":"1863-09-09","usage":"main"},"geometry":{"coordinates":[[-4.2432835,56.9385912],[-4.2430081,56.9388236]],"type":"LineString"}},{"id":"way/777526167","type":"Feature","properties":{"@id":"way/777526167","bridge":"yes","electrified":"no","gauge":"1435","layer":"1","maxspeed":"80 mph","name":"Highland Main Line","operator":"Network Rail","passenger_lines":"1","railway":"rail","railway:traffic_mode":"mixed","ref":"HGL2","source":"GPS","start_date":"1863-09-09","usage":"main"},"geometry":{"coordinates":[[-4.2396927,56.9412265],[-4.2395986,56.9412883]],"type":"LineString"}},{"id":"way/777526168","type":"Feature","properties":{"@id":"way/777526168","electrified":"no","gauge":"1435","maxspeed":"90 mph","name":"Highland Main Line","operator":"Network Rail","passenger_lines":"1","railway":"rail","railway:traffic_mode":"mixed","ref":"HGL2","source":"GPS","start_date":"1863-09-09","usage":"main"},"geometry":{"coordinates":[[-4.2307117,56.9467005],[-4.2261627,56.9494682],[-4.2230621,56.951364],[-4.2206318,56.9528252]],"type":"LineString"}},{"id":"way/777526169","type":"Feature","properties":{"@id":"way/777526169","electrified":"no","gauge":"1435","maxspeed":"70 mph","name":"Highland Main Line","operator":"Network Rail","passenger_lines":"1","railway":"rail","railway:traffic_mode":"mixed","ref":"HGL2","source":"GPS","start_date":"1863-09-09","usage":"main"},"geometry":{"coordinates":[[-4.1821432,56.9797304],[-4.1813591,56.9805022],[-4.1811746,56.9807122]],"type":"LineString"}},{"id":"way/777526170","type":"Feature","properties":{"@id":"way/777526170","electrified":"no","gauge":"1435","maxspeed":"75 mph","name":"Highland Main Line","operator":"Network Rail","passenger_lines":"1","railway":"rail","railway:traffic_mode":"mixed","ref":"HGL2","source":"GPS","start_date":"1863-09-09","usage":"main"},"geometry":{"coordinates":[[-4.1554876,57.0358235],[-4.1551227,57.0362068],[-4.154626,57.0367418],[-4.1535603,57.0378259],[-4.1529131,57.0385256],[-4.1520243,57.0394409],[-4.1502288,57.041351],[-4.1496058,57.0419827],[-4.1489796,57.0426474],[-4.1486207,57.0429865],[-4.1477789,57.0436749],[-4.1473051,57.0439972],[-4.1466657,57.0443712],[-4.1457103,57.0448661],[-4.1446449,57.0452791],[-4.1429068,57.0459269],[-4.1415086,57.0465175],[-4.140318,57.0470571],[-4.1388992,57.047739],[-4.1330256,57.0506247],[-4.1311802,57.0515059],[-4.1296245,57.0522703],[-4.1284122,57.0528888],[-4.1276933,57.0533148],[-4.1266526,57.0539814]],"type":"LineString"}},{"id":"way/777526171","type":"Feature","properties":{"@id":"way/777526171","electrified":"no","gauge":"1435","maxspeed":"65 mph","name":"Highland Main Line","operator":"Network Rail","passenger_lines":"1","railway":"rail","railway:traffic_mode":"mixed","ref":"HGL2","source":"GPS","start_date":"1863-09-09","usage":"main"},"geometry":{"coordinates":[[-4.1266526,57.0539814],[-4.1264191,57.0541376]],"type":"LineString"}},{"id":"way/777526172","type":"Feature","properties":{"@id":"way/777526172","electrified":"no","gauge":"1435","maxspeed":"80 mph","name":"Highland Main Line","operator":"Network Rail","passenger_lines":"1","railway":"rail","railway:traffic_mode":"mixed","ref":"HGL2","source":"GPS","start_date":"1863-09-09","usage":"main"},"geometry":{"coordinates":[[-4.1253325,57.0548376],[-4.1231038,57.0563337]],"type":"LineString"}},{"id":"way/777526173","type":"Feature","properties":{"@id":"way/777526173","electrified":"no","embankment":"yes","gauge":"1435","maxspeed":"75 mph","name":"Highland Main Line","operator":"Network Rail","passenger_lines":"1","railway":"rail","railway:traffic_mode":"mixed","ref":"HGL2","source":"GPS","start_date":"1863-09-09","usage":"main"},"geometry":{"coordinates":[[-4.0624487,57.0763852],[-4.0602754,57.076709]],"type":"LineString"}},{"id":"way/777526174","type":"Feature","properties":{"@id":"way/777526174","electrified":"no","gauge":"1435","maxspeed":"75 mph","name":"Highland Main Line","operator":"Network Rail","passenger_lines":"1","railway":"rail","railway:traffic_mode":"mixed","ref":"HGL2","source":"GPS","start_date":"1863-09-09","usage":"main"},"geometry":{"coordinates":[[-4.0494319,57.0785821],[-4.0493627,57.0786021]],"type":"LineString"}},{"id":"way/777526175","type":"Feature","properties":{"@id":"way/777526175","electrified":"no","gauge":"1435","maxspeed":"100 mph","name":"Highland Main Line","operator":"Network Rail","passenger_lines":"1","railway":"rail","railway:traffic_mode":"mixed","ref":"HGL2","source":"GPS","start_date":"1863-09-09","usage":"main"},"geometry":{"coordinates":[[-4.0056195,57.0911084],[-4.003963,57.0915859],[-4.0019568,57.0922271],[-4.0007659,57.0926526],[-3.9993918,57.0931434]],"type":"LineString"}},{"id":"way/777526176","type":"Feature","properties":{"@id":"way/777526176","electrified":"no","gauge":"1435","maxspeed":"90 mph","name":"Highland Main Line","operator":"Network Rail","passenger_lines":"1","railway":"rail","railway:traffic_mode":"mixed","ref":"HGL2","source":"GPS","start_date":"1863-09-09","usage":"main"},"geometry":{"coordinates":[[-3.9498777,57.1139352],[-3.9462374,57.1154873],[-3.9455327,57.1158506],[-3.9431043,57.1171857],[-3.9400002,57.1189816],[-3.9381948,57.1199968]],"type":"LineString"}},{"id":"way/777526177","type":"Feature","properties":{"@id":"way/777526177","electrified":"no","gauge":"1435","maxspeed":"75 mph","name":"Highland Main Line","operator":"Network Rail","passenger_lines":"1","railway":"rail","railway:traffic_mode":"mixed","ref":"HGL2","source":"GPS","start_date":"1863-09-09","usage":"main"},"geometry":{"coordinates":[[-3.9381948,57.1199968],[-3.9368012,57.1208398],[-3.9359696,57.1213877],[-3.9352081,57.1219937],[-3.9345257,57.1225162],[-3.9339902,57.1229866],[-3.9335489,57.1234719],[-3.9331579,57.1239287],[-3.9326754,57.1245455],[-3.9323482,57.1249673]],"type":"LineString"}},{"id":"way/777526178","type":"Feature","properties":{"@id":"way/777526178","electrified":"no","gauge":"1435","maxspeed":"75 mph","name":"Highland Main Line","operator":"Network Rail","passenger_lines":"1","railway":"rail","railway:traffic_mode":"mixed","ref":"HGL2","source":"GPS","start_date":"1863-09-09","usage":"main"},"geometry":{"coordinates":[[-3.9272265,57.1305093],[-3.927151,57.1305647]],"type":"LineString"}},{"id":"way/908405944","type":"Feature","properties":{"@id":"way/908405944","electrified":"no","gauge":"1435","maxspeed":"75 mph","name":"Highland Main Line","operator":"Network Rail","passenger_lines":"2","railway":"rail","railway:traffic_mode":"mixed","ref":"HGL2","start_date":"1863-09-09","usage":"main"},"geometry":{"coordinates":[[-4.2556216,56.8668897],[-4.2557315,56.8671197],[-4.2561369,56.8680611],[-4.2564931,56.8690173],[-4.2568601,56.8701753],[-4.2570555,56.8708845],[-4.2572121,56.8715962],[-4.2573934,56.8727755],[-4.2575069,56.8735618],[-4.257572,56.8743458],[-4.257595,56.8746538],[-4.2575982,56.8754582],[-4.2575876,56.8766579],[-4.2575427,56.877478]],"type":"LineString"}},{"id":"way/908405945","type":"Feature","properties":{"@id":"way/908405945","bridge":"yes","electrified":"no","gauge":"1435","layer":"1","maxspeed":"75 mph","name":"Highland Main Line","operator":"Network Rail","passenger_lines":"2","railway":"rail","railway:traffic_mode":"mixed","ref":"HGL2","start_date":"1863-09-09","usage":"main"},"geometry":{"coordinates":[[-4.2555824,56.8668078],[-4.2556216,56.8668897]],"type":"LineString"}},{"id":"way/926024881","type":"Feature","properties":{"@id":"way/926024881","electrified":"no","gauge":"1435","maxspeed":"80 mph","name":"Highland Main Line","operator":"Network Rail","passenger_lines":"1","railway":"rail","railway:traffic_mode":"mixed","ref":"HGL2","source":"GPS","start_date":"1863-06-01","usage":"main"},"geometry":{"coordinates":[[-3.6336903,56.5965475],[-3.6344191,56.5979292]],"type":"LineString"}},{"id":"way/926024882","type":"Feature","properties":{"@id":"way/926024882","bridge":"yes","electrified":"no","gauge":"1435","layer":"1","maxspeed":"80 mph","name":"Highland Main Line","operator":"Network Rail","passenger_lines":"1","railway":"rail","railway:traffic_mode":"mixed","ref":"HGL2","source":"GPS","start_date":"1863-06-01","usage":"main"},"geometry":{"coordinates":[[-3.6336447,56.5964612],[-3.6336903,56.5965475]],"type":"LineString"}},{"id":"way/926024884","type":"Feature","properties":{"@id":"way/926024884","electrified":"no","gauge":"1435","maxspeed":"80 mph","name":"Highland Main Line","operator":"Network Rail","passenger_lines":"1","railway":"rail","railway:traffic_mode":"mixed","ref":"HGL2","source":"GPS","start_date":"1863-06-01","usage":"main"},"geometry":{"coordinates":[[-3.6294738,56.588569],[-3.6301249,56.5897881],[-3.6313013,56.592021]],"type":"LineString"}},{"id":"way/926024885","type":"Feature","properties":{"@id":"way/926024885","bridge":"yes","electrified":"no","gauge":"1435","layer":"1","maxspeed":"80 mph","name":"Highland Main Line","operator":"Network Rail","passenger_lines":"1","railway":"rail","railway:traffic_mode":"mixed","ref":"HGL2","source":"GPS","start_date":"1863-06-01","usage":"main"},"geometry":{"coordinates":[[-3.6294278,56.5884827],[-3.6294738,56.588569]],"type":"LineString"}},{"id":"way/949133001","type":"Feature","properties":{"@id":"way/949133001","electrified":"no","gauge":"1435","maxspeed":"80 mph","name":"Highland Main Line","operator":"Network Rail","passenger_lines":"1","railway":"rail","railway:traffic_mode":"mixed","ref":"HGL2","source":"GPS","start_date":"1897-07-08","usage":"main"},"geometry":{"coordinates":[[-3.8075323,57.2341369],[-3.8075235,57.2344586],[-3.8075235,57.2359857],[-3.8075664,57.2369843],[-3.8075664,57.2380178],[-3.8075342,57.2388945],[-3.8075557,57.2393996],[-3.8075557,57.239777],[-3.8074591,57.2405839],[-3.8073197,57.2412341],[-3.8071266,57.2418959],[-3.8069227,57.2424765],[-3.8065043,57.2435911],[-3.8062682,57.244247],[-3.806,57.2451294],[-3.8058605,57.245971],[-3.805764,57.2467953],[-3.8057627,57.2468204]],"type":"LineString"}},{"id":"way/949133002","type":"Feature","properties":{"@id":"way/949133002","bridge":"yes","electrified":"no","gauge":"1435","layer":"1","maxspeed":"80 mph","name":"Highland Main Line","operator":"Network Rail","passenger_lines":"1","railway":"rail","railway:traffic_mode":"mixed","ref":"HGL2","source":"GPS","start_date":"1897-07-08","usage":"main"},"geometry":{"coordinates":[[-3.8057627,57.2468204],[-3.8057575,57.2469192]],"type":"LineString"}},{"id":"way/949521308","type":"Feature","properties":{"@id":"way/949521308","electrified":"no","gauge":"1435","maxspeed":"80 mph","name":"Highland Main Line","operator":"Network Rail","passenger_lines":"1","railway":"rail","railway:traffic_mode":"mixed","ref":"HGL2","source":"GPS","start_date":"1863-09-09","usage":"main"},"geometry":{"coordinates":[[-4.0231507,57.0860852],[-4.0173463,57.0877527],[-4.0116127,57.0894],[-4.0060659,57.0909797],[-4.0056195,57.0911084]],"type":"LineString"}},{"id":"way/949521309","type":"Feature","properties":{"@id":"way/949521309","bridge":"yes","electrified":"no","gauge":"1435","layer":"1","maxspeed":"80 mph","name":"Highland Main Line","operator":"Network Rail","passenger_lines":"1","railway":"rail","railway:traffic_mode":"mixed","ref":"HGL2","source":"GPS","start_date":"1863-09-09","usage":"main"},"geometry":{"coordinates":[[-4.0232515,57.0860562],[-4.0231507,57.0860852]],"type":"LineString"}},{"id":"way/965370148","type":"Feature","properties":{"@id":"way/965370148","electrified":"no","gauge":"1435","maxspeed":"65 mph","name":"Highland Main Line","operator":"Network Rail","passenger_lines":"1","railway":"rail","railway:traffic_mode":"mixed","ref":"HGL2","source":"GPS","start_date":"1863-06-01","usage":"main"},"geometry":{"coordinates":[[-3.6398944,56.6113462],[-3.6397058,56.6116459],[-3.6393943,56.61207]],"type":"LineString"}},{"id":"way/965370149","type":"Feature","properties":{"@id":"way/965370149","bridge":"yes","electrified":"no","gauge":"1435","layer":"1","maxspeed":"65 mph","name":"Highland Main Line","operator":"Network Rail","passenger_lines":"1","railway":"rail","railway:traffic_mode":"mixed","ref":"HGL2","source":"GPS","start_date":"1863-06-01","usage":"main"},"geometry":{"coordinates":[[-3.639974,56.6111765],[-3.6398944,56.6113462]],"type":"LineString"}},{"id":"way/965731661","type":"Feature","properties":{"@id":"way/965731661","bridge":"yes","electrified":"no","gauge":"1435","layer":"1","maxspeed":"80 mph","name":"Highland Main Line","operator":"Network Rail","passenger_lines":"1","railway":"rail","railway:traffic_mode":"mixed","ref":"HGL2","source":"GPS","start_date":"1863-06-01","usage":"main"},"geometry":{"coordinates":[[-3.6713139,56.6537885],[-3.6713465,56.6538374]],"type":"LineString"}},{"id":"way/965731662","type":"Feature","properties":{"@id":"way/965731662","electrified":"no","gauge":"1435","maxspeed":"80 mph","name":"Highland Main Line","operator":"Network Rail","passenger_lines":"1","railway":"rail","railway:traffic_mode":"mixed","ref":"HGL2","source":"GPS","start_date":"1863-06-01","usage":"main"},"geometry":{"coordinates":[[-3.6703073,56.6525842],[-3.6708895,56.653227],[-3.6713139,56.6537885]],"type":"LineString"}},{"id":"way/966283056","type":"Feature","properties":{"@id":"way/966283056","electrified":"no","gauge":"1435","maxspeed":"80 mph","name":"Highland Main Line","operator":"Network Rail","passenger_lines":"1","railway":"rail","railway:traffic_mode":"mixed","ref":"HGL2","source":"GPS","start_date":"1863-06-01","usage":"main"},"geometry":{"coordinates":[[-3.6248757,56.5796051],[-3.6259514,56.5819479],[-3.6260635,56.58216],[-3.6262931,56.5825942]],"type":"LineString"}},{"id":"way/966283057","type":"Feature","properties":{"@id":"way/966283057","bridge":"yes","electrified":"no","gauge":"1435","layer":"1","maxspeed":"80 mph","name":"Highland Main Line","operator":"Network Rail","passenger_lines":"1","railway":"rail","railway:traffic_mode":"mixed","ref":"HGL2","source":"GPS","start_date":"1863-06-01","usage":"main"},"geometry":{"coordinates":[[-3.624854,56.5795579],[-3.6248757,56.5796051]],"type":"LineString"}},{"id":"way/966283073","type":"Feature","properties":{"@id":"way/966283073","electrified":"no","gauge":"1435","maxspeed":"80 mph","name":"Highland Main Line","operator":"Network Rail","passenger_lines":"1","railway":"rail","railway:traffic_mode":"mixed","ref":"HGL2","source":"GPS","start_date":"1863-06-01","usage":"main"},"geometry":{"coordinates":[[-3.6263297,56.5826634],[-3.627295,56.5844892],[-3.6281043,56.5860045],[-3.6294278,56.5884827]],"type":"LineString"}},{"id":"way/966283074","type":"Feature","properties":{"@id":"way/966283074","bridge":"yes","electrified":"no","gauge":"1435","layer":"1","maxspeed":"80 mph","name":"Highland Main Line","operator":"Network Rail","passenger_lines":"1","railway":"rail","railway:traffic_mode":"mixed","ref":"HGL2","source":"GPS","start_date":"1863-06-01","usage":"main"},"geometry":{"coordinates":[[-3.6262931,56.5825942],[-3.6263297,56.5826634]],"type":"LineString"}},{"id":"way/966703177","type":"Feature","properties":{"@id":"way/966703177","electrified":"no","gauge":"1435","maxspeed":"80 mph","name":"Highland Main Line","operator":"Network Rail","passenger_lines":"1","railway":"rail","railway:traffic_mode":"mixed","ref":"HGL2","source":"GPS","start_date":"1856-04-07","usage":"main"},"geometry":{"coordinates":[[-3.4771527,56.5322922],[-3.4777438,56.5323382],[-3.4843415,56.5329185]],"type":"LineString"}},{"id":"way/966703178","type":"Feature","properties":{"@id":"way/966703178","bridge":"yes","electrified":"no","gauge":"1435","layer":"1","maxspeed":"80 mph","name":"Highland Main Line","operator":"Network Rail","passenger_lines":"1","railway":"rail","railway:traffic_mode":"mixed","ref":"HGL2","source":"GPS","start_date":"1856-04-07","usage":"main","wikimedia_commons":"File:Railway Bridge - Highland Mainline near Murthly.jpg"},"geometry":{"coordinates":[[-3.4768343,56.5322651],[-3.4771527,56.5322922]],"type":"LineString"}},{"id":"way/1007078304","type":"Feature","properties":{"@id":"way/1007078304","electrified":"no","gauge":"1435","maxspeed":"65 mph","name":"Highland Main Line","operator":"Network Rail","passenger_lines":"1","railway":"rail","railway:traffic_mode":"mixed","ref":"HGL2","source":"GPS","start_date":"1856-04-07","usage":"main"},"geometry":{"coordinates":[[-3.5590167,56.5447854],[-3.5590957,56.5448229],[-3.5595696,56.5450724],[-3.5605359,56.545662],[-3.5613019,56.5461966]],"type":"LineString"}},{"id":"way/1007078305","type":"Feature","properties":{"@id":"way/1007078305","bridge":"yes","electrified":"no","gauge":"1435","layer":"1","maxspeed":"65 mph","name":"Highland Main Line","operator":"Network Rail","passenger_lines":"1","railway":"rail","railway:traffic_mode":"mixed","ref":"HGL2","source":"GPS","start_date":"1856-04-07","usage":"main"},"geometry":{"coordinates":[[-3.5589184,56.5447387],[-3.5590167,56.5447854]],"type":"LineString"}},{"id":"way/1009118221","type":"Feature","properties":{"@id":"way/1009118221","bridge":"yes","electrified":"no","gauge":"1435","layer":"1","maxspeed":"75 mph","name":"Highland Main Line","operator":"Network Rail","passenger_lines":"2","railway":"rail","railway:traffic_mode":"mixed","ref":"HGL2","start_date":"1863-09-09","usage":"main"},"geometry":{"coordinates":[[-4.2218905,56.8306441],[-4.2220082,56.8307]],"type":"LineString"}},{"id":"way/1009118222","type":"Feature","properties":{"@id":"way/1009118222","electrified":"no","gauge":"1435","maxspeed":"75 mph","name":"Highland Main Line","operator":"Network Rail","passenger_lines":"2","railway":"rail","railway:traffic_mode":"mixed","ref":"HGL2","start_date":"1863-09-09","usage":"main"},"geometry":{"coordinates":[[-4.2033285,56.8241058],[-4.2040889,56.8243061],[-4.2048553,56.8245465],[-4.2055575,56.8248079],[-4.206472,56.8251668],[-4.2072611,56.8254645],[-4.2077652,56.825645],[-4.2082473,56.8258046],[-4.213999,56.8276263],[-4.2163808,56.8284977],[-4.219476,56.8296355],[-4.2205493,56.8300415],[-4.2215572,56.8304793],[-4.2218905,56.8306441]],"type":"LineString"}},{"id":"way/1018384619","type":"Feature","properties":{"@id":"way/1018384619","bridge":"yes","electrified":"no","gauge":"1435","layer":"1","maxspeed":"80 mph","name":"Highland Main Line","operator":"Network Rail","passenger_lines":"1","railway":"rail","railway:traffic_mode":"mixed","ref":"HGL2","source":"GPS","start_date":"1897-07-08","usage":"main"},"geometry":{"coordinates":[[-3.8227739,57.1993294],[-3.8227326,57.1993913]],"type":"LineString"}},{"id":"way/1021277490","type":"Feature","properties":{"@id":"way/1021277490","bridge":"yes","electrified":"no","gauge":"1435","layer":"1","maxspeed":"70 mph","name":"Highland Main Line","operator":"Network Rail","passenger_lines":"1","railway":"rail","railway:traffic_mode":"mixed","ref":"HGL2","source":"GPS","start_date":"1898-11-01","usage":"main"},"geometry":{"coordinates":[[-4.0648628,57.4818286],[-4.0649096,57.481914]],"type":"LineString"}},{"id":"way/1021277493","type":"Feature","properties":{"@id":"way/1021277493","electrified":"no","embankment":"yes","gauge":"1435","maxspeed":"75 mph","name":"Highland Main Line","operator":"Network Rail","passenger_lines":"1","railway":"rail","railway:traffic_mode":"mixed","ref":"HGL2","source":"GPS","start_date":"1898-11-01","usage":"main"},"geometry":{"coordinates":[[-4.0780259,57.4647931],[-4.077514,57.4650814],[-4.0770439,57.4653326],[-4.0760175,57.4658437],[-4.0758677,57.4659074],[-4.0749875,57.4662816]],"type":"LineString"}},{"id":"way/1021277494","type":"Feature","properties":{"@id":"way/1021277494","electrified":"no","gauge":"1435","maxspeed":"75 mph","name":"Highland Main Line","operator":"Network Rail","passenger_lines":"1","railway":"rail","railway:traffic_mode":"mixed","ref":"HGL2","source":"GPS","start_date":"1898-11-01","usage":"main"},"geometry":{"coordinates":[[-4.0749875,57.4662816],[-4.074297,57.4665751],[-4.0721379,57.4674208],[-4.0719783,57.4674839]],"type":"LineString"}},{"id":"way/1021277495","type":"Feature","properties":{"@id":"way/1021277495","electrified":"no","embankment":"yes","gauge":"1435","maxspeed":"75 mph","name":"Highland Main Line","operator":"Network Rail","passenger_lines":"1","railway":"rail","railway:traffic_mode":"mixed","ref":"HGL2","source":"GPS","start_date":"1898-11-01","usage":"main"},"geometry":{"coordinates":[[-4.0623324,57.4729925],[-4.062119,57.4733744],[-4.0620203,57.4736364],[-4.0618846,57.4739876],[-4.0617867,57.4743276],[-4.0617271,57.474614],[-4.0616854,57.4750606]],"type":"LineString"}},{"id":"way/1021277496","type":"Feature","properties":{"@id":"way/1021277496","electrified":"no","gauge":"1435","maxspeed":"75 mph","name":"Highland Main Line","operator":"Network Rail","passenger_lines":"1","railway":"rail","railway:traffic_mode":"mixed","ref":"HGL2","source":"GPS","start_date":"1898-11-01","usage":"main"},"geometry":{"coordinates":[[-4.0632318,57.4718268],[-4.0629128,57.4721712],[-4.0625036,57.4727052],[-4.0623324,57.4729925]],"type":"LineString"}},{"id":"way/1021291426","type":"Feature","properties":{"@id":"way/1021291426","electrified":"no","gauge":"1435","maxspeed":"15 mph","name":"Highland Main Line","operator":"Network Rail","railway":"rail","ref":"HGL2"},"geometry":{"coordinates":[[-4.2175237,57.481911],[-4.2179695,57.4818351],[-4.2185529,57.4817154],[-4.2192451,57.4815633]],"type":"LineString"}},{"id":"way/1021291429","type":"Feature","properties":{"@id":"way/1021291429","electrified":"no","gauge":"1435","maxspeed":"15 mph","name":"Highland Main Line","operator":"Network Rail","railway":"rail","ref":"HGL2"},"geometry":{"coordinates":[[-4.2209508,57.4812123],[-4.2212298,57.4810962],[-4.2214704,57.4809939],[-4.2215837,57.4809426]],"type":"LineString"}},{"id":"way/1078237883","type":"Feature","properties":{"@id":"way/1078237883","electrified":"no","gauge":"1435","maxspeed":"60 mph","name":"Highland Main Line","operator":"Network Rail","passenger_lines":"1","railway":"rail","railway:traffic_mode":"mixed","ref":"HGL2","source":"GPS","start_date":"1897-07-08","usage":"main"},"geometry":{"coordinates":[[-3.992589,57.3366537],[-3.9935481,57.3368565],[-3.9943829,57.3370237]],"type":"LineString"}},{"id":"way/1078237884","type":"Feature","properties":{"@id":"way/1078237884","bridge":"yes","electrified":"no","gauge":"1435","layer":"1","maxspeed":"60 mph","name":"Highland Main Line","operator":"Network Rail","passenger_lines":"1","railway":"rail","railway:traffic_mode":"mixed","ref":"HGL2","source":"GPS;survey","start_date":"1897-07-08","usage":"main"},"geometry":{"coordinates":[[-3.9943829,57.3370237],[-3.9945167,57.3370505]],"type":"LineString"}},{"id":"way/1119996097","type":"Feature","properties":{"@id":"way/1119996097","electrified":"no","gauge":"1435","maxspeed":"75 mph","name":"Highland Main Line","operator":"Network Rail","passenger_lines":"1","railway":"rail","railway:traffic_mode":"mixed","ref":"HGL2","source":"GPS","start_date":"1897-07-08","usage":"main"},"geometry":{"coordinates":[[-3.8685415,57.2959891],[-3.8699469,57.2962906],[-3.8711593,57.2965398],[-3.872554,57.2968007],[-3.8737986,57.2969572],[-3.8759122,57.2971949],[-3.8770387,57.2972586],[-3.8790021,57.297334],[-3.8801715,57.2973456],[-3.8809181,57.2973355]],"type":"LineString"}},{"id":"way/1119996098","type":"Feature","properties":{"@id":"way/1119996098","bridge":"yes","electrified":"no","gauge":"1435","layer":"1","maxspeed":"75 mph","name":"Highland Main Line","operator":"Network Rail","passenger_lines":"1","railway":"rail","railway:traffic_mode":"mixed","ref":"HGL2","source":"GPS","start_date":"1897-07-08","usage":"main"},"geometry":{"coordinates":[[-3.8809181,57.2973355],[-3.8811085,57.2973326]],"type":"LineString"}},{"id":"way/1120320940","type":"Feature","properties":{"@id":"way/1120320940","electrified":"no","embankment":"yes","gauge":"1435","maxspeed":"75 mph","name":"Highland Main Line","operator":"Network Rail","passenger_lines":"1","railway":"rail","railway:traffic_mode":"mixed","ref":"HGL2","source":"GPS","start_date":"1863-09-09","usage":"main"},"geometry":{"coordinates":[[-4.060123,57.0767317],[-4.0596745,57.0768029]],"type":"LineString"}},{"id":"way/1120320941","type":"Feature","properties":{"@id":"way/1120320941","bridge":"yes","electrified":"no","gauge":"1435","layer":"1","maxspeed":"75 mph","name":"Highland Main Line","operator":"Network Rail","passenger_lines":"1","railway":"rail","railway:traffic_mode":"mixed","ref":"HGL2","source":"GPS","start_date":"1863-09-09","usage":"main"},"geometry":{"coordinates":[[-4.0602754,57.076709],[-4.060123,57.0767317]],"type":"LineString"}},{"id":"way/1120651851","type":"Feature","properties":{"@id":"way/1120651851","electrified":"no","gauge":"1435","maxspeed":"75 mph","name":"Highland Main Line","operator":"Network Rail","passenger_lines":"2","railway":"rail","railway:traffic_mode":"mixed","ref":"HGL2","start_date":"1863-09-09","usage":"main"},"geometry":{"coordinates":[[-3.9068017,56.7713965],[-3.9080244,56.7714125],[-3.9093059,56.7713981],[-3.9109224,56.7713893],[-3.9118361,56.7713941],[-3.9128311,56.7714126],[-3.9137812,56.7714731],[-3.9198435,56.7720419]],"type":"LineString"}},{"id":"way/1120651852","type":"Feature","properties":{"@id":"way/1120651852","bridge":"yes","electrified":"no","gauge":"1435","layer":"1","maxspeed":"75 mph","name":"Highland Main Line","operator":"Network Rail","passenger_lines":"2","railway":"rail","railway:traffic_mode":"mixed","ref":"HGL2","start_date":"1863-09-09","usage":"main"},"geometry":{"coordinates":[[-3.9066987,56.7713944],[-3.9068017,56.7713965]],"type":"LineString"}},{"id":"way/1120651872","type":"Feature","properties":{"@id":"way/1120651872","electrified":"no","gauge":"1435","maxspeed":"75 mph","name":"Highland Main Line","operator":"Network Rail","passenger_lines":"2","railway":"rail","railway:traffic_mode":"mixed","ref":"HGL2","start_date":"1863-09-09","usage":"main"},"geometry":{"coordinates":[[-3.9393071,56.7692109],[-3.9406666,56.7689968],[-3.9420851,56.7688367],[-3.9445968,56.7685701]],"type":"LineString"}},{"id":"way/1120651873","type":"Feature","properties":{"@id":"way/1120651873","bridge":"yes","electrified":"no","gauge":"1435","layer":"1","maxspeed":"75 mph","name":"Highland Main Line","operator":"Network Rail","passenger_lines":"2","railway":"rail","railway:traffic_mode":"mixed","ref":"HGL2","start_date":"1863-09-09","usage":"main"},"geometry":{"coordinates":[[-3.9384122,56.7693937],[-3.9385073,56.7693752]],"type":"LineString"}},{"id":"way/1120651877","type":"Feature","properties":{"@id":"way/1120651877","electrified":"no","gauge":"1435","maxspeed":"75 mph","name":"Highland Main Line","operator":"Network Rail","passenger_lines":"2","railway":"rail","railway:traffic_mode":"mixed","ref":"HGL2","start_date":"1863-09-09","usage":"main"},"geometry":{"coordinates":[[-3.9385073,56.7693752],[-3.9392289,56.7692265]],"type":"LineString"}},{"id":"way/1120651878","type":"Feature","properties":{"@id":"way/1120651878","bridge":"yes","electrified":"no","gauge":"1435","layer":"1","maxspeed":"75 mph","name":"Highland Main Line","operator":"Network Rail","passenger_lines":"2","railway":"rail","railway:traffic_mode":"mixed","ref":"HGL2","start_date":"1863-09-09","usage":"main"},"geometry":{"coordinates":[[-3.9392289,56.7692265],[-3.9393071,56.7692109]],"type":"LineString"}},{"id":"way/1120651880","type":"Feature","properties":{"@id":"way/1120651880","bridge":"yes","electrified":"no","gauge":"1435","layer":"1","maxspeed":"75 mph","name":"Highland Main Line","operator":"Network Rail","passenger_lines":"2","railway":"rail","railway:traffic_mode":"mixed","ref":"HGL2","usage":"main"},"geometry":{"coordinates":[[-3.9392113,56.7692],[-3.9392889,56.769186]],"type":"LineString"}},{"id":"way/1120651891","type":"Feature","properties":{"@id":"way/1120651891","electrified":"no","gauge":"1435","maxspeed":"75 mph","name":"Highland Main Line","operator":"Network Rail","passenger_lines":"2","railway":"rail","railway:traffic_mode":"mixed","ref":"HGL2","start_date":"1863-09-09","usage":"main"},"geometry":{"coordinates":[[-4.0223205,56.7931597],[-4.0229373,56.793287]],"type":"LineString"}},{"id":"way/1120651892","type":"Feature","properties":{"@id":"way/1120651892","bridge":"yes","electrified":"no","gauge":"1435","layer":"1","maxspeed":"75 mph","name":"Highland Main Line","operator":"Network Rail","passenger_lines":"2","railway":"rail","railway:traffic_mode":"mixed","ref":"HGL2","start_date":"1863-09-09","usage":"main"},"geometry":{"coordinates":[[-4.0229373,56.793287],[-4.0230777,56.793316]],"type":"LineString"}},{"id":"way/1120651895","type":"Feature","properties":{"@id":"way/1120651895","electrified":"no","gauge":"1435","maxspeed":"75 mph","name":"Highland Main Line","operator":"Network Rail","passenger_lines":"2","railway":"rail","railway:traffic_mode":"mixed","ref":"HGL2","start_date":"1863-09-09","usage":"main"},"geometry":{"coordinates":[[-4.0026251,56.7796317],[-4.0029329,56.7797753],[-4.0030523,56.7798309],[-4.0040679,56.7803679],[-4.0050521,56.7809523],[-4.0058342,56.7815122],[-4.0067151,56.7821984],[-4.007801,56.7831758],[-4.0084746,56.783703],[-4.0089467,56.7840439],[-4.0096254,56.7845014],[-4.0109208,56.785231]],"type":"LineString"}},{"id":"way/1120651896","type":"Feature","properties":{"@id":"way/1120651896","bridge":"yes","electrified":"no","gauge":"1435","layer":"1","maxspeed":"75 mph","name":"Highland Main Line","operator":"Network Rail","passenger_lines":"2","railway":"rail","railway:traffic_mode":"mixed","ref":"HGL2","start_date":"1863-09-09","usage":"main"},"geometry":{"coordinates":[[-4.0025364,56.7795901],[-4.0026251,56.7796317]],"type":"LineString"}},{"id":"way/1120655354","type":"Feature","properties":{"@id":"way/1120655354","electrified":"no","gauge":"1435","maxspeed":"55 mph","name":"Highland Main Line","operator":"Network Rail","passenger_lines":"1","railway":"rail","railway:traffic_mode":"mixed","ref":"HGL2","source":"GPS","start_date":"1863-06-01","usage":"main"},"geometry":{"coordinates":[[-3.6086106,56.5607698],[-3.6087242,56.5608058]],"type":"LineString"}},{"id":"way/1206993242","type":"Feature","properties":{"@id":"way/1206993242","bridge":"yes","electrified":"no","gauge":"1435","layer":"1","maxspeed":"75 mph","name":"Highland Main Line","operator":"Network Rail","passenger_lines":"1","railway":"rail","railway:traffic_mode":"mixed","ref":"HGL2","source":"GPS","start_date":"1897-07-08","usage":"main"},"geometry":{"coordinates":[[-3.8872111,57.2968097],[-3.8873115,57.2967953]],"type":"LineString"}},{"id":"way/1206993243","type":"Feature","properties":{"@id":"way/1206993243","electrified":"no","gauge":"1435","maxspeed":"75 mph","name":"Highland Main Line","operator":"Network Rail","passenger_lines":"1","railway":"rail","railway:traffic_mode":"mixed","ref":"HGL2","source":"GPS","start_date":"1897-07-08","usage":"main"},"geometry":{"coordinates":[[-3.8811085,57.2973326],[-3.8818452,57.2973224],[-3.8834224,57.2972412],[-3.8848815,57.2971137],[-3.8863084,57.2969398],[-3.8872111,57.2968097]],"type":"LineString"}}]}