{"type":"FeatureCollection","features":[{"id":"way/3981261","type":"Feature","properties":{"@id":"way/3981261","bridge":"viaduct","electrified":"rail","frequency":"0","gauge":"1435","layer":"1","maxspeed":"20 mph","name":"Greenwich Park Branch Line","operator":"Network Rail","railway":"rail","ref":"NTL","usage":"main","voltage":"750"},"geometry":{"coordinates":[[-0.0199212,51.4678999],[-0.0193947,51.4677135],[-0.0189686,51.4675675],[-0.0186606,51.4674473],[-0.0182325,51.467276],[-0.0157334,51.4662729]],"type":"LineString"}},{"id":"way/4415277","type":"Feature","properties":{"@id":"way/4415277","electrified":"rail","frequency":"0","gauge":"1435","layer":"-1","maxspeed":"60 mph","name":"South Eastern Main Line","operator":"Network Rail","passenger_lines":"4","railway":"rail","ref":"XTD","track_detail":"yes","tunnel":"yes","usage":"main","voltage":"750"},"geometry":{"coordinates":[[-0.027746,51.4716894],[-0.0269296,51.4711827]],"type":"LineString"}},{"id":"way/10055772","type":"Feature","properties":{"@id":"way/10055772","bridge":"viaduct","electrified":"rail","frequency":"0","gauge":"1435","layer":"1","maxspeed":"40 mph","name":"North Kent Line (Blackheath)","operator":"Network Rail","passenger_lines":"2","railway":"rail","ref":"BEX","usage":"main","voltage":"750"},"geometry":{"coordinates":[[-0.0145602,51.4659681],[-0.0140817,51.4658319],[-0.0136717,51.4657313],[-0.0133494,51.465658],[-0.0130335,51.4655922],[-0.012701,51.465529],[-0.0123326,51.4654694],[-0.0117947,51.4653892],[-0.0109054,51.4652718],[-0.0107679,51.4652527]],"type":"LineString"}},{"id":"way/38247183","type":"Feature","properties":{"@id":"way/38247183","bridge":"viaduct","electrified":"rail","frequency":"0","gauge":"1435","layer":"1","maxspeed":"60 mph","name":"South Eastern Main Line","operator":"Network Rail","passenger_lines":"6","railway":"rail","ref":"XTD","track_detail":"yes","tracks":"6","usage":"main","voltage":"750"},"geometry":{"coordinates":[[-0.042059,51.4845031],[-0.0430083,51.4848978],[-0.0439102,51.4852141],[-0.0444963,51.4854131],[-0.0451883,51.4856665],[-0.04547,51.4857722],[-0.0461519,51.4860264],[-0.0468784,51.4862663],[-0.0472914,51.486408],[-0.0476877,51.486551],[-0.0482029,51.4867421],[-0.0485839,51.4868948],[-0.0489959,51.4870685],[-0.0492739,51.4871948],[-0.0495964,51.4873479],[-0.0498677,51.4874864],[-0.050096,51.487605],[-0.0504045,51.4877526],[-0.0507167,51.4878946]],"type":"LineString"}},{"id":"way/86454114","type":"Feature","properties":{"@id":"way/86454114","bridge":"yes","electrified":"rail","frequency":"0","gauge":"1435","layer":"1","maxspeed":"20 mph","name":"South Eastern Main Line","operator":"Network Rail","railway":"rail","railway:aws":"yes","railway:etcs":"2","railway:tpws":"yes","ref":"XTD","usage":"main","voltage":"750"},"geometry":{"coordinates":[[-0.0857382,51.5049843],[-0.0853881,51.5046756],[-0.0847055,51.5042073],[-0.0841047,51.5038108],[-0.0835685,51.5035243],[-0.0834516,51.5034619],[-0.0831847,51.5033442]],"type":"LineString"}},{"id":"way/109496079","type":"Feature","properties":{"@id":"way/109496079","electrified":"rail","frequency":"0","gauge":"1435","layer":"1","maxspeed":"60 mph","name":"South Eastern Main Line","operator":"Network Rail","passenger_lines":"6","railway":"rail","ref":"XTD","track_detail":"yes","tracks":"6","usage":"main","voltage":"750"},"geometry":{"coordinates":[[-0.0376262,51.4825105],[-0.0378094,51.4826332],[-0.0383433,51.4829475],[-0.0388618,51.4832171],[-0.0397156,51.4836081],[-0.0409011,51.4840569],[-0.042059,51.4845031]],"type":"LineString"}},{"id":"way/109508317","type":"Feature","properties":{"@id":"way/109508317","bridge":"viaduct","electrified":"rail","frequency":"0","gauge":"1435","layer":"1","maxspeed":"45 mph","name":"North Kent Line (Blackheath)","operator":"Network Rail","passenger_lines":"2","railway":"rail","ref":"BEX","usage":"main","voltage":"750"},"geometry":{"coordinates":[[-0.0107788,51.4652199],[-0.0116139,51.465331],[-0.012286,51.4654307],[-0.0127112,51.4654989],[-0.0132249,51.4655987],[-0.0135485,51.465668],[-0.0138629,51.4657452],[-0.0142369,51.4658434],[-0.0145929,51.4659457]],"type":"LineString"}},{"id":"way/147298939","type":"Feature","properties":{"@id":"way/147298939","electrified":"rail","embankment":"yes","frequency":"0","gauge":"1435","maxspeed":"30 mph","name":"Lewisham Vale and Tanners Hill Line","operator":"Network Rail","railway":"rail","ref":"LVT","usage":"main","voltage":"750"},"geometry":{"coordinates":[[-0.021145,51.4683231],[-0.0214291,51.4684409],[-0.0216951,51.4685626],[-0.0220058,51.4687123],[-0.0222967,51.4688661],[-0.0227463,51.4690846],[-0.0232824,51.4693368],[-0.024196,51.4697776],[-0.0254139,51.4703302],[-0.0260207,51.470638]],"type":"LineString"}},{"id":"way/161752022","type":"Feature","properties":{"@id":"way/161752022","bridge":"yes","electrified":"rail","frequency":"0","gauge":"1435","layer":"1","maxspeed":"60 mph","name":"South Eastern Main Line","operator":"Network Rail","passenger_lines":"6","railway":"rail","ref":"XTD","track_detail":"yes","tracks":"6","usage":"main","voltage":"750"},"geometry":{"coordinates":[[-0.0368272,51.4818747],[-0.0370474,51.4820664]],"type":"LineString"}},{"id":"way/161752023","type":"Feature","properties":{"@id":"way/161752023","electrified":"rail","frequency":"0","gauge":"1435","maxspeed":"60 mph","name":"South Eastern Main Line","operator":"Network Rail","passenger_lines":"4","railway":"rail","ref":"XTD","track_detail":"yes","tracks":"4","usage":"main","voltage":"750"},"geometry":{"coordinates":[[-0.027804,51.4716552],[-0.0284848,51.4721071],[-0.0286515,51.4722165],[-0.029309,51.4727063],[-0.0295496,51.4728961],[-0.0299214,51.4731976],[-0.0302807,51.4735038],[-0.0312655,51.4744522],[-0.0316845,51.474932],[-0.0319468,51.4752338],[-0.0322202,51.475564],[-0.0325892,51.476023],[-0.0329604,51.4765318],[-0.0333106,51.4770455],[-0.0336129,51.4774871],[-0.0339107,51.4779412],[-0.0342597,51.4784403],[-0.0345276,51.4788051],[-0.0347456,51.4791282]],"type":"LineString"}},{"id":"way/161752028","type":"Feature","properties":{"@id":"way/161752028","electrified":"rail","frequency":"0","gauge":"1435","maxspeed":"60 mph","name":"South Eastern Main Line","operator":"Network Rail","passenger_lines":"6","railway":"rail","ref":"XTD","track_detail":"yes","tracks":"6","usage":"main","voltage":"750"},"geometry":{"coordinates":[[-0.0419844,51.484512],[-0.0412885,51.4842503],[-0.0406147,51.483986],[-0.0396998,51.483635],[-0.0392643,51.4834488],[-0.038862,51.4832515],[-0.0385437,51.4830987],[-0.0382736,51.4829563],[-0.037874,51.482722],[-0.037585,51.48253]],"type":"LineString"}},{"id":"way/161752034","type":"Feature","properties":{"@id":"way/161752034","bridge":"viaduct","electrified":"rail","frequency":"0","gauge":"1435","layer":"1","maxspeed":"60 mph","name":"South Eastern Main Line","operator":"Network Rail","railway":"rail","railway:etcs":"2","ref":"XTD","track_detail":"yes","usage":"main","voltage":"750"},"geometry":{"coordinates":[[-0.0781346,51.5008599],[-0.0761803,51.4998102],[-0.0748195,51.4990767],[-0.0735566,51.4984041],[-0.0722508,51.497714],[-0.0709276,51.4970398],[-0.0696983,51.4964516],[-0.0685562,51.4959169],[-0.0666332,51.4950397],[-0.0628309,51.4933551],[-0.0614664,51.4928011]],"type":"LineString"}},{"id":"way/161752037","type":"Feature","properties":{"@id":"way/161752037","bridge":"yes","electrified":"rail","frequency":"0","gauge":"1435","layer":"1","maxspeed":"60 mph","name":"South Eastern Main Line","operator":"Network Rail","passenger_lines":"6","railway":"rail","ref":"XTD","track_detail":"yes","tracks":"6","usage":"main","voltage":"750"},"geometry":{"coordinates":[[-0.036957,51.4820443],[-0.0367348,51.481847]],"type":"LineString"}},{"id":"way/161752076","type":"Feature","properties":{"@id":"way/161752076","bridge":"viaduct","electrified":"rail","frequency":"0","gauge":"1435","layer":"1","maxspeed":"60 mph","name":"South Eastern Main Line","operator":"Network Rail","railway":"rail","railway:etcs":"2","ref":"XTD","track_detail":"yes","usage":"main","voltage":"750"},"geometry":{"coordinates":[[-0.0614999,51.4927677],[-0.0628554,51.4933235],[-0.0666692,51.4950111],[-0.0677268,51.4955033],[-0.0688635,51.4960155],[-0.0698607,51.4964859],[-0.0714885,51.4972904],[-0.0730386,51.4980833],[-0.0744289,51.4988185],[-0.0760635,51.4997024],[-0.0781711,51.5008331]],"type":"LineString"}},{"id":"way/161752089","type":"Feature","properties":{"@id":"way/161752089","electrified":"rail","frequency":"0","gauge":"1435","maxspeed":"60 mph","name":"South Eastern Main Line","operator":"Network Rail","passenger_lines":"4","railway":"rail","ref":"XTD","track_detail":"yes","tracks":"4","usage":"main","voltage":"750"},"geometry":{"coordinates":[[-0.0367348,51.481847],[-0.0365305,51.4816451],[-0.0363376,51.4814288],[-0.0361557,51.4812151],[-0.0359283,51.4809259],[-0.0356608,51.4805688],[-0.0353756,51.4801778],[-0.0350055,51.4796247]],"type":"LineString"}},{"id":"way/163640723","type":"Feature","properties":{"@id":"way/163640723","electrified":"rail","frequency":"0","gauge":"1435","maxspeed":"60 mph","name":"South Eastern Main Line","operator":"Network Rail","passenger_lines":"4","railway":"rail","ref":"XTD","track_detail":"yes","tracks":"4","usage":"main","voltage":"750"},"geometry":{"coordinates":[[-0.0312633,51.4745492],[-0.030932,51.4742065],[-0.0305535,51.4738452],[-0.0301107,51.4734069],[-0.0296939,51.4730809],[-0.0292431,51.4727291],[-0.0285885,51.4722483],[-0.0284274,51.4721409],[-0.027746,51.4716894]],"type":"LineString"}},{"id":"way/163641898","type":"Feature","properties":{"@id":"way/163641898","bridge":"viaduct","electrified":"rail","frequency":"0","gauge":"1435","layer":"1","maxspeed":"20 mph","operator":"Network Rail","railway":"rail","service":"crossover","voltage":"750"},"geometry":{"coordinates":[[-0.0157722,51.466254],[-0.0154818,51.4661687],[-0.0152992,51.4661151],[-0.0151327,51.4660662],[-0.0147906,51.4659766],[-0.0145929,51.4659457]],"type":"LineString"}},{"id":"way/163641902","type":"Feature","properties":{"@id":"way/163641902","bridge":"viaduct","electrified":"rail","frequency":"0","gauge":"1435","layer":"1","maxspeed":"20 mph","operator":"Network Rail","railway":"rail","service":"crossover","voltage":"750"},"geometry":{"coordinates":[[-0.0157334,51.4662729],[-0.0154413,51.4661917],[-0.0152819,51.4661497],[-0.0150507,51.4660802],[-0.0145602,51.4659681]],"type":"LineString"}},{"id":"way/163642047","type":"Feature","properties":{"@id":"way/163642047","electrified":"rail","frequency":"0","gauge":"1435","layer":"-1","maxspeed":"60 mph","name":"South Eastern Main Line","operator":"Network Rail","passenger_lines":"4","railway":"rail","ref":"XTD","source":"Bing","track_detail":"yes","tunnel":"yes","usage":"main","voltage":"750"},"geometry":{"coordinates":[[-0.0269848,51.4711458],[-0.027804,51.4716552]],"type":"LineString"}},{"id":"way/174843563","type":"Feature","properties":{"@id":"way/174843563","bridge":"viaduct","electrified":"rail","frequency":"0","gauge":"1435","layer":"1","maxspeed":"60 mph","operator":"Network Rail","passenger_lines":"6","railway":"rail","ref":"XTD","track_detail":"yes","tracks":"6","usage":"main","voltage":"750"},"geometry":{"coordinates":[[-0.057715,51.491163],[-0.0552724,51.4901065],[-0.0550136,51.489998],[-0.054742,51.4898811],[-0.0545122,51.4897854],[-0.0539189,51.4895267],[-0.0534857,51.4893301]],"type":"LineString"}},{"id":"way/174843567","type":"Feature","properties":{"@id":"way/174843567","bridge":"viaduct","electrified":"rail","frequency":"0","gauge":"1435","layer":"1","maxspeed":"60 mph","operator":"Network Rail","passenger_lines":"6","railway":"rail","ref":"XTD","track_detail":"yes","usage":"main","voltage":"750"},"geometry":{"coordinates":[[-0.0535171,51.4893046],[-0.0539494,51.4894986],[-0.0545426,51.4897576],[-0.0547379,51.4898389],[-0.0550451,51.4899754],[-0.0551802,51.4900337],[-0.0553596,51.4901111],[-0.0601817,51.4921928],[-0.0610092,51.4925544],[-0.0614999,51.4927677]],"type":"LineString"}},{"id":"way/174843590","type":"Feature","properties":{"@id":"way/174843590","bridge":"viaduct","electrified":"rail","frequency":"0","gauge":"1435","layer":"1","maxspeed":"60 mph","name":"South Eastern Main Line","operator":"Network Rail","passenger_lines":"6","railway":"rail","ref":"XTD","track_detail":"yes","usage":"main","voltage":"750"},"geometry":{"coordinates":[[-0.0614664,51.4928011],[-0.0608737,51.4925443],[-0.059939,51.4921168],[-0.0593777,51.4918777],[-0.0593629,51.4918714],[-0.0585919,51.4915429],[-0.057715,51.491163]],"type":"LineString"}},{"id":"way/293403345","type":"Feature","properties":{"@id":"way/293403345","bridge":"yes","electrified":"rail","frequency":"0","gauge":"1435","layer":"1","maxspeed":"60 mph","name":"South Eastern Main Line","operator":"Network Rail","passenger_lines":"6","railway":"rail","ref":"XTD","track_detail":"yes","tracks":"6","usage":"main","voltage":"750"},"geometry":{"coordinates":[[-0.0374218,51.4823538],[-0.0376262,51.4825105]],"type":"LineString"}},{"id":"way/293403347","type":"Feature","properties":{"@id":"way/293403347","electrified":"rail","frequency":"0","gauge":"1435","layer":"1","maxspeed":"60 mph","name":"South Eastern Main Line","operator":"Network Rail","passenger_lines":"6","railway":"rail","ref":"XTD","track_detail":"yes","tracks":"6","usage":"main","voltage":"750"},"geometry":{"coordinates":[[-0.0370474,51.4820664],[-0.0372236,51.4822074],[-0.0374218,51.4823538]],"type":"LineString"}},{"id":"way/293403395","type":"Feature","properties":{"@id":"way/293403395","bridge":"yes","electrified":"rail","frequency":"0","gauge":"1435","layer":"1","maxspeed":"60 mph","name":"South Eastern Main Line","operator":"Network Rail","passenger_lines":"6","railway":"rail","ref":"XTD","track_detail":"yes","tracks":"6","usage":"main","voltage":"750"},"geometry":{"coordinates":[[-0.037585,51.48253],[-0.0373733,51.4823739]],"type":"LineString"}},{"id":"way/293403401","type":"Feature","properties":{"@id":"way/293403401","electrified":"rail","frequency":"0","gauge":"1435","maxspeed":"60 mph","name":"South Eastern Main Line","operator":"Network Rail","passenger_lines":"6","railway":"rail","ref":"XTD","track_detail":"yes","tracks":"6","usage":"main","voltage":"750"},"geometry":{"coordinates":[[-0.0373733,51.4823739],[-0.0371795,51.4822275],[-0.036957,51.4820443]],"type":"LineString"}},{"id":"way/362841627","type":"Feature","properties":{"@id":"way/362841627","bridge":"viaduct","electrified":"rail","frequency":"0","gauge":"1435","layer":"1","maxspeed":"20 mph","name":"Greenwich Park Branch Line","operator":"Network Rail","railway":"rail","ref":"NTL","usage":"main","voltage":"750"},"geometry":{"coordinates":[[-0.0157722,51.466254],[-0.0182514,51.4672489],[-0.0186684,51.4674175],[-0.0189959,51.467544],[-0.0194101,51.4676844],[-0.0196481,51.4677742],[-0.0199137,51.4678694]],"type":"LineString"}},{"id":"way/389865377","type":"Feature","properties":{"@id":"way/389865377","electrified":"rail","embankment":"yes","frequency":"0","gauge":"1435","maxspeed":"30 mph","name":"Lewisham Vale and Tanners Hill Line","operator":"Network Rail","railway":"rail","ref":"LVT","usage":"main","voltage":"750"},"geometry":{"coordinates":[[-0.0243718,51.4699183],[-0.0234358,51.4694489],[-0.0222578,51.4688826],[-0.0220891,51.4688022],[-0.0211436,51.4683594],[-0.0205771,51.468137]],"type":"LineString"}},{"id":"way/492574836","type":"Feature","properties":{"@id":"way/492574836","electrified":"rail","frequency":"0","gauge":"1435","maxspeed":"60 mph","name":"South Eastern Main Line","operator":"Network Rail","passenger_lines":"6","railway":"rail","ref":"XTD","track_detail":"yes","tracks":"6","usage":"main","voltage":"750"},"geometry":{"coordinates":[[-0.0534857,51.4893301],[-0.0529347,51.4890644],[-0.0524381,51.4888071]],"type":"LineString"}},{"id":"way/492574838","type":"Feature","properties":{"@id":"way/492574838","electrified":"rail","frequency":"0","gauge":"1435","maxspeed":"60 mph","name":"South Eastern Main Line","operator":"Network Rail","passenger_lines":"6","railway":"rail","ref":"XTD","track_detail":"yes","tracks":"6","usage":"main","voltage":"750"},"geometry":{"coordinates":[[-0.0523867,51.4887524],[-0.0529575,51.4890368],[-0.0535171,51.4893046]],"type":"LineString"}},{"id":"way/492574840","type":"Feature","properties":{"@id":"way/492574840","electrified":"rail","frequency":"0","gauge":"1435","layer":"-1","maxspeed":"60 mph","name":"South Eastern Main Line","operator":"Network Rail","passenger_lines":"6","railway":"rail","ref":"XTD","track_detail":"yes","tracks":"6","tunnel":"yes","usage":"main","voltage":"750"},"geometry":{"coordinates":[[-0.0516379,51.4883926],[-0.0523867,51.4887524]],"type":"LineString"}},{"id":"way/492574844","type":"Feature","properties":{"@id":"way/492574844","bridge":"viaduct","electrified":"rail","frequency":"0","gauge":"1435","layer":"1","maxspeed":"60 mph","name":"South Eastern Main Line","operator":"Network Rail","passenger_lines":"6","railway":"rail","ref":"XTD","track_detail":"yes","tracks":"6","usage":"main","voltage":"750"},"geometry":{"coordinates":[[-0.0506004,51.4879409],[-0.0503276,51.4877851],[-0.0500431,51.4876332],[-0.0498192,51.4875167],[-0.0495458,51.4873825],[-0.0492331,51.4872324],[-0.0489512,51.4871014],[-0.048556,51.4869325],[-0.0481677,51.4867801],[-0.0476518,51.4865869],[-0.047355,51.4864817],[-0.0467756,51.4862797],[-0.0462364,51.4861028],[-0.0456549,51.4858962],[-0.0451405,51.4856965],[-0.0446417,51.4855153],[-0.0439277,51.4852531],[-0.0430148,51.4849339],[-0.0419844,51.484512]],"type":"LineString"}},{"id":"way/492574849","type":"Feature","properties":{"@id":"way/492574849","electrified":"rail","frequency":"0","gauge":"1435","layer":"1","maxspeed":"60 mph","name":"South Eastern Main Line","operator":"Network Rail","passenger_lines":"6","railway":"rail","ref":"XTD","track_detail":"yes","tracks":"6","usage":"main","voltage":"750"},"geometry":{"coordinates":[[-0.0515358,51.4884074],[-0.0506004,51.4879409]],"type":"LineString"}},{"id":"way/492574850","type":"Feature","properties":{"@id":"way/492574850","electrified":"rail","frequency":"0","gauge":"1435","layer":"-1","maxspeed":"60 mph","name":"South Eastern Main Line","operator":"Network Rail","passenger_lines":"6","railway":"rail","ref":"XTD","track_detail":"yes","tracks":"6","tunnel":"yes","usage":"main","voltage":"750"},"geometry":{"coordinates":[[-0.0524381,51.4888071],[-0.0519088,51.4885834],[-0.0515358,51.4884074]],"type":"LineString"}},{"id":"way/492574852","type":"Feature","properties":{"@id":"way/492574852","electrified":"rail","frequency":"0","gauge":"1435","layer":"1","maxspeed":"60 mph","name":"South Eastern Main Line","operator":"Network Rail","passenger_lines":"6","railway":"rail","ref":"XTD","track_detail":"yes","tracks":"6","usage":"main","voltage":"750"},"geometry":{"coordinates":[[-0.0507167,51.4878946],[-0.0510381,51.4880651],[-0.0516379,51.4883926]],"type":"LineString"}},{"id":"way/604032348","type":"Feature","properties":{"@id":"way/604032348","bridge":"yes","electrified":"rail","frequency":"0","gauge":"1435","layer":"1","maxspeed":"60 mph","name":"South Eastern Main Line","operator":"Network Rail","railway":"rail","railway:etcs":"2","ref":"XTD","usage":"main","voltage":"750"},"geometry":{"coordinates":[[-0.0781711,51.5008331],[-0.0804985,51.5020436]],"type":"LineString"}},{"id":"way/604051054","type":"Feature","properties":{"@id":"way/604051054","bridge":"yes","electrified":"rail","frequency":"0","gauge":"1435","layer":"1","maxspeed":"20 mph","name":"South Eastern Main Line","operator":"Network Rail","railway":"rail","railway:aws":"yes","railway:etcs":"2","railway:tpws":"yes","ref":"XTD","usage":"main","voltage":"750"},"geometry":{"coordinates":[[-0.08306,51.5032573],[-0.083473,51.5034393],[-0.0841302,51.5037924],[-0.084739,51.504194],[-0.085419,51.5046639],[-0.0857212,51.5049208]],"type":"LineString"}},{"id":"way/607301825","type":"Feature","properties":{"@id":"way/607301825","bridge":"yes","electrified":"rail","frequency":"0","gauge":"1435","layer":"1","maxspeed":"20 mph","name":"South Eastern Main Line","operator":"Network Rail","railway":"rail","railway:aws":"yes","railway:etcs":"2","railway:tpws":"yes","ref":"XTD","usage":"main","voltage":"750"},"geometry":{"coordinates":[[-0.082345,51.5029297],[-0.0826143,51.5030587],[-0.08306,51.5032573]],"type":"LineString"}},{"id":"way/621486339","type":"Feature","properties":{"@id":"way/621486339","bridge":"yes","electrified":"rail","frequency":"0","gauge":"1435","layer":"1","maxspeed":"20 mph","name":"South Eastern Main Line","operator":"Network Rail","railway":"rail","railway:etcs":"2","ref":"XTD","usage":"main","voltage":"750"},"geometry":{"coordinates":[[-0.0804985,51.5020436],[-0.0808874,51.5022347],[-0.0818731,51.502708],[-0.0821199,51.5028291]],"type":"LineString"}},{"id":"way/621486340","type":"Feature","properties":{"@id":"way/621486340","bridge":"yes","electrified":"rail","frequency":"0","gauge":"1435","layer":"1","maxspeed":"20 mph","name":"South Eastern Main Line","operator":"Network Rail","railway":"rail","railway:aws":"yes","railway:etcs":"2","railway:tpws":"yes","ref":"XTD","usage":"main","voltage":"750"},"geometry":{"coordinates":[[-0.0831847,51.5033442],[-0.0826509,51.5031062],[-0.082085,51.5028541],[-0.0813246,51.502485],[-0.0809584,51.502311],[-0.0794653,51.5015608]],"type":"LineString"}},{"id":"way/623075174","type":"Feature","properties":{"@id":"way/623075174","electrified":"rail","frequency":"0","gauge":"1435","maxspeed":"30 mph","name":"South Eastern Main Line","operator":"Network Rail","railway":"rail","service":"crossover","track_detail":"yes","voltage":"750"},"geometry":{"coordinates":[[-0.0256412,51.4705173],[-0.0248669,51.4701301]],"type":"LineString"}},{"id":"way/711386053","type":"Feature","properties":{"@id":"way/711386053","bridge":"yes","electrified":"rail","frequency":"0","gauge":"1435","layer":"1","maxspeed":"20 mph","name":"South Eastern Main Line","operator":"Network Rail","railway":"rail","railway:aws":"yes","railway:etcs":"2","railway:tpws":"yes","ref":"XTD","usage":"main","voltage":"750"},"geometry":{"coordinates":[[-0.0821199,51.5028291],[-0.082345,51.5029297]],"type":"LineString"}},{"id":"way/712071021","type":"Feature","properties":{"@id":"way/712071021","electrified":"rail","frequency":"0","gauge":"1435","maxspeed":"60 mph","name":"South Eastern Main Line","operator":"Network Rail","passenger_lines":"4","railway":"rail","ref":"XTD","track_detail":"yes","tracks":"4","usage":"main","voltage":"750"},"geometry":{"coordinates":[[-0.0346761,51.4791485],[-0.0344598,51.4788453],[-0.0342497,51.4785303],[-0.0340297,51.4782133],[-0.0337974,51.4778713],[-0.0335673,51.47753],[-0.0333172,51.4771618],[-0.0330549,51.4767873],[-0.0327537,51.4763684],[-0.0324959,51.4760292],[-0.0321813,51.4756243],[-0.0319146,51.4752968],[-0.0315889,51.4749092],[-0.0312633,51.4745492]],"type":"LineString"}},{"id":"way/712071022","type":"Feature","properties":{"@id":"way/712071022","bridge":"yes","electrified":"rail","frequency":"0","gauge":"1435","layer":"1","maxspeed":"60 mph","name":"South Eastern Main Line","operator":"Network Rail","passenger_lines":"4","railway":"rail","ref":"XTD","track_detail":"yes","tracks":"4","usage":"main","voltage":"750"},"geometry":{"coordinates":[[-0.0347456,51.4791282],[-0.0348348,51.4792606]],"type":"LineString"}},{"id":"way/712071023","type":"Feature","properties":{"@id":"way/712071023","electrified":"rail","frequency":"0","gauge":"1435","maxspeed":"60 mph","name":"South Eastern Main Line","operator":"Network Rail","passenger_lines":"4","railway":"rail","ref":"XTD","track_detail":"yes","tracks":"4","usage":"main","voltage":"750"},"geometry":{"coordinates":[[-0.0348348,51.4792606],[-0.0348988,51.4793554],[-0.0352912,51.4799486],[-0.0357203,51.4805507],[-0.035886,51.4807946],[-0.036075,51.4810434],[-0.0362679,51.4812825],[-0.036455,51.4814973],[-0.0366187,51.4816708],[-0.0368272,51.4818747]],"type":"LineString"}},{"id":"way/712071024","type":"Feature","properties":{"@id":"way/712071024","bridge":"yes","electrified":"rail","frequency":"0","gauge":"1435","layer":"1","maxspeed":"60 mph","name":"South Eastern Main Line","operator":"Network Rail","passenger_lines":"4","railway":"rail","ref":"XTD","track_detail":"yes","tracks":"4","usage":"main","voltage":"750"},"geometry":{"coordinates":[[-0.0347661,51.4792787],[-0.0346761,51.4791485]],"type":"LineString"}},{"id":"way/722624737","type":"Feature","properties":{"@id":"way/722624737","electrified":"rail","frequency":"0","gauge":"1435","maxspeed":"60 mph","name":"South Eastern Main Line","operator":"Network Rail","passenger_lines":"4","railway":"rail","ref":"XTD","track_detail":"yes","usage":"main","voltage":"750"},"geometry":{"coordinates":[[-0.0269296,51.4711827],[-0.0266967,51.4710512],[-0.026442,51.4709135],[-0.0262902,51.4708339],[-0.0259734,51.4706777],[-0.0256412,51.4705173]],"type":"LineString"}},{"id":"way/722624738","type":"Feature","properties":{"@id":"way/722624738","electrified":"rail","frequency":"0","gauge":"1435","maxspeed":"60 mph","name":"South Eastern Main Line'","operator":"Network Rail","passenger_lines":"4","railway":"rail","ref":"XTD","usage":"main","voltage":"750"},"geometry":{"coordinates":[[-0.0243718,51.4699183],[-0.0248669,51.4701301]],"type":"LineString"}},{"id":"way/722624739","type":"Feature","properties":{"@id":"way/722624739","electrified":"rail","frequency":"0","gauge":"1435","maxspeed":"60 mph","name":"South Eastern Main Line","operator":"Network Rail","passenger_lines":"4","railway":"rail","ref":"XTD","usage":"main","voltage":"750"},"geometry":{"coordinates":[[-0.0260207,51.470638],[-0.0264953,51.4708763],[-0.026751,51.4710152],[-0.0269848,51.4711458]],"type":"LineString"}},{"id":"way/784236834","type":"Feature","properties":{"@id":"way/784236834","bridge":"yes","electrified":"rail","frequency":"0","gauge":"1435","layer":"1","maxspeed":"60 mph","name":"South Eastern Main Line","operator":"Network Rail","railway":"rail","railway:etcs":"2","ref":"XTD","usage":"main","voltage":"750"},"geometry":{"coordinates":[[-0.0794653,51.5015608],[-0.0786925,51.5011435],[-0.0781346,51.5008599]],"type":"LineString"}},{"id":"way/785121279","type":"Feature","properties":{"@id":"way/785121279","electrified":"rail","frequency":"0","gauge":"1435","maxspeed":"25 mph","name":"Lewisham Vale and Tanners Hill Line","operator":"Network Rail","railway":"rail","ref":"LVT","usage":"main","voltage":"750"},"geometry":{"coordinates":[[-0.0199137,51.4678694],[-0.0202774,51.4679998],[-0.0204317,51.4680504],[-0.021145,51.4683231]],"type":"LineString"}},{"id":"way/785121280","type":"Feature","properties":{"@id":"way/785121280","electrified":"rail","frequency":"0","gauge":"1435","maxspeed":"25 mph","name":"Lewisham Vale and Tanners Hill Line","railway":"rail","ref":"LVT","usage":"main","voltage":"750"},"geometry":{"coordinates":[[-0.0205771,51.468137],[-0.0202994,51.4680369],[-0.0199212,51.4678999]],"type":"LineString"}},{"id":"way/788151085","type":"Feature","properties":{"@id":"way/788151085","electrified":"rail","frequency":"0","gauge":"1435","maxspeed":"60 mph","name":"South Eastern Main Line","operator":"Network Rail","passenger_lines":"4","railway":"rail","ref":"XTD","track_detail":"yes","tracks":"4","usage":"main","voltage":"750"},"geometry":{"coordinates":[[-0.0350055,51.4796247],[-0.0347661,51.4792787]],"type":"LineString"}}]}