{"type":"FeatureCollection","features":[{"id":"way/44200515","type":"Feature","properties":{"@id":"way/44200515","electrified":"no","gauge":"1435","maxspeed":"15 mph","name":"Highland Main Line","operator":"Network Rail","railway":"rail","ref":"HGL1","usage":"main"},"geometry":{"coordinates":[[-3.4378194,56.3891307],[-3.4379379,56.3892899],[-3.4380311,56.3894184],[-3.4380548,56.3894523],[-3.438246,56.3897261],[-3.4383685,56.3898919],[-3.4384981,56.3900839],[-3.4385793,56.3902323],[-3.4387178,56.3905319],[-3.4388452,56.3907374],[-3.4396233,56.3917965],[-3.4396986,56.391899]],"type":"LineString"}},{"id":"way/150691088","type":"Feature","properties":{"@id":"way/150691088","electrified":"no","gauge":"1435","maxspeed":"30 mph","name":"Scottish Central Main Line","operator":"Network Rail","passenger_lines":"2","railway":"rail","ref":"SCM4","usage":"main"},"geometry":{"coordinates":[[-3.4332959,56.3829244],[-3.4344637,56.3845153],[-3.4346785,56.3848134]],"type":"LineString"}},{"id":"way/234811328","type":"Feature","properties":{"@id":"way/234811328","electrified":"no","gauge":"1435","maxspeed":"15 mph","name":"Highland Main Line","operator":"Network Rail","passenger_lines":"2","railway":"rail","railway:traffic_mode":"mixed","ref":"HGL1","usage":"main"},"geometry":{"coordinates":[[-3.437163,56.3881411],[-3.4375022,56.3886024],[-3.4375313,56.388642],[-3.4378506,56.3890862],[-3.4381084,56.3894358],[-3.4382474,56.3896277],[-3.4384327,56.3898819],[-3.4384577,56.3899163]],"type":"LineString"}},{"id":"way/367722983","type":"Feature","properties":{"@id":"way/367722983","bridge":"yes","electrified":"no","gauge":"1435","layer":"1","maxspeed":"30 mph","name":"Highland Line","operator":"Network Rail","passenger_lines":"2","railway":"rail","ref":"HGL1","usage":"main"},"geometry":{"coordinates":[[-3.4369819,56.3879771],[-3.4371087,56.3881521]],"type":"LineString"}},{"id":"way/367722985","type":"Feature","properties":{"@id":"way/367722985","electrified":"no","gauge":"1435","maxspeed":"15 mph","name":"Highland Main Line","operator":"Network Rail","railway":"rail","ref":"HGL1","usage":"main"},"geometry":{"coordinates":[[-3.4384577,56.3899163],[-3.438566,56.3900873],[-3.4386433,56.3902236],[-3.4386915,56.3903253],[-3.4387356,56.3904409],[-3.4387767,56.3905221],[-3.4389027,56.3907255],[-3.4396765,56.3917788],[-3.4397554,56.3918862]],"type":"LineString"}},{"id":"way/367722988","type":"Feature","properties":{"@id":"way/367722988","electrified":"no","gauge":"1435","operator":"Network Rail","railway":"rail","service":"crossover"},"geometry":{"coordinates":[[-3.4375313,56.388642],[-3.4377892,56.3890899]],"type":"LineString"}},{"id":"way/367723322","type":"Feature","properties":{"@id":"way/367723322","electrified":"no","gauge":"1435","maxspeed":"20 mph","name":"Highland Line","operator":"Network Rail","passenger_lines":"2","railway":"rail","ref":"HGL1","usage":"main"},"geometry":{"coordinates":[[-3.4346785,56.3848134],[-3.4353626,56.3857528],[-3.4369819,56.3879771]],"type":"LineString"}},{"id":"way/367723412","type":"Feature","properties":{"@id":"way/367723412","electrified":"no","gauge":"1435","maxspeed":"60 mph","name":"Highland Main Line","operator":"Network Rail","passenger_lines":"2","railway":"rail","ref":"SCM4","usage":"main"},"geometry":{"coordinates":[[-3.4277975,56.375264],[-3.4281376,56.3757656],[-3.4284395,56.3762188],[-3.4288683,56.3768153],[-3.4292451,56.3773318],[-3.4296849,56.3779504],[-3.4301357,56.3785742],[-3.430467,56.379032],[-3.4309186,56.379666],[-3.431253,56.380123],[-3.4315123,56.3804762],[-3.4318089,56.3808902],[-3.4323119,56.381566],[-3.4332959,56.3829244]],"type":"LineString"}},{"id":"way/430293216","type":"Feature","properties":{"@id":"way/430293216","electrified":"no","gauge":"1435","layer":"-1","maxspeed":"60 mph","name":"Moncrieffe Tunnel","passenger_lines":"2","railway":"rail","ref":"SCM4","source":"NPE","tunnel":"yes","usage":"main"},"geometry":{"coordinates":[[-3.4300987,56.365489],[-3.4293296,56.3662802],[-3.4287482,56.3670331],[-3.428336,56.3676417],[-3.4279096,56.3683728],[-3.4274737,56.3692279],[-3.4271888,56.3699081],[-3.4269952,56.3706184],[-3.4269123,56.3715064],[-3.4268848,56.3721736],[-3.4270491,56.3732479],[-3.4272694,56.3740973],[-3.4277975,56.375264]],"type":"LineString"}},{"id":"way/430293217","type":"Feature","properties":{"@id":"way/430293217","electrified":"no","gauge":"1435","maxspeed":"60 mph","name":"Scottish Central Main Line","passenger_lines":"2","railway":"rail","ref":"SCM4","usage":"main"},"geometry":{"coordinates":[[-3.431367,56.3645128],[-3.4300987,56.365489]],"type":"LineString"}},{"id":"way/430300343","type":"Feature","properties":{"@id":"way/430300343","electrified":"no","gauge":"1435","maxspeed":"15 mph","name":"Highland Line","operator":"Network Rail","passenger_lines":"2","railway":"rail","ref":"HGL1","usage":"main"},"geometry":{"coordinates":[[-3.4374273,56.388592],[-3.4375935,56.3888151],[-3.4377892,56.3890899],[-3.4378194,56.3891307]],"type":"LineString"}},{"id":"way/502095084","type":"Feature","properties":{"@id":"way/502095084","electrified":"no","gauge":"1435","maxspeed":"15 mph","name":"Highland Line","operator":"Network Rail","passenger_lines":"2","railway":"rail","ref":"HGL1","usage":"main"},"geometry":{"coordinates":[[-3.4373233,56.3884463],[-3.4374273,56.388592]],"type":"LineString"}},{"id":"way/502095085","type":"Feature","properties":{"@id":"way/502095085","electrified":"no","gauge":"1435","maxspeed":"15 mph","name":"Highland Line","operator":"Network Rail","passenger_lines":"2","railway":"rail","ref":"HGL1","usage":"main"},"geometry":{"coordinates":[[-3.4371087,56.3881521],[-3.4373233,56.3884463]],"type":"LineString"}},{"id":"way/1013394747","type":"Feature","properties":{"@id":"way/1013394747","bridge":"yes","electrified":"no","gauge":"1435","layer":"1","maxspeed":"15 mph","name":"Highland Main Line","operator":"Network Rail","passenger_lines":"2","railway":"rail","railway:traffic_mode":"mixed","ref":"HGL1","usage":"main"},"geometry":{"coordinates":[[-3.4370358,56.3879661],[-3.437163,56.3881411]],"type":"LineString"}},{"id":"way/1270073813","type":"Feature","properties":{"@id":"way/1270073813","electrified":"no","gauge":"1435","maxspeed":"15 mph","name":"Highland Main Line","operator":"Network Rail","railway":"rail","railway:traffic_mode":"mixed","ref":"HGL1","service":"crossover"},"geometry":{"coordinates":[[-3.4384327,56.3898819],[-3.4380548,56.3894523]],"type":"LineString"}}]}