{"type":"FeatureCollection","features":[{"id":"way/368597673","type":"Feature","properties":{"@id":"way/368597673","electrified":"no","gauge":"1435","maxspeed":"85 mph","name":"Highland Main Line","operator":"Network Rail","passenger_lines":"2","railway":"rail","railway:traffic_mode":"mixed","ref":"HGL1","usage":"main"},"geometry":{"coordinates":[[-3.4515539,56.4829317],[-3.4525114,56.4822249],[-3.4554845,56.4800379],[-3.4604486,56.4763794],[-3.4637293,56.473973],[-3.4664896,56.4719308]],"type":"LineString"}},{"id":"way/368597676","type":"Feature","properties":{"@id":"way/368597676","bridge":"yes","electrified":"no","gauge":"1435","layer":"1","maxspeed":"75 mph","name":"Highland Main Line","operator":"Network Rail","passenger_lines":"2","railway":"rail","railway:traffic_mode":"mixed","ref":"HGL1","usage":"main"},"geometry":{"coordinates":[[-3.4599885,56.4153028],[-3.4603223,56.4158295]],"type":"LineString"}},{"id":"way/368597680","type":"Feature","properties":{"@id":"way/368597680","bridge":"yes","electrified":"no","gauge":"1435","layer":"1","maxspeed":"85 mph","name":"Highland Main Line","operator":"Network Rail","passenger_lines":"2","railway":"rail","railway:traffic_mode":"mixed","ref":"HGL1","usage":"main"},"geometry":{"coordinates":[[-3.4665957,56.4718516],[-3.4664896,56.4719308]],"type":"LineString"}},{"id":"way/368597681","type":"Feature","properties":{"@id":"way/368597681","bridge":"yes","electrified":"no","gauge":"1435","layer":"1","maxspeed":"85 mph","name":"Highland Main Line","operator":"Network Rail","passenger_lines":"2","railway":"rail","railway:traffic_mode":"mixed","ref":"HGL1","usage":"main","wikidata":"Q114077660"},"geometry":{"coordinates":[[-3.4732237,56.4588037],[-3.4733181,56.4593217]],"type":"LineString"}},{"id":"way/368597683","type":"Feature","properties":{"@id":"way/368597683","bridge":"yes","electrified":"no","gauge":"1435","layer":"1","maxspeed":"80 mph","name":"Highland Main Line","operator":"Network Rail","passenger_lines":"2","railway":"rail","railway:traffic_mode":"mixed","ref":"HGL1","usage":"main"},"geometry":{"coordinates":[[-3.4645092,56.4226996],[-3.4650399,56.4235892]],"type":"LineString"}},{"id":"way/368597684","type":"Feature","properties":{"@id":"way/368597684","electrified":"no","gauge":"1435","maxspeed":"85 mph","name":"Highland Main Line","operator":"Network Rail","passenger_lines":"2","railway":"rail","railway:traffic_mode":"mixed","ref":"HGL1","usage":"main"},"geometry":{"coordinates":[[-3.4669058,56.4716004],[-3.4665957,56.4718516]],"type":"LineString"}},{"id":"way/368597688","type":"Feature","properties":{"@id":"way/368597688","bridge":"yes","electrified":"no","gauge":"1435","layer":"1","maxspeed":"85 mph","name":"Highland Main Line","operator":"Network Rail","passenger_lines":"2","railway":"rail","railway:traffic_mode":"mixed","ref":"HGL1","usage":"main","wikidata":"Q114077661"},"geometry":{"coordinates":[[-3.4727238,56.4556942],[-3.4728047,56.456233]],"type":"LineString"}},{"id":"way/368597690","type":"Feature","properties":{"@id":"way/368597690","electrified":"no","gauge":"1435","maxspeed":"85 mph","name":"Highland Main Line","operator":"Network Rail","passenger_lines":"2","railway":"rail","railway:traffic_mode":"mixed","ref":"HGL1","usage":"main"},"geometry":{"coordinates":[[-3.4733181,56.4593217],[-3.4733664,56.4597224],[-3.4734051,56.4601246],[-3.4734215,56.4609244],[-3.4733787,56.4616694],[-3.4732825,56.4623316],[-3.4731383,56.4630041],[-3.4728865,56.463786],[-3.4726605,56.4643751],[-3.4723296,56.4651289],[-3.471904,56.4659452],[-3.4716752,56.4663498],[-3.4714376,56.4667507],[-3.4709597,56.4674464],[-3.470465,56.4680961],[-3.4697479,56.4689561],[-3.4690392,56.4697129],[-3.4683297,56.4703824],[-3.4676328,56.470995],[-3.4669058,56.4716004]],"type":"LineString"}},{"id":"way/368597691","type":"Feature","properties":{"@id":"way/368597691","electrified":"no","gauge":"1435","maxspeed":"75 mph","name":"Highland Main Line","operator":"Network Rail","passenger_lines":"2","railway":"rail","railway:traffic_mode":"mixed","ref":"HGL1","usage":"main"},"geometry":{"coordinates":[[-3.4423892,56.3972522],[-3.4425611,56.3977706],[-3.4426533,56.3980417],[-3.4427326,56.3982474],[-3.4428692,56.398587],[-3.4431023,56.3991483],[-3.4434455,56.399784],[-3.4438807,56.4004531],[-3.4444174,56.4011227],[-3.4448982,56.4016868],[-3.4451707,56.4019755],[-3.4454392,56.4022453],[-3.4456707,56.4024682],[-3.4459478,56.4027214],[-3.4463819,56.403103],[-3.447025,56.4036472],[-3.4472975,56.4038783],[-3.4473789,56.4039471],[-3.4485564,56.4049414],[-3.4498155,56.4060047],[-3.4503462,56.4064542],[-3.4507429,56.4067875],[-3.455141,56.4104802],[-3.4561602,56.4113227],[-3.4569477,56.4119827],[-3.457097,56.4121125],[-3.4574623,56.4124359],[-3.4579677,56.4129124],[-3.4582335,56.4132126],[-3.4588687,56.4138847],[-3.4592149,56.4142805],[-3.4595524,56.414706],[-3.4599885,56.4153028]],"type":"LineString"}},{"id":"way/368597694","type":"Feature","properties":{"@id":"way/368597694","electrified":"no","gauge":"1435","maxspeed":"80 mph","name":"Highland Main Line","operator":"Network Rail","passenger_lines":"2","railway":"rail","railway:traffic_mode":"mixed","ref":"HGL1","usage":"main"},"geometry":{"coordinates":[[-3.4650399,56.4235892],[-3.466192,56.4254587],[-3.4675417,56.4276622]],"type":"LineString"}},{"id":"way/368597696","type":"Feature","properties":{"@id":"way/368597696","electrified":"no","gauge":"1435","maxspeed":"85 mph","name":"Highland Main Line","operator":"Network Rail","passenger_lines":"2","railway":"rail","railway:traffic_mode":"mixed","ref":"HGL1","usage":"main"},"geometry":{"coordinates":[[-3.4728047,56.456233],[-3.4729039,56.456746],[-3.4729701,56.457257],[-3.4732237,56.4588037]],"type":"LineString"}},{"id":"way/368597697","type":"Feature","properties":{"@id":"way/368597697","electrified":"no","gauge":"1435","maxspeed":"75 mph","name":"Highland Main Line","operator":"Network Rail","passenger_lines":"2","railway":"rail","railway:traffic_mode":"mixed","ref":"HGL1","usage":"main"},"geometry":{"coordinates":[[-3.4603223,56.4158295],[-3.4606548,56.4163535],[-3.4613967,56.4175753]],"type":"LineString"}},{"id":"way/422486464","type":"Feature","properties":{"@id":"way/422486464","bridge":"yes","electrified":"no","gauge":"1435","layer":"1","maxspeed":"85 mph","name":"Highland Main Line","operator":"Network Rail","passenger_lines":"2","railway":"rail","railway:traffic_mode":"mixed","ref":"HGL1","usage":"main"},"geometry":{"coordinates":[[-3.4678066,56.4280947],[-3.4678346,56.4281405]],"type":"LineString"}},{"id":"way/422486465","type":"Feature","properties":{"@id":"way/422486465","electrified":"no","gauge":"1435","maxspeed":"85 mph","name":"Highland Main Line","operator":"Network Rail","passenger_lines":"2","railway":"rail","railway:traffic_mode":"mixed","ref":"HGL1","usage":"main"},"geometry":{"coordinates":[[-3.4678346,56.4281405],[-3.4679819,56.428381],[-3.4683447,56.4289043],[-3.4688692,56.4296083],[-3.4693919,56.430162],[-3.470273,56.4311009],[-3.4707563,56.4316335],[-3.4712147,56.4322277],[-3.4715492,56.4327571],[-3.4718739,56.4333716],[-3.4721473,56.4340328],[-3.4723227,56.4346667],[-3.4724465,56.4354039],[-3.4724662,56.4360421],[-3.4724394,56.436612],[-3.4723473,56.4372568],[-3.4722129,56.4378171],[-3.4720291,56.4383952],[-3.4717908,56.4391022],[-3.4715703,56.4398395],[-3.4714311,56.4403907],[-3.471329,56.4408833]],"type":"LineString"}},{"id":"way/430300335","type":"Feature","properties":{"@id":"way/430300335","electrified":"no","gauge":"1435","maxspeed":"45 mph","name":"Highland Main Line","operator":"Network Rail","passenger_lines":"1","railway":"rail","railway:traffic_mode":"mixed","ref":"HGL1","source":"GPS","usage":"main"},"geometry":{"coordinates":[[-3.446021,56.4861635],[-3.4443446,56.4868188]],"type":"LineString"}},{"id":"way/777526120","type":"Feature","properties":{"@id":"way/777526120","electrified":"no","gauge":"1435","maxspeed":"15 mph","name":"Highland Main Line","operator":"Network Rail","passenger_lines":"2","railway":"rail","railway:traffic_mode":"mixed","ref":"HGL1","usage":"main"},"geometry":{"coordinates":[[-3.4416976,56.3952349],[-3.4417911,56.3954479],[-3.4418589,56.3956494],[-3.442023,56.3961404],[-3.4421802,56.3966166],[-3.4423892,56.3972522]],"type":"LineString"}},{"id":"way/777526123","type":"Feature","properties":{"@id":"way/777526123","electrified":"no","gauge":"1435","maxspeed":"80 mph","name":"Highland Main Line","operator":"Network Rail","passenger_lines":"2","railway":"rail","railway:traffic_mode":"mixed","ref":"HGL1","usage":"main"},"geometry":{"coordinates":[[-3.4613967,56.4175753],[-3.4627028,56.4197256],[-3.4645092,56.4226996]],"type":"LineString"}},{"id":"way/777526124","type":"Feature","properties":{"@id":"way/777526124","electrified":"no","gauge":"1435","maxspeed":"85 mph","name":"Highland Main Line","operator":"Network Rail","passenger_lines":"2","railway":"rail","railway:traffic_mode":"mixed","ref":"HGL1","usage":"main"},"geometry":{"coordinates":[[-3.4675417,56.4276622],[-3.4678066,56.4280947]],"type":"LineString"}},{"id":"way/777526127","type":"Feature","properties":{"@id":"way/777526127","electrified":"no","gauge":"1435","maxspeed":"75 mph","name":"Highland Main Line","operator":"Network Rail","passenger_lines":"2","railway":"rail","railway:traffic_mode":"mixed","ref":"HGL1","usage":"main"},"geometry":{"coordinates":[[-3.4476698,56.4853804],[-3.448483,56.4849638],[-3.4492059,56.4845597],[-3.4496152,56.4843179],[-3.4500829,56.4840059],[-3.4506354,56.4836182],[-3.4515539,56.4829317]],"type":"LineString"}},{"id":"way/777526128","type":"Feature","properties":{"@id":"way/777526128","electrified":"no","gauge":"1435","maxspeed":"35 mph","name":"Highland Main Line","operator":"Network Rail","passenger_lines":"2","railway":"rail","railway:traffic_mode":"mixed","ref":"HGL1","usage":"main"},"geometry":{"coordinates":[[-3.4476698,56.4853804],[-3.4464797,56.4859329],[-3.446021,56.4861635]],"type":"LineString"}},{"id":"way/779447285","type":"Feature","properties":{"@id":"way/779447285","electrified":"no","gauge":"1435","maxspeed":"15 mph","name":"Highland Main Line","operator":"Network Rail","passenger_lines":"2","railway":"rail","railway:traffic_mode":"mixed","ref":"HGL1","usage":"main"},"geometry":{"coordinates":[[-3.4387477,56.3912363],[-3.4389235,56.3915462],[-3.4394161,56.3922369],[-3.4407159,56.3939751],[-3.4409241,56.3942157],[-3.4412064,56.39455],[-3.4414036,56.3947866],[-3.4415157,56.3949345],[-3.4416056,56.3950706],[-3.4416976,56.3952349]],"type":"LineString"}},{"id":"way/1017591401","type":"Feature","properties":{"@id":"way/1017591401","electrified":"no","gauge":"1435","maxspeed":"85 mph","name":"Highland Main Line","operator":"Network Rail","passenger_lines":"2","railway":"rail","railway:traffic_mode":"mixed","ref":"HGL1","usage":"main"},"geometry":{"coordinates":[[-3.4713169,56.4409415],[-3.4711274,56.4421146],[-3.4710367,56.4430621],[-3.4710071,56.4437413],[-3.4710101,56.444491],[-3.4710562,56.4452386],[-3.4711353,56.4460367],[-3.4713602,56.4475102],[-3.4715302,56.4485717],[-3.4720079,56.4515424],[-3.4724958,56.4544051],[-3.4727238,56.4556942]],"type":"LineString"}},{"id":"way/1017591402","type":"Feature","properties":{"@id":"way/1017591402","bridge":"yes","electrified":"no","gauge":"1435","layer":"1","maxspeed":"85 mph","name":"Highland Main Line","operator":"Network Rail","passenger_lines":"2","railway":"rail","railway:traffic_mode":"mixed","ref":"HGL1","usage":"main"},"geometry":{"coordinates":[[-3.471329,56.4408833],[-3.4713169,56.4409415]],"type":"LineString"}}]}