{"type":"FeatureCollection","features":[{"id":"way/4438950","type":"Feature","properties":{"@id":"way/4438950","electrified":"no","gauge":"1435","maxspeed":"15 mph","name":"Tay Coast Line","operator":"Network Rail","passenger_lines":"2","railway":"rail","ref":"SCM5","usage":"main"},"geometry":{"coordinates":[[-3.4377528,56.389185],[-3.4377763,56.3892283],[-3.4378436,56.3893682],[-3.4379008,56.389482],[-3.438182,56.3900448],[-3.4382079,56.3901142],[-3.4382389,56.3902098],[-3.4382866,56.3903458],[-3.4383125,56.3904452],[-3.4383281,56.3905256],[-3.4383377,56.3907346],[-3.4383374,56.3908222],[-3.4383229,56.390908],[-3.4383017,56.3909811],[-3.4382678,56.3910662],[-3.4382181,56.3911708],[-3.4381599,56.3912679],[-3.4380917,56.3913711],[-3.4380228,56.3914544],[-3.4379414,56.3915448],[-3.4378455,56.3916405],[-3.437775,56.3916988],[-3.4376316,56.3918098],[-3.4374047,56.3919557],[-3.4371695,56.3920851]],"type":"LineString"}},{"id":"way/116931710","type":"Feature","properties":{"@id":"way/116931710","electrified":"no","gauge":"1435","maxspeed":"20 mph","name":"Tay Coast Line","operator":"Network Rail","passenger_lines":"1","railway":"rail","ref":"SCM5","usage":"main"},"geometry":{"coordinates":[[-3.4332856,56.392596],[-3.4324812,56.3925863]],"type":"LineString"}},{"id":"way/367722987","type":"Feature","properties":{"@id":"way/367722987","electrified":"no","gauge":"1435","maxspeed":"15 mph","operator":"Network Rail","railway":"rail","service":"crossover"},"geometry":{"coordinates":[[-3.4374273,56.388592],[-3.4375811,56.3888378],[-3.4376486,56.3889737],[-3.4377528,56.389185]],"type":"LineString"}},{"id":"way/367722991","type":"Feature","properties":{"@id":"way/367722991","electrified":"no","gauge":"1435","maxspeed":"15 mph","operator":"Network Rail","railway":"rail","service":"crossover"},"geometry":{"coordinates":[[-3.4371432,56.3881455],[-3.4373233,56.3884463]],"type":"LineString"}},{"id":"way/367723411","type":"Feature","properties":{"@id":"way/367723411","electrified":"no","gauge":"1435","maxspeed":"30 mph","name":"Highland Main Line","operator":"Network Rail","passenger_lines":"2","railway":"rail","ref":"HGL1","usage":"main"},"geometry":{"coordinates":[[-3.4341642,56.3840251],[-3.4342373,56.3841249],[-3.4347346,56.3848066],[-3.4348969,56.3850292],[-3.4350996,56.3853049],[-3.4357505,56.3861923],[-3.4370358,56.3879661]],"type":"LineString"}},{"id":"way/474178094","type":"Feature","properties":{"@id":"way/474178094","electrified":"no","gauge":"1435","maxspeed":"15 mph","name":"Tay Coast Line","operator":"Network Rail","passenger_lines":"2","railway":"rail","ref":"SCM5","usage":"main"},"geometry":{"coordinates":[[-3.4369572,56.3921781],[-3.4368109,56.3922336],[-3.436668,56.3922801],[-3.4364697,56.3923354],[-3.4362872,56.3923807]],"type":"LineString"}},{"id":"way/474178095","type":"Feature","properties":{"@id":"way/474178095","electrified":"no","gauge":"1435","maxspeed":"15 mph","name":"Tay Coast Line","operator":"Network Rail","passenger_lines":"2","railway":"rail","ref":"SCM5","usage":"main"},"geometry":{"coordinates":[[-3.4362872,56.3923807],[-3.4360616,56.3924265],[-3.4359047,56.3924552],[-3.4357056,56.3924869],[-3.4353926,56.3925286],[-3.4351948,56.392548],[-3.4349091,56.3925687]],"type":"LineString"}},{"id":"way/502095084","type":"Feature","properties":{"@id":"way/502095084","electrified":"no","gauge":"1435","maxspeed":"15 mph","name":"Highland Line","operator":"Network Rail","passenger_lines":"2","railway":"rail","ref":"HGL1","usage":"main"},"geometry":{"coordinates":[[-3.4373233,56.3884463],[-3.4374273,56.388592]],"type":"LineString"}},{"id":"way/636659066","type":"Feature","properties":{"@id":"way/636659066","electrified":"no","gauge":"1435","maxspeed":"20 mph","name":"Tay Coast Line","operator":"Network Rail","passenger_lines":"1","railway":"rail","ref":"SCM5","usage":"main"},"geometry":{"coordinates":[[-3.4349091,56.3925687],[-3.4345515,56.3925934]],"type":"LineString"}},{"id":"way/1013394674","type":"Feature","properties":{"@id":"way/1013394674","bridge":"yes","electrified":"no","gauge":"1435","layer":"1","maxspeed":"20 mph","name":"Tay Coast Line","operator":"Network Rail","passenger_lines":"1","railway":"rail","ref":"SCM5","usage":"main"},"geometry":{"coordinates":[[-3.4345515,56.3925934],[-3.4343025,56.3926028]],"type":"LineString"}},{"id":"way/1013394677","type":"Feature","properties":{"@id":"way/1013394677","electrified":"no","gauge":"1435","maxspeed":"20 mph","name":"Tay Coast Line","operator":"Network Rail","passenger_lines":"1","railway":"rail","ref":"SCM5","usage":"main"},"geometry":{"coordinates":[[-3.4343025,56.3926028],[-3.4339309,56.3925994],[-3.4334309,56.3925972]],"type":"LineString"}},{"id":"way/1013394678","type":"Feature","properties":{"@id":"way/1013394678","bridge":"yes","electrified":"no","gauge":"1435","layer":"1","maxspeed":"20 mph","name":"Tay Coast Line","operator":"Network Rail","passenger_lines":"1","railway":"rail","ref":"SCM5","usage":"main"},"geometry":{"coordinates":[[-3.4334309,56.3925972],[-3.4332856,56.392596]],"type":"LineString"}},{"id":"way/1013394681","type":"Feature","properties":{"@id":"way/1013394681","bridge":"yes","electrified":"no","gauge":"1435","layer":"1","maxspeed":"20 mph","name":"Tay Coast Line","operator":"Network Rail","passenger_lines":"1","railway":"rail","ref":"SCM5","usage":"main"},"geometry":{"coordinates":[[-3.4324812,56.3925863],[-3.4322212,56.3925842]],"type":"LineString"}},{"id":"way/1013394748","type":"Feature","properties":{"@id":"way/1013394748","bridge":"yes","electrified":"no","gauge":"1435","layer":"1","maxspeed":"15 mph","operator":"Network Rail","railway":"rail","service":"crossover"},"geometry":{"coordinates":[[-3.4370358,56.3879661],[-3.4371432,56.3881455]],"type":"LineString"}},{"id":"way/1260630143","type":"Feature","properties":{"@id":"way/1260630143","bridge":"yes","electrified":"no","gauge":"1435","layer":"1","maxspeed":"15 mph","name":"Tay Coast Line","operator":"Network Rail","passenger_lines":"2","railway":"rail","ref":"SCM5","usage":"main"},"geometry":{"coordinates":[[-3.4371695,56.3920851],[-3.4370451,56.3921428],[-3.4369572,56.3921781]],"type":"LineString"}}]}